{"type": "FeatureCollection", "features": [{"type": "Feature", "properties": {"pack": "CA091 (previously Yowlumni Disperser)", "pack_origin": "Beyem Seyo", "most_recent_adj": "08/23/2026"}, "geometry": {"type": "Polygon", "coordinates": [[[-118.46538846262922, 35.75517145337409], [-118.43305265634521, 35.77937029272066], [-118.441970111734, 35.81343886012455], [-118.48324217645548, 35.82330082390621], [-118.51557219613179, 35.799095245027225], [-118.50663595226513, 35.76503444626171], [-118.46538846262922, 35.75517145337409]]]}}, {"type": "Feature", "properties": {"pack": "CA131", "pack_origin": "Grizzly", "most_recent_adj": "08/22/2026"}, "geometry": {"type": "Polygon", "coordinates": [[[-120.47149784996357, 39.946245743476595], [-120.43865270273437, 39.97040638232014], [-120.44848975162101, 40.00292337983288], [-120.49119081888223, 40.01127188785052], [-120.52402728190555, 39.987105455055946], [-120.5141713790884, 39.95459631245814], [-120.47149784996357, 39.946245743476595]]]}}, {"type": "Feature", "properties": {"pack": "CA107 (previously Harvey 1)", "pack_origin": "Harvey", "most_recent_adj": "08/19/2026"}, "geometry": {"type": "Polygon", "coordinates": [[[-120.82404441742113, 40.441230818327625], [-120.7911855679424, 40.465398959247594], [-120.80116692054918, 40.49768853481335], [-120.84402590561277, 40.50580208250065], [-120.8768755665305, 40.481628265976006], [-120.86687544853139, 40.44934658158245], [-120.82404441742113, 40.441230818327625]]]}}, {"type": "Feature", "properties": {"pack": "CA150 (previously Harvey 3)", "pack_origin": "Harvey", "most_recent_adj": "08/18/2026"}, "geometry": {"type": "Polygon", "coordinates": [[[-121.05827090988238, 40.54609375439224], [-121.02547770443947, 40.57029740504004], [-121.035532649469, 40.60250981065009], [-121.07839943727866, 40.610510610499375], [-121.11118315847762, 40.58630133972915], [-121.10110959382338, 40.55409689338784], [-121.05827090988238, 40.54609375439224]]]}}, {"type": "Feature", "properties": {"pack": "CA124 (previously Whaleback Disperser 2)", "pack_origin": "Whaleback", "most_recent_adj": "08/22/2026"}, "geometry": {"type": "Polygon", "coordinates": [[[-121.60273191553689, 40.737148525548236], [-121.57011220094752, 40.761440539317555], [-121.58033196970896, 40.79348916181908], [-121.62318972529782, 40.80123765248339], [-121.65579928059647, 40.77694014714649], [-121.64556125756421, 40.7448996467274], [-121.60273191553689, 40.737148525548236]]]}}, {"type": "Feature", "properties": {"pack": "CA077; pack origin: Whaleback", "pack_origin": "Whaleback", "most_recent_adj": "08/22/2026"}, "geometry": {"type": "Polygon", "coordinates": [[[-121.3468025306635, 41.20351356769422], [-121.31391504954286, 41.227683370579356], [-121.32411503809348, 41.25961594912318], [-121.36722116279581, 41.26737080255233], [-121.4000986893688, 41.24319549899925], [-121.38988006394231, 41.21127084682544], [-121.3468025306635, 41.20351356769422]]]}}, {"type": "Feature", "properties": {"pack": "CA127 (previously Whaleback 2)", "pack_origin": "Whaleback", "most_recent_adj": "08/22/2026"}, "geometry": {"type": "Polygon", "coordinates": [[[-122.05496442781796, 41.5083826519601], [-122.02228785027, 41.53265700934091], [-122.03270870500953, 41.5643514584977], [-122.075824326536, 41.571763441894745], [-122.10849005146366, 41.54748375992291], [-122.09805102599655, 41.51579742310694], [-122.05496442781796, 41.5083826519601]]]}}, {"type": "Feature", "properties": {"pack": "CA147 (previously Whaleback 4)", "pack_origin": "Whaleback", "most_recent_adj": "08/22/2026"}, "geometry": {"type": "Polygon", "coordinates": [[[-121.9568661568964, 41.58117417701506], [-121.92412103584168, 41.605416925574154], [-121.93452374478755, 41.637103547737105], [-121.97768987291462, 41.644539363369596], [-122.01042423997399, 41.620291274482405], [-122.00000325143122, 41.58861271428945], [-121.9568661568964, 41.58117417701506]]]}}, {"type": "Feature", "properties": {"pack": "CA121 (previously Whaleback Disperser 1)", "pack_origin": "Whaleback", "most_recent_adj": "08/23/2026"}, "geometry": {"type": "Polygon", "coordinates": [[[-122.01042423997399, 41.620291274482405], [-121.97768987291462, 41.644539363369596], [-121.9881109837516, 41.67620199000655], [-122.03128473006872, 41.683608459862036], [-122.06400827157204, 41.659355045520044], [-122.05356891087933, 41.6277004907641], [-122.01042423997399, 41.620291274482405]]]}}]}