{"type": "FeatureCollection", "features": [{"type": "Feature", "properties": {"pack": "CA091 (previously Yowlumni Disperser)", "pack_origin": "Beyem Seyo", "most_recent_adj": "08/24/2026"}, "geometry": {"type": "Polygon", "coordinates": [[[-118.43864700890158, 35.6529030841631], [-118.40633157041722, 35.67710511215815], [-118.41523338982931, 35.711203396442144], [-118.45646943325991, 35.72109188313311], [-118.48877912625198, 35.6968830925897], [-118.47985853582477, 35.66279258226202], [-118.43864700890158, 35.6529030841631]]]}}, {"type": "Feature", "properties": {"pack": "CA131", "pack_origin": "Grizzly", "most_recent_adj": "08/24/2026"}, "geometry": {"type": "Polygon", "coordinates": [[[-120.44848975162101, 40.00292337983288], [-120.41561640423909, 40.02707128524001], [-120.42545277375969, 40.05957348595996], [-120.4681814009048, 40.06791995164524], [-120.50104608140899, 40.04376625466644], [-120.49119081888223, 40.01127188785052], [-120.44848975162101, 40.00292337983288]]]}}, {"type": "Feature", "properties": {"pack": "CA150 (previously Harvey 3)", "pack_origin": "Harvey", "most_recent_adj": "08/24/2026"}, "geometry": {"type": "Polygon", "coordinates": [[[-120.74833573884617, 40.45725670802773], [-120.71543934684608, 40.48140620682687], [-120.72540186843494, 40.51370364069706], [-120.7682796306124, 40.52184372170153], [-120.80116692054918, 40.49768853481335], [-120.7911855679424, 40.465398959247594], [-120.74833573884617, 40.45725670802773]]]}}, {"type": "Feature", "properties": {"pack": "CA107 (previously Harvey 1)", "pack_origin": "Harvey", "most_recent_adj": "08/24/2026"}, "geometry": {"type": "Polygon", "coordinates": [[[-120.74833573884617, 40.45725670802773], [-120.71543934684608, 40.48140620682687], [-120.72540186843494, 40.51370364069706], [-120.7682796306124, 40.52184372170153], [-120.80116692054918, 40.49768853481335], [-120.7911855679424, 40.465398959247594], [-120.74833573884617, 40.45725670802773]]]}}, {"type": "Feature", "properties": {"pack": "CA124 (previously Whaleback Disperser 2)", "pack_origin": "Whaleback", "most_recent_adj": "08/22/2026"}, "geometry": {"type": "Polygon", "coordinates": [[[-121.60273191553689, 40.737148525548236], [-121.57011220094752, 40.761440539317555], [-121.58033196970896, 40.79348916181908], [-121.62318972529782, 40.80123765248339], [-121.65579928059647, 40.77694014714649], [-121.64556125756421, 40.7448996467274], [-121.60273191553689, 40.737148525548236]]]}}, {"type": "Feature", "properties": {"pack": "CA077; pack origin: Whaleback", "pack_origin": "Whaleback", "most_recent_adj": "08/23/2026"}, "geometry": {"type": "Polygon", "coordinates": [[[-121.27081745397129, 41.21989939644046], [-121.23789129254162, 41.24405038528495], [-121.24807257639205, 41.27599085874438], [-121.29119874451507, 41.28377245260841], [-121.32411503809348, 41.25961594912318], [-121.31391504954286, 41.227683370579356], [-121.27081745397129, 41.21989939644046]]]}}, {"type": "Feature", "properties": {"pack": "CA127 (previously Whaleback 2)", "pack_origin": "Whaleback", "most_recent_adj": "08/23/2026"}, "geometry": {"type": "Polygon", "coordinates": [[[-122.05496442781796, 41.5083826519601], [-122.02228785027, 41.53265700934091], [-122.03270870500953, 41.5643514584977], [-122.075824326536, 41.571763441894745], [-122.10849005146366, 41.54748375992291], [-122.09805102599655, 41.51579742310694], [-122.05496442781796, 41.5083826519601]]]}}, {"type": "Feature", "properties": {"pack": "CA121 (previously Whaleback Disperser 1)", "pack_origin": "Whaleback", "most_recent_adj": "08/24/2026"}, "geometry": {"type": "Polygon", "coordinates": [[[-122.03270870500953, 41.5643514584977], [-122.00000325143122, 41.58861271428945], [-122.01042423997399, 41.620291274482405], [-122.05356891087933, 41.6277004907641], [-122.08626352532484, 41.603433909993875], [-122.075824326536, 41.571763441894745], [-122.03270870500953, 41.5643514584977]]]}}, {"type": "Feature", "properties": {"pack": "CA147 (previously Whaleback 4)", "pack_origin": "Whaleback", "most_recent_adj": "08/22/2026"}, "geometry": {"type": "Polygon", "coordinates": [[[-121.9568661568964, 41.58117417701506], [-121.92412103584168, 41.605416925574154], [-121.93452374478755, 41.637103547737105], [-121.97768987291462, 41.644539363369596], [-122.01042423997399, 41.620291274482405], [-122.00000325143122, 41.58861271428945], [-121.9568661568964, 41.58117417701506]]]}}]}