{"type": "FeatureCollection", "features": [{"type": "Feature", "properties": {"pack": "CA091 (previously Yowlumni Disperser)", "pack_origin": "Beyem Seyo", "most_recent_adj": "09/03/2026"}, "geometry": {"type": "Polygon", "coordinates": [[[-118.73610652163083, 35.75581760801286], [-118.70387272620569, 35.780073052264896], [-118.71286356609028, 35.81409933229584], [-118.75410682287634, 35.82386226829059], [-118.78633452581339, 35.79960011480015], [-118.77732507912998, 35.765581738836346], [-118.73610652163083, 35.75581760801286]]]}}, {"type": "Feature", "properties": {"pack": "CA195", "pack_origin": "Long Valley", "most_recent_adj": "09/03/2026"}, "geometry": {"type": "Polygon", "coordinates": [[[-120.232380395621, 39.68439560077859], [-120.19952093774789, 39.708539712640885], [-120.2092677390832, 39.74118383032516], [-120.25189295446238, 39.749676029161606], [-120.28474405424218, 39.72552605118053], [-120.27497831373769, 39.69288974478644], [-120.232380395621, 39.68439560077859]]]}}, {"type": "Feature", "properties": {"pack": "CA131", "pack_origin": "Grizzly", "most_recent_adj": "09/03/2026"}, "geometry": {"type": "Polygon", "coordinates": [[[-120.47149784996357, 39.946245743476595], [-120.43865270273437, 39.97040638232014], [-120.44848975162101, 40.00292337983288], [-120.49119081888223, 40.01127188785052], [-120.52402728190555, 39.987105455055946], [-120.5141713790884, 39.95459631245814], [-120.47149784996357, 39.946245743476595]]]}}, {"type": "Feature", "properties": {"pack": "CA150 (previously Harvey 3)", "pack_origin": "Harvey", "most_recent_adj": "08/31/2026"}, "geometry": {"type": "Polygon", "coordinates": [[[-120.94525246312612, 40.312139450343516], [-120.91248796216627, 40.33635172702555], [-120.92248897068552, 40.36866356642822], [-120.96527311909996, 40.376755167705625], [-120.99802831286678, 40.352537224668914], [-120.98800868296652, 40.320233350873124], [-120.94525246312612, 40.312139450343516]]]}}, {"type": "Feature", "properties": {"pack": "CA107 (previously Harvey 1)", "pack_origin": "Harvey", "most_recent_adj": "09/03/2026"}, "geometry": {"type": "Polygon", "coordinates": [[[-120.94525246312612, 40.312139450343516], [-120.91248796216627, 40.33635172702555], [-120.92248897068552, 40.36866356642822], [-120.96527311909996, 40.376755167705625], [-120.99802831286678, 40.352537224668914], [-120.98800868296652, 40.320233350873124], [-120.94525246312612, 40.312139450343516]]]}}, {"type": "Feature", "properties": {"pack": "CA124 (previously Whaleback Disperser 2)", "pack_origin": "Whaleback", "most_recent_adj": "09/03/2026"}, "geometry": {"type": "Polygon", "coordinates": [[[-121.85098638784791, 40.63094078253265], [-121.81851117186129, 40.65529937037699], [-121.82878547505923, 40.68733875559545], [-121.87155302605971, 40.69501132031236], [-121.90401781724073, 40.67064728231145], [-121.89372550019846, 40.63861613367881], [-121.85098638784791, 40.63094078253265]]]}}, {"type": "Feature", "properties": {"pack": "CA077; pack origin: Whaleback", "pack_origin": "Whaleback", "most_recent_adj": "09/03/2026"}, "geometry": {"type": "Polygon", "coordinates": [[[-121.3468025306635, 41.20351356769422], [-121.31391504954286, 41.227683370579356], [-121.32411503809348, 41.25961594912318], [-121.36722116279581, 41.26737080255233], [-121.4000986893688, 41.24319549899925], [-121.38988006394231, 41.21127084682544], [-121.3468025306635, 41.20351356769422]]]}}, {"type": "Feature", "properties": {"pack": "CA127 (previously Whaleback 2)", "pack_origin": "Whaleback", "most_recent_adj": "09/02/2026"}, "geometry": {"type": "Polygon", "coordinates": [[[-122.05496442781796, 41.5083826519601], [-122.02228785027, 41.53265700934091], [-122.03270870500953, 41.5643514584977], [-122.075824326536, 41.571763441894745], [-122.10849005146366, 41.54748375992291], [-122.09805102599655, 41.51579742310694], [-122.05496442781796, 41.5083826519601]]]}}, {"type": "Feature", "properties": {"pack": "CA147 (previously Whaleback 4)", "pack_origin": "Whaleback", "most_recent_adj": "09/03/2026"}, "geometry": {"type": "Polygon", "coordinates": [[[-122.05496442781796, 41.5083826519601], [-122.02228785027, 41.53265700934091], [-122.03270870500953, 41.5643514584977], [-122.075824326536, 41.571763441894745], [-122.10849005146366, 41.54748375992291], [-122.09805102599655, 41.51579742310694], [-122.05496442781796, 41.5083826519601]]]}}, {"type": "Feature", "properties": {"pack": "CA121 (previously Whaleback Disperser 1)", "pack_origin": "Whaleback", "most_recent_adj": "09/03/2026"}, "geometry": {"type": "Polygon", "coordinates": [[[-122.05496442781796, 41.5083826519601], [-122.02228785027, 41.53265700934091], [-122.03270870500953, 41.5643514584977], [-122.075824326536, 41.571763441894745], [-122.10849005146366, 41.54748375992291], [-122.09805102599655, 41.51579742310694], [-122.05496442781796, 41.5083826519601]]]}}]}