{"type": "FeatureCollection", "features": [{"type": "Feature", "properties": {"pack": "CA091 (previously Yowlumni Disperser)", "pack_origin": "Beyem Seyo", "most_recent_adj": "07/29/2026"}, "geometry": {"type": "Polygon", "coordinates": [[[-118.52246262205995, 36.11960555471735], [-118.49003937856484, 36.14378389954145], [-118.499002409295, 36.17775074897549], [-118.54040757510435, 36.1875315280366], [-118.57282492785788, 36.16334652018483], [-118.56384302028518, 36.12938740068914], [-118.52246262205995, 36.11960555471735]]]}}, {"type": "Feature", "properties": {"pack": "CA150 (previously Harvey 3)", "pack_origin": "Harvey", "most_recent_adj": "07/27/2026"}, "geometry": {"type": "Polygon", "coordinates": [[[-121.17914208323528, 40.416938058362724], [-121.14644360824141, 40.44118560480211], [-121.15651782319367, 40.47342033067273], [-121.19930900608881, 40.48139948102765], [-121.23199787997183, 40.45714632459016], [-121.22190518974901, 40.42491963190156], [-121.17914208323528, 40.416938058362724]]]}}, {"type": "Feature", "properties": {"pack": "CA107 (previously Harvey 1)", "pack_origin": "Harvey", "most_recent_adj": "07/21/2026"}, "geometry": {"type": "Polygon", "coordinates": [[[-120.72540186843494, 40.51370364069706], [-120.69247701761871, 40.5378401193386], [-120.70243899664564, 40.5701223613035], [-120.74534471455488, 40.578260291335525], [-120.77826048011204, 40.55411812612437], [-120.7682796306124, 40.52184372170153], [-120.72540186843494, 40.51370364069706]]]}}, {"type": "Feature", "properties": {"pack": "CA077; pack origin: Whaleback", "pack_origin": "Whaleback", "most_recent_adj": "07/28/2026"}, "geometry": {"type": "Polygon", "coordinates": [[[-121.3468025306635, 41.20351356769422], [-121.31391504954286, 41.227683370579356], [-121.32411503809348, 41.25961594912318], [-121.36722116279581, 41.26737080255233], [-121.4000986893688, 41.24319549899925], [-121.38988006394231, 41.21127084682544], [-121.3468025306635, 41.20351356769422]]]}}, {"type": "Feature", "properties": {"pack": "CA124 (previously Whaleback Disperser 2)", "pack_origin": "Whaleback", "most_recent_adj": "07/27/2026"}, "geometry": {"type": "Polygon", "coordinates": [[[-121.60273191553689, 40.737148525548236], [-121.57011220094752, 40.761440539317555], [-121.58033196970896, 40.79348916181908], [-121.62318972529782, 40.80123765248339], [-121.65579928059647, 40.77694014714649], [-121.64556125756421, 40.7448996467274], [-121.60273191553689, 40.737148525548236]]]}}, {"type": "Feature", "properties": {"pack": "CA039 (previously Whaleback 1)", "pack_origin": "Whaleback", "most_recent_adj": "07/28/2026"}, "geometry": {"type": "Polygon", "coordinates": [[[-122.05496442781796, 41.5083826519601], [-122.02228785027, 41.53265700934091], [-122.03270870500953, 41.5643514584977], [-122.075824326536, 41.571763441894745], [-122.10849005146366, 41.54748375992291], [-122.09805102599655, 41.51579742310694], [-122.05496442781796, 41.5083826519601]]]}}, {"type": "Feature", "properties": {"pack": "CA127 (previously Whaleback 2)", "pack_origin": "Whaleback", "most_recent_adj": "07/27/2026"}, "geometry": {"type": "Polygon", "coordinates": [[[-122.05496442781796, 41.5083826519601], [-122.02228785027, 41.53265700934091], [-122.03270870500953, 41.5643514584977], [-122.075824326536, 41.571763441894745], [-122.10849005146366, 41.54748375992291], [-122.09805102599655, 41.51579742310694], [-122.05496442781796, 41.5083826519601]]]}}, {"type": "Feature", "properties": {"pack": "CA121 (previously Whaleback Disperser 1)", "pack_origin": "Whaleback", "most_recent_adj": "07/29/2026"}, "geometry": {"type": "Polygon", "coordinates": [[[-122.03270870500953, 41.5643514584977], [-122.00000325143122, 41.58861271428945], [-122.01042423997399, 41.620291274482405], [-122.05356891087933, 41.6277004907641], [-122.08626352532484, 41.603433909993875], [-122.075824326536, 41.571763441894745], [-122.03270870500953, 41.5643514584977]]]}}, {"type": "Feature", "properties": {"pack": "CA147 (previously Whaleback 4)", "pack_origin": "Whaleback", "most_recent_adj": "07/27/2026"}, "geometry": {"type": "Polygon", "coordinates": [[[-122.03270870500953, 41.5643514584977], [-122.00000325143122, 41.58861271428945], [-122.01042423997399, 41.620291274482405], [-122.05356891087933, 41.6277004907641], [-122.08626352532484, 41.603433909993875], [-122.075824326536, 41.571763441894745], [-122.03270870500953, 41.5643514584977]]]}}]}