{"type": "FeatureCollection", "features": [{"type": "Feature", "properties": {"pack": "CA091 (previously Yowlumni Disperser)", "pack_origin": "Beyem Seyo", "most_recent_adj": "08/12/2026"}, "geometry": {"type": "Polygon", "coordinates": [[[-118.66264060130055, 35.770284513152205], [-118.63037465836325, 35.79452340834378], [-118.63934683693023, 35.828557553107096], [-118.680603634407, 35.838344942252895], [-118.71286356609028, 35.81409933229584], [-118.70387272620569, 35.780073052264896], [-118.66264060130055, 35.770284513152205]]]}}, {"type": "Feature", "properties": {"pack": "CA131", "pack_origin": "Grizzly", "most_recent_adj": "08/10/2026"}, "geometry": {"type": "Polygon", "coordinates": [[[-120.47149784996357, 39.946245743476595], [-120.43865270273437, 39.97040638232014], [-120.44848975162101, 40.00292337983288], [-120.49119081888223, 40.01127188785052], [-120.52402728190555, 39.987105455055946], [-120.5141713790884, 39.95459631245814], [-120.47149784996357, 39.946245743476595]]]}}, {"type": "Feature", "properties": {"pack": "CA107 (previously Harvey 1)", "pack_origin": "Harvey", "most_recent_adj": "08/12/2026"}, "geometry": {"type": "Polygon", "coordinates": [[[-120.96798721229555, 40.25558764580574], [-120.93525102773111, 40.27981260664248], [-120.94525246312612, 40.312139450343516], [-120.98800868296652, 40.320233350873124], [-121.02073554426077, 40.29600272188261], [-121.01071552651602, 40.26368386466692], [-120.96798721229555, 40.25558764580574]]]}}, {"type": "Feature", "properties": {"pack": "CA150 (previously Harvey 3)", "pack_origin": "Harvey", "most_recent_adj": "08/09/2026"}, "geometry": {"type": "Polygon", "coordinates": [[[-120.8768755665305, 40.481628265976006], [-120.84402590561277, 40.50580208250065], [-120.85402555987724, 40.53806861652614], [-120.89689363167403, 40.54615343507611], [-120.92973403418522, 40.52197395708072], [-120.91971564092971, 40.48971532620858], [-120.8768755665305, 40.481628265976006]]]}}, {"type": "Feature", "properties": {"pack": "CA124 (previously Whaleback Disperser 2)", "pack_origin": "Whaleback", "most_recent_adj": "08/06/2026"}, "geometry": {"type": "Polygon", "coordinates": [[[-121.60273191553689, 40.737148525548236], [-121.57011220094752, 40.761440539317555], [-121.58033196970896, 40.79348916181908], [-121.62318972529782, 40.80123765248339], [-121.65579928059647, 40.77694014714649], [-121.64556125756421, 40.7448996467274], [-121.60273191553689, 40.737148525548236]]]}}, {"type": "Feature", "properties": {"pack": "CA077; pack origin: Whaleback", "pack_origin": "Whaleback", "most_recent_adj": "08/11/2026"}, "geometry": {"type": "Polygon", "coordinates": [[[-121.22529858911885, 41.332053210138156], [-121.19231472470145, 41.356177402582574], [-121.20249544344246, 41.38808633892295], [-121.24567882942549, 41.395863232799435], [-121.27865285742055, 41.37173352602799], [-121.26845335404708, 41.339832443896896], [-121.22529858911885, 41.332053210138156]]]}}, {"type": "Feature", "properties": {"pack": "CA127 (previously Whaleback 2)", "pack_origin": "Whaleback", "most_recent_adj": "08/11/2026"}, "geometry": {"type": "Polygon", "coordinates": [[[-122.03270870500953, 41.5643514584977], [-122.00000325143122, 41.58861271428945], [-122.01042423997399, 41.620291274482405], [-122.05356891087933, 41.6277004907641], [-122.08626352532484, 41.603433909993875], [-122.075824326536, 41.571763441894745], [-122.03270870500953, 41.5643514584977]]]}}, {"type": "Feature", "properties": {"pack": "CA121 (previously Whaleback Disperser 1)", "pack_origin": "Whaleback", "most_recent_adj": "08/12/2026"}, "geometry": {"type": "Polygon", "coordinates": [[[-122.03270870500953, 41.5643514584977], [-122.00000325143122, 41.58861271428945], [-122.01042423997399, 41.620291274482405], [-122.05356891087933, 41.6277004907641], [-122.08626352532484, 41.603433909993875], [-122.075824326536, 41.571763441894745], [-122.03270870500953, 41.5643514584977]]]}}, {"type": "Feature", "properties": {"pack": "CA147 (previously Whaleback 4)", "pack_origin": "Whaleback", "most_recent_adj": "08/12/2026"}, "geometry": {"type": "Polygon", "coordinates": [[[-122.17125388032291, 41.73732239562056], [-122.13855220478646, 41.7615864160727], [-122.14902851130893, 41.793176852081814], [-122.1922246717977, 41.80049517053584], [-122.22491530683877, 41.77622586951787], [-122.21442084055712, 41.74464353456258], [-122.17125388032291, 41.73732239562056]]]}}]}