{"type": "FeatureCollection", "features": [{"type": "Feature", "properties": {"pack": "CA091 (previously Yowlumni Disperser)", "pack_origin": "Beyem Seyo", "most_recent_adj": "09/26/2026"}, "geometry": {"type": "Polygon", "coordinates": [[[-118.90601462691643, 35.668441941223186], [-118.87387143143349, 35.692739888041515], [-118.8829008030332, 35.726761251091666], [-118.92409184678688, 35.736476666597326], [-118.9562287687547, 35.712172013068084], [-118.94718093519063, 35.67815865496599], [-118.90601462691643, 35.668441941223186]]]}}, {"type": "Feature", "properties": {"pack": "CA195", "pack_origin": "Long Valley", "most_recent_adj": "09/25/2026"}, "geometry": {"type": "Polygon", "coordinates": [[[-120.22623649060219, 39.52952401597202], [-120.19342476184852, 39.55368733618575], [-120.20315499628641, 39.58638278534556], [-120.24571586234323, 39.59490707812652], [-120.27851926579541, 39.570737871915135], [-120.26877014541387, 39.538050263209506], [-120.22623649060219, 39.52952401597202]]]}}, {"type": "Feature", "properties": {"pack": "CA131", "pack_origin": "Grizzly", "most_recent_adj": "09/26/2026"}, "geometry": {"type": "Polygon", "coordinates": [[[-120.54697965898904, 39.930417212552484], [-120.5141713790884, 39.95459631245814], [-120.52402728190555, 39.987105455055946], [-120.56671027152036, 39.99542761337839], [-120.59950978112528, 39.97124273113221], [-120.5896350886423, 39.93874147714345], [-120.54697965898904, 39.930417212552484]]]}}, {"type": "Feature", "properties": {"pack": "CA107 (previously Harvey 1)", "pack_origin": "Harvey", "most_recent_adj": "09/26/2026"}, "geometry": {"type": "Polygon", "coordinates": [[[-120.8768755665305, 40.481628265976006], [-120.84402590561277, 40.50580208250065], [-120.85402555987724, 40.53806861652614], [-120.89689363167403, 40.54615343507611], [-120.92973403418522, 40.52197395708072], [-120.91971564092971, 40.48971532620858], [-120.8768755665305, 40.481628265976006]]]}}, {"type": "Feature", "properties": {"pack": "CA150 (previously Harvey 3)", "pack_origin": "Harvey", "most_recent_adj": "09/26/2026"}, "geometry": {"type": "Polygon", "coordinates": [[[-120.92973403418522, 40.52197395708072], [-120.89689363167403, 40.54615343507611], [-120.9069115881942, 40.57839688798981], [-120.94978867733226, 40.58645295205806], [-120.98261975153409, 40.56226782677051], [-120.97258308256839, 40.53003228889809], [-120.92973403418522, 40.52197395708072]]]}}, {"type": "Feature", "properties": {"pack": "CA124 (previously Whaleback Disperser 2)", "pack_origin": "Whaleback", "most_recent_adj": "09/26/2026"}, "geometry": {"type": "Polygon", "coordinates": [[[-121.62510330708221, 40.6807799704055], [-121.59251205693091, 40.70508461800308], [-121.60273191553689, 40.737148525548236], [-121.64556125756421, 40.7448996467274], [-121.67814233403551, 40.72058950654726], [-121.66790426010166, 40.68853374177223], [-121.62510330708221, 40.6807799704055]]]}}, {"type": "Feature", "properties": {"pack": "CA077; pack origin: Whaleback", "pack_origin": "Whaleback", "most_recent_adj": "09/26/2026"}, "geometry": {"type": "Polygon", "coordinates": [[[-121.32411503809348, 41.25961594912318], [-121.29119874451507, 41.28377245260841], [-121.30139849656962, 41.31568930582326], [-121.34453323709009, 41.323441753719884], [-121.37743959155782, 41.299279749781135], [-121.36722116279581, 41.26737080255233], [-121.32411503809348, 41.25961594912318]]]}}, {"type": "Feature", "properties": {"pack": "CA121 (previously Whaleback Disperser 1)", "pack_origin": "Whaleback", "most_recent_adj": "09/26/2026"}, "geometry": {"type": "Polygon", "coordinates": [[[-122.07719145726749, 41.45238496507058], [-122.04454371834582, 41.476672358605775], [-122.05496442781796, 41.5083826519601], [-122.09805102599655, 41.51579742310694], [-122.1306878988995, 41.49150470527933], [-122.12024905812713, 41.45980254454673], [-122.07719145726749, 41.45238496507058]]]}}, {"type": "Feature", "properties": {"pack": "CA127 (previously Whaleback 2)", "pack_origin": "Whaleback", "most_recent_adj": "09/25/2026"}, "geometry": {"type": "Polygon", "coordinates": [[[-122.11761817675229, 41.69836543683882], [-122.0849055324091, 41.72262416171737], [-122.09536344213994, 41.754238695064316], [-122.13855220478646, 41.7615864160727], [-122.17125388032291, 41.73732239562056], [-122.16077778065524, 41.7057159536965], [-122.11761817675229, 41.69836543683882]]]}}, {"type": "Feature", "properties": {"pack": "CA147 (previously Whaleback 4)", "pack_origin": "Whaleback", "most_recent_adj": "09/26/2026"}, "geometry": {"type": "Polygon", "coordinates": [[[-122.11761817675229, 41.69836543683882], [-122.0849055324091, 41.72262416171737], [-122.09536344213994, 41.754238695064316], [-122.13855220478646, 41.7615864160727], [-122.17125388032291, 41.73732239562056], [-122.16077778065524, 41.7057159536965], [-122.11761817675229, 41.69836543683882]]]}}]}