{"type": "FeatureCollection", "features": [{"type": "Feature", "properties": {"pack": "CA091 (previously Yowlumni Disperser)", "pack_origin": "Beyem Seyo", "most_recent_adj": "08/25/2026"}, "geometry": {"type": "Polygon", "coordinates": [[[-118.26494065700086, 35.57903464565443], [-118.23258231812572, 35.60320638720513], [-118.2414308707347, 35.63734962571794], [-118.28265663746551, 35.647313427827775], [-118.31500943511523, 35.623134890964934], [-118.30614202167867, 35.58899935170474], [-118.26494065700086, 35.57903464565443]]]}}, {"type": "Feature", "properties": {"pack": "CA131", "pack_origin": "Grizzly", "most_recent_adj": "08/25/2026"}, "geometry": {"type": "Polygon", "coordinates": [[[-120.44848975162101, 40.00292337983288], [-120.41561640423909, 40.02707128524001], [-120.42545277375969, 40.05957348595996], [-120.4681814009048, 40.06791995164524], [-120.50104608140899, 40.04376625466644], [-120.49119081888223, 40.01127188785052], [-120.44848975162101, 40.00292337983288]]]}}, {"type": "Feature", "properties": {"pack": "CA150 (previously Harvey 3)", "pack_origin": "Harvey", "most_recent_adj": "08/24/2026"}, "geometry": {"type": "Polygon", "coordinates": [[[-120.74833573884617, 40.45725670802773], [-120.71543934684608, 40.48140620682687], [-120.72540186843494, 40.51370364069706], [-120.7682796306124, 40.52184372170153], [-120.80116692054918, 40.49768853481335], [-120.7911855679424, 40.465398959247594], [-120.74833573884617, 40.45725670802773]]]}}, {"type": "Feature", "properties": {"pack": "CA107 (previously Harvey 1)", "pack_origin": "Harvey", "most_recent_adj": "08/24/2026"}, "geometry": {"type": "Polygon", "coordinates": [[[-120.74833573884617, 40.45725670802773], [-120.71543934684608, 40.48140620682687], [-120.72540186843494, 40.51370364069706], [-120.7682796306124, 40.52184372170153], [-120.80116692054918, 40.49768853481335], [-120.7911855679424, 40.465398959247594], [-120.74833573884617, 40.45725670802773]]]}}, {"type": "Feature", "properties": {"pack": "CA124 (previously Whaleback Disperser 2)", "pack_origin": "Whaleback", "most_recent_adj": "08/22/2026"}, "geometry": {"type": "Polygon", "coordinates": [[[-121.60273191553689, 40.737148525548236], [-121.57011220094752, 40.761440539317555], [-121.58033196970896, 40.79348916181908], [-121.62318972529782, 40.80123765248339], [-121.65579928059647, 40.77694014714649], [-121.64556125756421, 40.7448996467274], [-121.60273191553689, 40.737148525548236]]]}}, {"type": "Feature", "properties": {"pack": "CA077; pack origin: Whaleback", "pack_origin": "Whaleback", "most_recent_adj": "08/24/2026"}, "geometry": {"type": "Polygon", "coordinates": [[[-121.3468025306635, 41.20351356769422], [-121.31391504954286, 41.227683370579356], [-121.32411503809348, 41.25961594912318], [-121.36722116279581, 41.26737080255233], [-121.4000986893688, 41.24319549899925], [-121.38988006394231, 41.21127084682544], [-121.3468025306635, 41.20351356769422]]]}}, {"type": "Feature", "properties": {"pack": "CA127 (previously Whaleback 2)", "pack_origin": "Whaleback", "most_recent_adj": "08/24/2026"}, "geometry": {"type": "Polygon", "coordinates": [[[-122.00146461330601, 41.46922831618862], [-121.9687772544148, 41.49349733396254], [-121.97917976343048, 41.52521572978674], [-122.02228785027, 41.53265700934091], [-122.05496442781796, 41.5083826519601], [-122.04454371834582, 41.476672358605775], [-122.00146461330601, 41.46922831618862]]]}}, {"type": "Feature", "properties": {"pack": "CA121 (previously Whaleback Disperser 1)", "pack_origin": "Whaleback", "most_recent_adj": "08/25/2026"}, "geometry": {"type": "Polygon", "coordinates": [[[-122.05496442781796, 41.5083826519601], [-122.02228785027, 41.53265700934091], [-122.03270870500953, 41.5643514584977], [-122.075824326536, 41.571763441894745], [-122.10849005146366, 41.54748375992291], [-122.09805102599655, 41.51579742310694], [-122.05496442781796, 41.5083826519601]]]}}, {"type": "Feature", "properties": {"pack": "CA147 (previously Whaleback 4)", "pack_origin": "Whaleback", "most_recent_adj": "08/25/2026"}, "geometry": {"type": "Polygon", "coordinates": [[[-122.03270870500953, 41.5643514584977], [-122.00000325143122, 41.58861271428945], [-122.01042423997399, 41.620291274482405], [-122.05356891087933, 41.6277004907641], [-122.08626352532484, 41.603433909993875], [-122.075824326536, 41.571763441894745], [-122.03270870500953, 41.5643514584977]]]}}]}