{"type": "FeatureCollection", "features": [{"type": "Feature", "properties": {"pack": "CA091 (previously Yowlumni Disperser)", "pack_origin": "Beyem Seyo", "most_recent_adj": "09/14/2026"}, "geometry": {"type": "Polygon", "coordinates": [[[-118.90601462691643, 35.668441941223186], [-118.87387143143349, 35.692739888041515], [-118.8829008030332, 35.726761251091666], [-118.92409184678688, 35.736476666597326], [-118.9562287687547, 35.712172013068084], [-118.94718093519063, 35.67815865496599], [-118.90601462691643, 35.668441941223186]]]}}, {"type": "Feature", "properties": {"pack": "CA195", "pack_origin": "Long Valley", "most_recent_adj": "09/14/2026"}, "geometry": {"type": "Polygon", "coordinates": [[[-120.22623649060219, 39.52952401597202], [-120.19342476184852, 39.55368733618575], [-120.20315499628641, 39.58638278534556], [-120.24571586234323, 39.59490707812652], [-120.27851926579541, 39.570737871915135], [-120.26877014541387, 39.538050263209506], [-120.22623649060219, 39.52952401597202]]]}}, {"type": "Feature", "properties": {"pack": "CA131", "pack_origin": "Grizzly", "most_recent_adj": "09/15/2026"}, "geometry": {"type": "Polygon", "coordinates": [[[-120.41899613330907, 39.905335047540675], [-120.38614237079459, 39.929489878477995], [-120.39596120739155, 39.96202946480565], [-120.43865270273437, 39.97040638232014], [-120.47149784996357, 39.946245743476595], [-120.46166013431178, 39.913713999299105], [-120.41899613330907, 39.905335047540675]]]}}, {"type": "Feature", "properties": {"pack": "CA150 (previously Harvey 3)", "pack_origin": "Harvey", "most_recent_adj": "09/15/2026"}, "geometry": {"type": "Polygon", "coordinates": [[[-121.0281228367343, 40.44937273819452], [-120.99534863596341, 40.47358357765205], [-121.00538570237202, 40.505834272714196], [-121.04821559445591, 40.51386616410586], [-121.08098036486687, 40.489649688703466], [-121.07092469120576, 40.45740696200837], [-121.0281228367343, 40.44937273819452]]]}}, {"type": "Feature", "properties": {"pack": "CA107 (previously Harvey 1)", "pack_origin": "Harvey", "most_recent_adj": "09/15/2026"}, "geometry": {"type": "Polygon", "coordinates": [[[-120.72540186843494, 40.51370364069706], [-120.69247701761871, 40.5378401193386], [-120.70243899664564, 40.5701223613035], [-120.74534471455488, 40.578260291335525], [-120.77826048011204, 40.55411812612437], [-120.7682796306124, 40.52184372170153], [-120.72540186843494, 40.51370364069706]]]}}, {"type": "Feature", "properties": {"pack": "CA124 (previously Whaleback Disperser 2)", "pack_origin": "Whaleback", "most_recent_adj": "09/15/2026"}, "geometry": {"type": "Polygon", "coordinates": [[[-121.60273191553689, 40.737148525548236], [-121.57011220094752, 40.761440539317555], [-121.58033196970896, 40.79348916181908], [-121.62318972529782, 40.80123765248339], [-121.65579928059647, 40.77694014714649], [-121.64556125756421, 40.7448996467274], [-121.60273191553689, 40.737148525548236]]]}}, {"type": "Feature", "properties": {"pack": "CA077; pack origin: Whaleback", "pack_origin": "Whaleback", "most_recent_adj": "09/15/2026"}, "geometry": {"type": "Polygon", "coordinates": [[[-121.3468025306635, 41.20351356769422], [-121.31391504954286, 41.227683370579356], [-121.32411503809348, 41.25961594912318], [-121.36722116279581, 41.26737080255233], [-121.4000986893688, 41.24319549899925], [-121.38988006394231, 41.21127084682544], [-121.3468025306635, 41.20351356769422]]]}}, {"type": "Feature", "properties": {"pack": "CA121 (previously Whaleback Disperser 1)", "pack_origin": "Whaleback", "most_recent_adj": "09/15/2026"}, "geometry": {"type": "Polygon", "coordinates": [[[-121.78253989639047, 41.67059229345022], [-121.74968664260625, 41.694784420909], [-121.76005258736251, 41.72647108213442], [-121.8032902625085, 41.733957638706066], [-121.836132947834, 41.709760139990465], [-121.8257485450095, 41.67808146001963], [-121.78253989639047, 41.67059229345022]]]}}, {"type": "Feature", "properties": {"pack": "CA147 (previously Whaleback 4)", "pack_origin": "Whaleback", "most_recent_adj": "09/15/2026"}, "geometry": {"type": "Polygon", "coordinates": [[[-121.78253989639047, 41.67059229345022], [-121.74968664260625, 41.694784420909], [-121.76005258736251, 41.72647108213442], [-121.8032902625085, 41.733957638706066], [-121.836132947834, 41.709760139990465], [-121.8257485450095, 41.67808146001963], [-121.78253989639047, 41.67059229345022]]]}}, {"type": "Feature", "properties": {"pack": "CA127 (previously Whaleback 2)", "pack_origin": "Whaleback", "most_recent_adj": "09/14/2026"}, "geometry": {"type": "Polygon", "coordinates": [[[-121.9881109837516, 41.67620199000655], [-121.95534766571393, 41.700436846793366], [-121.96576888729102, 41.73208349545645], [-122.00897173505444, 41.73948723962929], [-122.04172424120254, 41.71524705682258], [-122.03128473006872, 41.683608459862036], [-121.9881109837516, 41.67620199000655]]]}}]}