{"type": "FeatureCollection", "features": [{"type": "Feature", "properties": {"pack": "CA091 (previously Yowlumni Disperser)", "pack_origin": "Beyem Seyo", "most_recent_adj": "10/06/2026"}, "geometry": {"type": "Polygon", "coordinates": [[[-118.565784537848, 35.84297467090847], [-118.53346036631582, 35.86718697526658], [-118.54241230093689, 35.901217862398916], [-118.58370717327713, 35.911028646716424], [-118.61602543505325, 35.886809630975854], [-118.6070547488914, 35.852786546644], [-118.565784537848, 35.84297467090847]]]}}, {"type": "Feature", "properties": {"pack": "CA195", "pack_origin": "Long Valley", "most_recent_adj": "10/06/2026"}, "geometry": {"type": "Polygon", "coordinates": [[[-120.33082987426111, 39.61190127027127], [-120.29803486434173, 39.63607634852333], [-120.30780135167763, 39.668727181994], [-120.35038170286225, 39.677195074764825], [-120.38316825095414, 39.65301413847316], [-120.37338292668703, 39.62037117171774], [-120.33082987426111, 39.61190127027127]]]}}, {"type": "Feature", "properties": {"pack": "CA131", "pack_origin": "Grizzly", "most_recent_adj": "10/06/2026"}, "geometry": {"type": "Polygon", "coordinates": [[[-120.41899613330907, 39.905335047540675], [-120.38614237079459, 39.929489878477995], [-120.39596120739155, 39.96202946480565], [-120.43865270273437, 39.97040638232014], [-120.47149784996357, 39.946245743476595], [-120.46166013431178, 39.913713999299105], [-120.41899613330907, 39.905335047540675]]]}}, {"type": "Feature", "properties": {"pack": "CA150 (previously Harvey 3)", "pack_origin": "Harvey", "most_recent_adj": "10/05/2026"}, "geometry": {"type": "Polygon", "coordinates": [[[-121.0281228367343, 40.44937273819452], [-120.99534863596341, 40.47358357765205], [-121.00538570237202, 40.505834272714196], [-121.04821559445591, 40.51386616410586], [-121.08098036486687, 40.489649688703466], [-121.07092469120576, 40.45740696200837], [-121.0281228367343, 40.44937273819452]]]}}, {"type": "Feature", "properties": {"pack": "CA107 (previously Harvey 1)", "pack_origin": "Harvey", "most_recent_adj": "10/06/2026"}, "geometry": {"type": "Polygon", "coordinates": [[[-120.74833573884617, 40.45725670802773], [-120.71543934684608, 40.48140620682687], [-120.72540186843494, 40.51370364069706], [-120.7682796306124, 40.52184372170153], [-120.80116692054918, 40.49768853481335], [-120.7911855679424, 40.465398959247594], [-120.74833573884617, 40.45725670802773]]]}}, {"type": "Feature", "properties": {"pack": "CA124 (previously Whaleback Disperser 2)", "pack_origin": "Whaleback", "most_recent_adj": "10/06/2026"}, "geometry": {"type": "Polygon", "coordinates": [[[-121.75349358412029, 40.70398620683839], [-121.72095120797877, 40.7283143932676], [-121.73120741807593, 40.76034674024436], [-121.77402414211375, 40.768042720055696], [-121.80655619078432, 40.74370907027595], [-121.79628186087555, 40.711684908001246], [-121.75349358412029, 40.70398620683839]]]}}, {"type": "Feature", "properties": {"pack": "CA077; pack origin: Whaleback", "pack_origin": "Whaleback", "most_recent_adj": "10/06/2026"}, "geometry": {"type": "Polygon", "coordinates": [[[-121.3468025306635, 41.20351356769422], [-121.31391504954286, 41.227683370579356], [-121.32411503809348, 41.25961594912318], [-121.36722116279581, 41.26737080255233], [-121.4000986893688, 41.24319549899925], [-121.38988006394231, 41.21127084682544], [-121.3468025306635, 41.20351356769422]]]}}, {"type": "Feature", "properties": {"pack": "CA146", "pack_origin": "Whaleback", "most_recent_adj": "10/06/2026"}, "geometry": {"type": "Polygon", "coordinates": [[[-122.03270870500953, 41.5643514584977], [-122.00000325143122, 41.58861271428945], [-122.01042423997399, 41.620291274482405], [-122.05356891087933, 41.6277004907641], [-122.08626352532484, 41.603433909993875], [-122.075824326536, 41.571763441894745], [-122.03270870500953, 41.5643514584977]]]}}, {"type": "Feature", "properties": {"pack": "CA121 (previously Whaleback Disperser 1)", "pack_origin": "Whaleback", "most_recent_adj": "10/06/2026"}, "geometry": {"type": "Polygon", "coordinates": [[[-122.13984414950045, 41.64246303081753], [-122.10716044564948, 41.666734921576875], [-122.11761817675229, 41.69836543683882], [-122.16077778065524, 41.7057159536965], [-122.19345050240781, 41.68143876798204], [-122.18297462096429, 41.64981636431552], [-122.13984414950045, 41.64246303081753]]]}}, {"type": "Feature", "properties": {"pack": "CA147 (previously Whaleback 4)", "pack_origin": "Whaleback", "most_recent_adj": "10/06/2026"}, "geometry": {"type": "Polygon", "coordinates": [[[-121.93452374478755, 41.637103547737105], [-121.9017496865632, 41.66133306370211], [-121.91215247809633, 41.6930037321104], [-121.95534766571393, 41.700436846793366], [-121.9881109837516, 41.67620199000655], [-121.97768987291462, 41.644539363369596], [-121.93452374478755, 41.637103547737105]]]}}, {"type": "Feature", "properties": {"pack": "CA127 (previously Whaleback 2)", "pack_origin": "Whaleback", "most_recent_adj": "10/05/2026"}, "geometry": {"type": "Polygon", "coordinates": [[[-121.7911874287437, 41.82145096991436], [-121.75828663502739, 41.84562154691522], [-121.76867109559775, 41.87725203967815], [-121.81197487718042, 41.884704008294], [-121.8448650590798, 41.860528073139804], [-121.83446208984014, 41.82890553159541], [-121.7911874287437, 41.82145096991436]]]}}]}