{"type": "FeatureCollection", "features": [{"type": "Feature", "properties": {"pack": "CA091 (previously Yowlumni Disperser)", "pack_origin": "Beyem Seyo", "most_recent_adj": "09/25/2026"}, "geometry": {"type": "Polygon", "coordinates": [[[-118.90601462691643, 35.668441941223186], [-118.87387143143349, 35.692739888041515], [-118.8829008030332, 35.726761251091666], [-118.92409184678688, 35.736476666597326], [-118.9562287687547, 35.712172013068084], [-118.94718093519063, 35.67815865496599], [-118.90601462691643, 35.668441941223186]]]}}, {"type": "Feature", "properties": {"pack": "CA195", "pack_origin": "Long Valley", "most_recent_adj": "09/24/2026"}, "geometry": {"type": "Polygon", "coordinates": [[[-120.22623649060219, 39.52952401597202], [-120.19342476184852, 39.55368733618575], [-120.20315499628641, 39.58638278534556], [-120.24571586234323, 39.59490707812652], [-120.27851926579541, 39.570737871915135], [-120.26877014541387, 39.538050263209506], [-120.22623649060219, 39.52952401597202]]]}}, {"type": "Feature", "properties": {"pack": "CA131", "pack_origin": "Grizzly", "most_recent_adj": "09/25/2026"}, "geometry": {"type": "Polygon", "coordinates": [[[-120.41899613330907, 39.905335047540675], [-120.38614237079459, 39.929489878477995], [-120.39596120739155, 39.96202946480565], [-120.43865270273437, 39.97040638232014], [-120.47149784996357, 39.946245743476595], [-120.46166013431178, 39.913713999299105], [-120.41899613330907, 39.905335047540675]]]}}, {"type": "Feature", "properties": {"pack": "CA150 (previously Harvey 3)", "pack_origin": "Harvey", "most_recent_adj": "09/25/2026"}, "geometry": {"type": "Polygon", "coordinates": [[[-120.98261975153409, 40.56226782677051], [-120.94978867733226, 40.58645295205806], [-120.95982493660608, 40.61867328450404], [-121.00271097353614, 40.62670056900648], [-121.035532649469, 40.60250981065009], [-121.02547770443947, 40.57029740504004], [-120.98261975153409, 40.56226782677051]]]}}, {"type": "Feature", "properties": {"pack": "CA107 (previously Harvey 1)", "pack_origin": "Harvey", "most_recent_adj": "09/25/2026"}, "geometry": {"type": "Polygon", "coordinates": [[[-120.98261975153409, 40.56226782677051], [-120.94978867733226, 40.58645295205806], [-120.95982493660608, 40.61867328450404], [-121.00271097353614, 40.62670056900648], [-121.035532649469, 40.60250981065009], [-121.02547770443947, 40.57029740504004], [-120.98261975153409, 40.56226782677051]]]}}, {"type": "Feature", "properties": {"pack": "CA124 (previously Whaleback Disperser 2)", "pack_origin": "Whaleback", "most_recent_adj": "09/25/2026"}, "geometry": {"type": "Polygon", "coordinates": [[[-121.52726252047606, 40.753663134990056], [-121.49460423056438, 40.77793694229943], [-121.50480567789815, 40.80999365542342], [-121.54768375452767, 40.817768474654414], [-121.58033196970896, 40.79348916181908], [-121.57011220094752, 40.761440539317555], [-121.52726252047606, 40.753663134990056]]]}}, {"type": "Feature", "properties": {"pack": "CA077; pack origin: Whaleback", "pack_origin": "Whaleback", "most_recent_adj": "09/25/2026"}, "geometry": {"type": "Polygon", "coordinates": [[[-121.3468025306635, 41.20351356769422], [-121.31391504954286, 41.227683370579356], [-121.32411503809348, 41.25961594912318], [-121.36722116279581, 41.26737080255233], [-121.4000986893688, 41.24319549899925], [-121.38988006394231, 41.21127084682544], [-121.3468025306635, 41.20351356769422]]]}}, {"type": "Feature", "properties": {"pack": "CA127 (previously Whaleback 2)", "pack_origin": "Whaleback", "most_recent_adj": "09/24/2026"}, "geometry": {"type": "Polygon", "coordinates": [[[-122.13984414950045, 41.64246303081753], [-122.10716044564948, 41.666734921576875], [-122.11761817675229, 41.69836543683882], [-122.16077778065524, 41.7057159536965], [-122.19345050240781, 41.68143876798204], [-122.18297462096429, 41.64981636431552], [-122.13984414950045, 41.64246303081753]]]}}, {"type": "Feature", "properties": {"pack": "CA121 (previously Whaleback Disperser 1)", "pack_origin": "Whaleback", "most_recent_adj": "09/25/2026"}, "geometry": {"type": "Polygon", "coordinates": [[[-122.13984414950045, 41.64246303081753], [-122.10716044564948, 41.666734921576875], [-122.11761817675229, 41.69836543683882], [-122.16077778065524, 41.7057159536965], [-122.19345050240781, 41.68143876798204], [-122.18297462096429, 41.64981636431552], [-122.13984414950045, 41.64246303081753]]]}}, {"type": "Feature", "properties": {"pack": "CA147 (previously Whaleback 4)", "pack_origin": "Whaleback", "most_recent_adj": "09/25/2026"}, "geometry": {"type": "Polygon", "coordinates": [[[-122.13984414950045, 41.64246303081753], [-122.10716044564948, 41.666734921576875], [-122.11761817675229, 41.69836543683882], [-122.16077778065524, 41.7057159536965], [-122.19345050240781, 41.68143876798204], [-122.18297462096429, 41.64981636431552], [-122.13984414950045, 41.64246303081753]]]}}]}