{"type": "FeatureCollection", "features": [{"type": "Feature", "properties": {"pack": "CA091 (previously Yowlumni Disperser)", "pack_origin": "Beyem Seyo", "most_recent_adj": "09/18/2026"}, "geometry": {"type": "Polygon", "coordinates": [[[-118.97929177784803, 35.653844445573306], [-118.94718093519063, 35.67815865496599], [-118.9562287687547, 35.712172013068084], [-118.9974058669305, 35.72186312199392], [-119.02951035567692, 35.69754221175339], [-119.02044411488657, 35.66353689763309], [-118.97929177784803, 35.653844445573306]]]}}, {"type": "Feature", "properties": {"pack": "CA195", "pack_origin": "Long Valley", "most_recent_adj": "09/18/2026"}, "geometry": {"type": "Polygon", "coordinates": [[[-120.22623649060219, 39.52952401597202], [-120.19342476184852, 39.55368733618575], [-120.20315499628641, 39.58638278534556], [-120.24571586234323, 39.59490707812652], [-120.27851926579541, 39.570737871915135], [-120.26877014541387, 39.538050263209506], [-120.22623649060219, 39.52952401597202]]]}}, {"type": "Feature", "properties": {"pack": "CA131", "pack_origin": "Grizzly", "most_recent_adj": "09/18/2026"}, "geometry": {"type": "Polygon", "coordinates": [[[-120.37289739294191, 40.018696383394555], [-120.33998723082635, 40.04282568360916], [-120.34980464307004, 40.07533568445123], [-120.39255119192562, 40.08370858925711], [-120.42545277375969, 40.05957348595996], [-120.41561640423909, 40.02707128524001], [-120.37289739294191, 40.018696383394555]]]}}, {"type": "Feature", "properties": {"pack": "CA150 (previously Harvey 3)", "pack_origin": "Harvey", "most_recent_adj": "09/17/2026"}, "geometry": {"type": "Polygon", "coordinates": [[[-121.0281228367343, 40.44937273819452], [-120.99534863596341, 40.47358357765205], [-121.00538570237202, 40.505834272714196], [-121.04821559445591, 40.51386616410586], [-121.08098036486687, 40.489649688703466], [-121.07092469120576, 40.45740696200837], [-121.0281228367343, 40.44937273819452]]]}}, {"type": "Feature", "properties": {"pack": "CA107 (previously Harvey 1)", "pack_origin": "Harvey", "most_recent_adj": "09/18/2026"}, "geometry": {"type": "Polygon", "coordinates": [[[-120.98261975153409, 40.56226782677051], [-120.94978867733226, 40.58645295205806], [-120.95982493660608, 40.61867328450404], [-121.00271097353614, 40.62670056900648], [-121.035532649469, 40.60250981065009], [-121.02547770443947, 40.57029740504004], [-120.98261975153409, 40.56226782677051]]]}}, {"type": "Feature", "properties": {"pack": "CA124 (previously Whaleback Disperser 2)", "pack_origin": "Whaleback", "most_recent_adj": "09/17/2026"}, "geometry": {"type": "Polygon", "coordinates": [[[-121.67814233403551, 40.72058950654726], [-121.64556125756421, 40.7448996467274], [-121.65579928059647, 40.77694014714649], [-121.69863658514248, 40.784662357933335], [-121.73120741807593, 40.76034674024436], [-121.72095120797877, 40.7283143932676], [-121.67814233403551, 40.72058950654726]]]}}, {"type": "Feature", "properties": {"pack": "CA077; pack origin: Whaleback", "pack_origin": "Whaleback", "most_recent_adj": "09/18/2026"}, "geometry": {"type": "Polygon", "coordinates": [[[-121.3468025306635, 41.20351356769422], [-121.31391504954286, 41.227683370579356], [-121.32411503809348, 41.25961594912318], [-121.36722116279581, 41.26737080255233], [-121.4000986893688, 41.24319549899925], [-121.38988006394231, 41.21127084682544], [-121.3468025306635, 41.20351356769422]]]}}, {"type": "Feature", "properties": {"pack": "CA121 (previously Whaleback Disperser 1)", "pack_origin": "Whaleback", "most_recent_adj": "09/18/2026"}, "geometry": {"type": "Polygon", "coordinates": [[[-121.9568661568964, 41.58117417701506], [-121.92412103584168, 41.605416925574154], [-121.93452374478755, 41.637103547737105], [-121.97768987291462, 41.644539363369596], [-122.01042423997399, 41.620291274482405], [-122.00000325143122, 41.58861271428945], [-121.9568661568964, 41.58117417701506]]]}}, {"type": "Feature", "properties": {"pack": "CA127 (previously Whaleback 2)", "pack_origin": "Whaleback", "most_recent_adj": "09/17/2026"}, "geometry": {"type": "Polygon", "coordinates": [[[-122.11761817675229, 41.69836543683882], [-122.0849055324091, 41.72262416171737], [-122.09536344213994, 41.754238695064316], [-122.13855220478646, 41.7615864160727], [-122.17125388032291, 41.73732239562056], [-122.16077778065524, 41.7057159536965], [-122.11761817675229, 41.69836543683882]]]}}, {"type": "Feature", "properties": {"pack": "CA147 (previously Whaleback 4)", "pack_origin": "Whaleback", "most_recent_adj": "09/17/2026"}, "geometry": {"type": "Polygon", "coordinates": [[[-122.11761817675229, 41.69836543683882], [-122.0849055324091, 41.72262416171737], [-122.09536344213994, 41.754238695064316], [-122.13855220478646, 41.7615864160727], [-122.17125388032291, 41.73732239562056], [-122.16077778065524, 41.7057159536965], [-122.11761817675229, 41.69836543683882]]]}}]}