{"type": "FeatureCollection", "features": [{"type": "Feature", "properties": {"pack": "CA091 (previously Yowlumni Disperser)", "pack_origin": "Beyem Seyo", "most_recent_adj": "09/16/2026"}, "geometry": {"type": "Polygon", "coordinates": [[[-118.97929177784803, 35.653844445573306], [-118.94718093519063, 35.67815865496599], [-118.9562287687547, 35.712172013068084], [-118.9974058669305, 35.72186312199392], [-119.02951035567692, 35.69754221175339], [-119.02044411488657, 35.66353689763309], [-118.97929177784803, 35.653844445573306]]]}}, {"type": "Feature", "properties": {"pack": "CA195", "pack_origin": "Long Valley", "most_recent_adj": "09/16/2026"}, "geometry": {"type": "Polygon", "coordinates": [[[-120.22623649060219, 39.52952401597202], [-120.19342476184852, 39.55368733618575], [-120.20315499628641, 39.58638278534556], [-120.24571586234323, 39.59490707812652], [-120.27851926579541, 39.570737871915135], [-120.26877014541387, 39.538050263209506], [-120.22623649060219, 39.52952401597202]]]}}, {"type": "Feature", "properties": {"pack": "CA131", "pack_origin": "Grizzly", "most_recent_adj": "09/16/2026"}, "geometry": {"type": "Polygon", "coordinates": [[[-120.41899613330907, 39.905335047540675], [-120.38614237079459, 39.929489878477995], [-120.39596120739155, 39.96202946480565], [-120.43865270273437, 39.97040638232014], [-120.47149784996357, 39.946245743476595], [-120.46166013431178, 39.913713999299105], [-120.41899613330907, 39.905335047540675]]]}}, {"type": "Feature", "properties": {"pack": "CA107 (previously Harvey 1)", "pack_origin": "Harvey", "most_recent_adj": "09/16/2026"}, "geometry": {"type": "Polygon", "coordinates": [[[-121.0281228367343, 40.44937273819452], [-120.99534863596341, 40.47358357765205], [-121.00538570237202, 40.505834272714196], [-121.04821559445591, 40.51386616410586], [-121.08098036486687, 40.489649688703466], [-121.07092469120576, 40.45740696200837], [-121.0281228367343, 40.44937273819452]]]}}, {"type": "Feature", "properties": {"pack": "CA150 (previously Harvey 3)", "pack_origin": "Harvey", "most_recent_adj": "09/15/2026"}, "geometry": {"type": "Polygon", "coordinates": [[[-121.0281228367343, 40.44937273819452], [-120.99534863596341, 40.47358357765205], [-121.00538570237202, 40.505834272714196], [-121.04821559445591, 40.51386616410586], [-121.08098036486687, 40.489649688703466], [-121.07092469120576, 40.45740696200837], [-121.0281228367343, 40.44937273819452]]]}}, {"type": "Feature", "properties": {"pack": "CA124 (previously Whaleback Disperser 2)", "pack_origin": "Whaleback", "most_recent_adj": "09/15/2026"}, "geometry": {"type": "Polygon", "coordinates": [[[-121.60273191553689, 40.737148525548236], [-121.57011220094752, 40.761440539317555], [-121.58033196970896, 40.79348916181908], [-121.62318972529782, 40.80123765248339], [-121.65579928059647, 40.77694014714649], [-121.64556125756421, 40.7448996467274], [-121.60273191553689, 40.737148525548236]]]}}, {"type": "Feature", "properties": {"pack": "CA077; pack origin: Whaleback", "pack_origin": "Whaleback", "most_recent_adj": "09/16/2026"}, "geometry": {"type": "Polygon", "coordinates": [[[-121.3468025306635, 41.20351356769422], [-121.31391504954286, 41.227683370579356], [-121.32411503809348, 41.25961594912318], [-121.36722116279581, 41.26737080255233], [-121.4000986893688, 41.24319549899925], [-121.38988006394231, 41.21127084682544], [-121.3468025306635, 41.20351356769422]]]}}, {"type": "Feature", "properties": {"pack": "CA127 (previously Whaleback 2)", "pack_origin": "Whaleback", "most_recent_adj": "09/15/2026"}, "geometry": {"type": "Polygon", "coordinates": [[[-121.75146052911352, 41.57544443295455], [-121.71862574802223, 41.599644539017895], [-121.72897322774627, 41.631371135165644], [-121.77217395451807, 41.63888963811582], [-121.80499822458525, 41.61468414672819], [-121.79463229737942, 41.582965541773746], [-121.75146052911352, 41.57544443295455]]]}}, {"type": "Feature", "properties": {"pack": "CA121 (previously Whaleback Disperser 1)", "pack_origin": "Whaleback", "most_recent_adj": "09/16/2026"}, "geometry": {"type": "Polygon", "coordinates": [[[-121.82742762104712, 41.55874675167808], [-121.79463229737942, 41.582965541773746], [-121.80499822458525, 41.61468414672819], [-121.8481778723033, 41.62217594399269], [-121.88096259905593, 41.597951783606405], [-121.87057829349013, 41.56624120028104], [-121.82742762104712, 41.55874675167808]]]}}, {"type": "Feature", "properties": {"pack": "CA147 (previously Whaleback 4)", "pack_origin": "Whaleback", "most_recent_adj": "09/16/2026"}, "geometry": {"type": "Polygon", "coordinates": [[[-121.82742762104712, 41.55874675167808], [-121.79463229737942, 41.582965541773746], [-121.80499822458525, 41.61468414672819], [-121.8481778723033, 41.62217594399269], [-121.88096259905593, 41.597951783606405], [-121.87057829349013, 41.56624120028104], [-121.82742762104712, 41.55874675167808]]]}}]}