{"type": "FeatureCollection", "features": [{"type": "Feature", "properties": {"pack": "CA091 (previously Yowlumni Disperser)", "pack_origin": "Beyem Seyo", "most_recent_adj": "07/25/2026"}, "geometry": {"type": "Polygon", "coordinates": [[[-118.54241230093689, 35.901217862398916], [-118.5100619471504, 35.925420121630566], [-118.51901234066025, 35.959439863476696], [-118.56033189002511, 35.9692495701328], [-118.59267635419496, 35.94504060824659], [-118.58370717327713, 35.911028646716424], [-118.54241230093689, 35.901217862398916]]]}}, {"type": "Feature", "properties": {"pack": "CA107 (previously Harvey 1)", "pack_origin": "Harvey", "most_recent_adj": "07/21/2026"}, "geometry": {"type": "Polygon", "coordinates": [[[-120.72540186843494, 40.51370364069706], [-120.69247701761871, 40.5378401193386], [-120.70243899664564, 40.5701223613035], [-120.74534471455488, 40.578260291335525], [-120.77826048011204, 40.55411812612437], [-120.7682796306124, 40.52184372170153], [-120.72540186843494, 40.51370364069706]]]}}, {"type": "Feature", "properties": {"pack": "CA150 (previously Harvey 3)", "pack_origin": "Harvey", "most_recent_adj": "07/22/2026"}, "geometry": {"type": "Polygon", "coordinates": [[[-121.05827090988238, 40.54609375439224], [-121.02547770443947, 40.57029740504004], [-121.035532649469, 40.60250981065009], [-121.07839943727866, 40.610510610499375], [-121.11118315847762, 40.58630133972915], [-121.10110959382338, 40.55409689338784], [-121.05827090988238, 40.54609375439224]]]}}, {"type": "Feature", "properties": {"pack": "CA077; pack origin: Whaleback", "pack_origin": "Whaleback", "most_recent_adj": "07/22/2026"}, "geometry": {"type": "Polygon", "coordinates": [[[-121.27081745397129, 41.21989939644046], [-121.23789129254162, 41.24405038528495], [-121.24807257639205, 41.27599085874438], [-121.29119874451507, 41.28377245260841], [-121.32411503809348, 41.25961594912318], [-121.31391504954286, 41.227683370579356], [-121.27081745397129, 41.21989939644046]]]}}, {"type": "Feature", "properties": {"pack": "CA124 (previously Whaleback Disperser 2)", "pack_origin": "Whaleback", "most_recent_adj": "07/19/2026"}, "geometry": {"type": "Polygon", "coordinates": [[[-121.60273191553689, 40.737148525548236], [-121.57011220094752, 40.761440539317555], [-121.58033196970896, 40.79348916181908], [-121.62318972529782, 40.80123765248339], [-121.65579928059647, 40.77694014714649], [-121.64556125756421, 40.7448996467274], [-121.60273191553689, 40.737148525548236]]]}}, {"type": "Feature", "properties": {"pack": "CA147 (previously Whaleback 4)", "pack_origin": "Whaleback", "most_recent_adj": "07/24/2026"}, "geometry": {"type": "Polygon", "coordinates": [[[-121.9568661568964, 41.58117417701506], [-121.92412103584168, 41.605416925574154], [-121.93452374478755, 41.637103547737105], [-121.97768987291462, 41.644539363369596], [-122.01042423997399, 41.620291274482405], [-122.00000325143122, 41.58861271428945], [-121.9568661568964, 41.58117417701506]]]}}, {"type": "Feature", "properties": {"pack": "CA039 (previously Whaleback 1)", "pack_origin": "Whaleback", "most_recent_adj": "07/25/2026"}, "geometry": {"type": "Polygon", "coordinates": [[[-122.01042423997399, 41.620291274482405], [-121.97768987291462, 41.644539363369596], [-121.9881109837516, 41.67620199000655], [-122.03128473006872, 41.683608459862036], [-122.06400827157204, 41.659355045520044], [-122.05356891087933, 41.6277004907641], [-122.01042423997399, 41.620291274482405]]]}}, {"type": "Feature", "properties": {"pack": "CA121 (previously Whaleback Disperser 1)", "pack_origin": "Whaleback", "most_recent_adj": "07/25/2026"}, "geometry": {"type": "Polygon", "coordinates": [[[-122.01042423997399, 41.620291274482405], [-121.97768987291462, 41.644539363369596], [-121.9881109837516, 41.67620199000655], [-122.03128473006872, 41.683608459862036], [-122.06400827157204, 41.659355045520044], [-122.05356891087933, 41.6277004907641], [-122.01042423997399, 41.620291274482405]]]}}, {"type": "Feature", "properties": {"pack": "CA127 (previously Whaleback 2)", "pack_origin": "Whaleback", "most_recent_adj": "07/24/2026"}, "geometry": {"type": "Polygon", "coordinates": [[[-122.01042423997399, 41.620291274482405], [-121.97768987291462, 41.644539363369596], [-121.9881109837516, 41.67620199000655], [-122.03128473006872, 41.683608459862036], [-122.06400827157204, 41.659355045520044], [-122.05356891087933, 41.6277004907641], [-122.01042423997399, 41.620291274482405]]]}}]}