{"type": "FeatureCollection", "features": [{"type": "Feature", "properties": {"pack": "CA091 (previously Yowlumni Disperser)", "pack_origin": "Beyem Seyo", "most_recent_adj": "09/20/2026"}, "geometry": {"type": "Polygon", "coordinates": [[[-118.8829008030332, 35.726761251091666], [-118.85073151856407, 35.751049574637264], [-118.85975951743528, 35.78506000729928], [-118.90097531298322, 35.79477413821551], [-118.93313834314398, 35.77047911682329], [-118.92409184678688, 35.736476666597326], [-118.8829008030332, 35.726761251091666]]]}}, {"type": "Feature", "properties": {"pack": "CA195", "pack_origin": "Long Valley", "most_recent_adj": "09/20/2026"}, "geometry": {"type": "Polygon", "coordinates": [[[-120.22623649060219, 39.52952401597202], [-120.19342476184852, 39.55368733618575], [-120.20315499628641, 39.58638278534556], [-120.24571586234323, 39.59490707812652], [-120.27851926579541, 39.570737871915135], [-120.26877014541387, 39.538050263209506], [-120.22623649060219, 39.52952401597202]]]}}, {"type": "Feature", "properties": {"pack": "CA131", "pack_origin": "Grizzly", "most_recent_adj": "09/20/2026"}, "geometry": {"type": "Polygon", "coordinates": [[[-120.39596120739155, 39.96202946480565], [-120.36307926217903, 39.98617156476036], [-120.37289739294191, 40.018696383394555], [-120.41561640423909, 40.02707128524001], [-120.44848975162101, 40.00292337983288], [-120.43865270273437, 39.97040638232014], [-120.39596120739155, 39.96202946480565]]]}}, {"type": "Feature", "properties": {"pack": "CA150 (previously Harvey 3)", "pack_origin": "Harvey", "most_recent_adj": "09/19/2026"}, "geometry": {"type": "Polygon", "coordinates": [[[-120.82404441742113, 40.441230818327625], [-120.7911855679424, 40.465398959247594], [-120.80116692054918, 40.49768853481335], [-120.84402590561277, 40.50580208250065], [-120.8768755665305, 40.481628265976006], [-120.86687544853139, 40.44934658158245], [-120.82404441742113, 40.441230818327625]]]}}, {"type": "Feature", "properties": {"pack": "CA107 (previously Harvey 1)", "pack_origin": "Harvey", "most_recent_adj": "09/20/2026"}, "geometry": {"type": "Polygon", "coordinates": [[[-120.72540186843494, 40.51370364069706], [-120.69247701761871, 40.5378401193386], [-120.70243899664564, 40.5701223613035], [-120.74534471455488, 40.578260291335525], [-120.77826048011204, 40.55411812612437], [-120.7682796306124, 40.52184372170153], [-120.72540186843494, 40.51370364069706]]]}}, {"type": "Feature", "properties": {"pack": "CA124 (previously Whaleback Disperser 2)", "pack_origin": "Whaleback", "most_recent_adj": "09/20/2026"}, "geometry": {"type": "Polygon", "coordinates": [[[-121.67814233403551, 40.72058950654726], [-121.64556125756421, 40.7448996467274], [-121.65579928059647, 40.77694014714649], [-121.69863658514248, 40.784662357933335], [-121.73120741807593, 40.76034674024436], [-121.72095120797877, 40.7283143932676], [-121.67814233403551, 40.72058950654726]]]}}, {"type": "Feature", "properties": {"pack": "CA077; pack origin: Whaleback", "pack_origin": "Whaleback", "most_recent_adj": "09/20/2026"}, "geometry": {"type": "Polygon", "coordinates": [[[-121.32411503809348, 41.25961594912318], [-121.29119874451507, 41.28377245260841], [-121.30139849656962, 41.31568930582326], [-121.34453323709009, 41.323441753719884], [-121.37743959155782, 41.299279749781135], [-121.36722116279581, 41.26737080255233], [-121.32411503809348, 41.25961594912318]]]}}, {"type": "Feature", "properties": {"pack": "CA147 (previously Whaleback 4)", "pack_origin": "Whaleback", "most_recent_adj": "09/20/2026"}, "geometry": {"type": "Polygon", "coordinates": [[[-122.215618426651, 41.62552607838735], [-122.18297462096429, 41.64981636431552], [-122.19345050240781, 41.68143876798204], [-122.23658828882769, 41.6887627482537], [-122.26922102781093, 41.66446718304918], [-122.25872706569378, 41.63285292077555], [-122.215618426651, 41.62552607838735]]]}}, {"type": "Feature", "properties": {"pack": "CA121 (previously Whaleback Disperser 1)", "pack_origin": "Whaleback", "most_recent_adj": "09/20/2026"}, "geometry": {"type": "Polygon", "coordinates": [[[-122.215618426651, 41.62552607838735], [-122.18297462096429, 41.64981636431552], [-122.19345050240781, 41.68143876798204], [-122.23658828882769, 41.6887627482537], [-122.26922102781093, 41.66446718304918], [-122.25872706569378, 41.63285292077555], [-122.215618426651, 41.62552607838735]]]}}, {"type": "Feature", "properties": {"pack": "CA127 (previously Whaleback 2)", "pack_origin": "Whaleback", "most_recent_adj": "09/19/2026"}, "geometry": {"type": "Polygon", "coordinates": [[[-122.13984414950045, 41.64246303081753], [-122.10716044564948, 41.666734921576875], [-122.11761817675229, 41.69836543683882], [-122.16077778065524, 41.7057159536965], [-122.19345050240781, 41.68143876798204], [-122.18297462096429, 41.64981636431552], [-122.13984414950045, 41.64246303081753]]]}}]}