{"type": "FeatureCollection", "features": [{"type": "Feature", "properties": {"pack": "CA091 (previously Yowlumni Disperser)", "pack_origin": "Beyem Seyo", "most_recent_adj": "08/27/2026"}, "geometry": {"type": "Polygon", "coordinates": [[[-118.07050271688442, 35.723930688799605], [-118.03802924124979, 35.7480484479431], [-118.04683639920704, 35.782185002522596], [-118.0881360866673, 35.79219622863267], [-118.12060422752742, 35.76807168329493], [-118.11177803009737, 35.733942702515336], [-118.07050271688442, 35.723930688799605]]]}}, {"type": "Feature", "properties": {"pack": "CA131", "pack_origin": "Grizzly", "most_recent_adj": "08/26/2026"}, "geometry": {"type": "Polygon", "coordinates": [[[-120.44848975162101, 40.00292337983288], [-120.41561640423909, 40.02707128524001], [-120.42545277375969, 40.05957348595996], [-120.4681814009048, 40.06791995164524], [-120.50104608140899, 40.04376625466644], [-120.49119081888223, 40.01127188785052], [-120.44848975162101, 40.00292337983288]]]}}, {"type": "Feature", "properties": {"pack": "CA150 (previously Harvey 3)", "pack_origin": "Harvey", "most_recent_adj": "08/24/2026"}, "geometry": {"type": "Polygon", "coordinates": [[[-120.74833573884617, 40.45725670802773], [-120.71543934684608, 40.48140620682687], [-120.72540186843494, 40.51370364069706], [-120.7682796306124, 40.52184372170153], [-120.80116692054918, 40.49768853481335], [-120.7911855679424, 40.465398959247594], [-120.74833573884617, 40.45725670802773]]]}}, {"type": "Feature", "properties": {"pack": "CA107 (previously Harvey 1)", "pack_origin": "Harvey", "most_recent_adj": "08/24/2026"}, "geometry": {"type": "Polygon", "coordinates": [[[-120.74833573884617, 40.45725670802773], [-120.71543934684608, 40.48140620682687], [-120.72540186843494, 40.51370364069706], [-120.7682796306124, 40.52184372170153], [-120.80116692054918, 40.49768853481335], [-120.7911855679424, 40.465398959247594], [-120.74833573884617, 40.45725670802773]]]}}, {"type": "Feature", "properties": {"pack": "CA124 (previously Whaleback Disperser 2)", "pack_origin": "Whaleback", "most_recent_adj": "08/27/2026"}, "geometry": {"type": "Polygon", "coordinates": [[[-121.52726252047606, 40.753663134990056], [-121.49460423056438, 40.77793694229943], [-121.50480567789815, 40.80999365542342], [-121.54768375452767, 40.817768474654414], [-121.58033196970896, 40.79348916181908], [-121.57011220094752, 40.761440539317555], [-121.52726252047606, 40.753663134990056]]]}}, {"type": "Feature", "properties": {"pack": "CA077; pack origin: Whaleback", "pack_origin": "Whaleback", "most_recent_adj": "08/27/2026"}, "geometry": {"type": "Polygon", "coordinates": [[[-121.27081745397129, 41.21989939644046], [-121.23789129254162, 41.24405038528495], [-121.24807257639205, 41.27599085874438], [-121.29119874451507, 41.28377245260841], [-121.32411503809348, 41.25961594912318], [-121.31391504954286, 41.227683370579356], [-121.27081745397129, 41.21989939644046]]]}}, {"type": "Feature", "properties": {"pack": "CA121 (previously Whaleback Disperser 1)", "pack_origin": "Whaleback", "most_recent_adj": "08/27/2026"}, "geometry": {"type": "Polygon", "coordinates": [[[-122.15285711645144, 41.435496856327845], [-122.12024905812713, 41.45980254454673], [-122.1306878988995, 41.49150470527933], [-122.1737528785926, 41.49889301904422], [-122.20634998655228, 41.474582021944855], [-122.19589308367594, 41.442888023886205], [-122.15285711645144, 41.435496856327845]]]}}, {"type": "Feature", "properties": {"pack": "CA127 (previously Whaleback 2)", "pack_origin": "Whaleback", "most_recent_adj": "08/25/2026"}, "geometry": {"type": "Polygon", "coordinates": [[[-122.07719145726749, 41.45238496507058], [-122.04454371834582, 41.476672358605775], [-122.05496442781796, 41.5083826519601], [-122.09805102599655, 41.51579742310694], [-122.1306878988995, 41.49150470527933], [-122.12024905812713, 41.45980254454673], [-122.07719145726749, 41.45238496507058]]]}}, {"type": "Feature", "properties": {"pack": "CA147 (previously Whaleback 4)", "pack_origin": "Whaleback", "most_recent_adj": "08/27/2026"}, "geometry": {"type": "Polygon", "coordinates": [[[-122.15285711645144, 41.435496856327845], [-122.12024905812713, 41.45980254454673], [-122.1306878988995, 41.49150470527933], [-122.1737528785926, 41.49889301904422], [-122.20634998655228, 41.474582021944855], [-122.19589308367594, 41.442888023886205], [-122.15285711645144, 41.435496856327845]]]}}]}