{"type": "FeatureCollection", "features": [{"type": "Feature", "properties": {"pack": "CA091 (previously Yowlumni Disperser)", "pack_origin": "Beyem Seyo", "most_recent_adj": "08/09/2026"}, "geometry": {"type": "Polygon", "coordinates": [[[-118.66629483478724, 35.93060002563914], [-118.63398254445408, 35.9548257386222], [-118.64296897601527, 35.98881871784515], [-118.68428642672541, 35.99857815180284], [-118.71659268385409, 35.97434575576055], [-118.70758753819852, 35.940360613144456], [-118.66629483478724, 35.93060002563914]]]}}, {"type": "Feature", "properties": {"pack": "CA131", "pack_origin": "Grizzly", "most_recent_adj": "08/10/2026"}, "geometry": {"type": "Polygon", "coordinates": [[[-120.47149784996357, 39.946245743476595], [-120.43865270273437, 39.97040638232014], [-120.44848975162101, 40.00292337983288], [-120.49119081888223, 40.01127188785052], [-120.52402728190555, 39.987105455055946], [-120.5141713790884, 39.95459631245814], [-120.47149784996357, 39.946245743476595]]]}}, {"type": "Feature", "properties": {"pack": "CA107 (previously Harvey 1)", "pack_origin": "Harvey", "most_recent_adj": "08/07/2026"}, "geometry": {"type": "Polygon", "coordinates": [[[-120.92248897068552, 40.36866356642822], [-120.88969611822723, 40.39286309092939], [-120.89969668762957, 40.425159877172504], [-120.94250878756571, 40.433249198332526], [-120.97529234900045, 40.40904400919023], [-120.96527311909996, 40.376755167705625], [-120.92248897068552, 40.36866356642822]]]}}, {"type": "Feature", "properties": {"pack": "CA150 (previously Harvey 3)", "pack_origin": "Harvey", "most_recent_adj": "08/09/2026"}, "geometry": {"type": "Polygon", "coordinates": [[[-120.8768755665305, 40.481628265976006], [-120.84402590561277, 40.50580208250065], [-120.85402555987724, 40.53806861652614], [-120.89689363167403, 40.54615343507611], [-120.92973403418522, 40.52197395708072], [-120.91971564092971, 40.48971532620858], [-120.8768755665305, 40.481628265976006]]]}}, {"type": "Feature", "properties": {"pack": "CA124 (previously Whaleback Disperser 2)", "pack_origin": "Whaleback", "most_recent_adj": "08/06/2026"}, "geometry": {"type": "Polygon", "coordinates": [[[-121.60273191553689, 40.737148525548236], [-121.57011220094752, 40.761440539317555], [-121.58033196970896, 40.79348916181908], [-121.62318972529782, 40.80123765248339], [-121.65579928059647, 40.77694014714649], [-121.64556125756421, 40.7448996467274], [-121.60273191553689, 40.737148525548236]]]}}, {"type": "Feature", "properties": {"pack": "CA077; pack origin: Whaleback", "pack_origin": "Whaleback", "most_recent_adj": "08/10/2026"}, "geometry": {"type": "Polygon", "coordinates": [[[-121.27081745397129, 41.21989939644046], [-121.23789129254162, 41.24405038528495], [-121.24807257639205, 41.27599085874438], [-121.29119874451507, 41.28377245260841], [-121.32411503809348, 41.25961594912318], [-121.31391504954286, 41.227683370579356], [-121.27081745397129, 41.21989939644046]]]}}, {"type": "Feature", "properties": {"pack": "CA127 (previously Whaleback 2)", "pack_origin": "Whaleback", "most_recent_adj": "08/09/2026"}, "geometry": {"type": "Polygon", "coordinates": [[[-122.04594823829049, 41.35716703189416], [-122.01331849230341, 41.38146205678994], [-122.023720755348, 41.41321204665038], [-122.06677090448204, 41.420658872458844], [-122.09938984213494, 41.39635850832255], [-122.08896945741093, 41.36461666156705], [-122.04594823829049, 41.35716703189416]]]}}, {"type": "Feature", "properties": {"pack": "CA121 (previously Whaleback Disperser 1)", "pack_origin": "Whaleback", "most_recent_adj": "08/09/2026"}, "geometry": {"type": "Polygon", "coordinates": [[[-122.07719145726749, 41.45238496507058], [-122.04454371834582, 41.476672358605775], [-122.05496442781796, 41.5083826519601], [-122.09805102599655, 41.51579742310694], [-122.1306878988995, 41.49150470527933], [-122.12024905812713, 41.45980254454673], [-122.07719145726749, 41.45238496507058]]]}}, {"type": "Feature", "properties": {"pack": "CA147 (previously Whaleback 4)", "pack_origin": "Whaleback", "most_recent_adj": "08/09/2026"}, "geometry": {"type": "Polygon", "coordinates": [[[-122.07719145726749, 41.45238496507058], [-122.04454371834582, 41.476672358605775], [-122.05496442781796, 41.5083826519601], [-122.09805102599655, 41.51579742310694], [-122.1306878988995, 41.49150470527933], [-122.12024905812713, 41.45980254454673], [-122.07719145726749, 41.45238496507058]]]}}]}