{"type": "FeatureCollection", "features": [{"type": "Feature", "properties": {"pack": "CA091 (previously Yowlumni Disperser)", "pack_origin": "Beyem Seyo", "most_recent_adj": "10/03/2026"}, "geometry": {"type": "Polygon", "coordinates": [[[-118.68590676957723, 35.71199064984525], [-118.65366694312631, 35.73623937046713], [-118.66264060130055, 35.770284513152205], [-118.70387272620569, 35.780073052264896], [-118.73610652163083, 35.75581760801286], [-118.72711423781698, 35.72178035257083], [-118.68590676957723, 35.71199064984525]]]}}, {"type": "Feature", "properties": {"pack": "CA195", "pack_origin": "Long Valley", "most_recent_adj": "10/02/2026"}, "geometry": {"type": "Polygon", "coordinates": [[[-120.33082987426111, 39.61190127027127], [-120.29803486434173, 39.63607634852333], [-120.30780135167763, 39.668727181994], [-120.35038170286225, 39.677195074764825], [-120.38316825095414, 39.65301413847316], [-120.37338292668703, 39.62037117171774], [-120.33082987426111, 39.61190127027127]]]}}, {"type": "Feature", "properties": {"pack": "CA131", "pack_origin": "Grizzly", "most_recent_adj": "10/03/2026"}, "geometry": {"type": "Polygon", "coordinates": [[[-120.41899613330907, 39.905335047540675], [-120.38614237079459, 39.929489878477995], [-120.39596120739155, 39.96202946480565], [-120.43865270273437, 39.97040638232014], [-120.47149784996357, 39.946245743476595], [-120.46166013431178, 39.913713999299105], [-120.41899613330907, 39.905335047540675]]]}}, {"type": "Feature", "properties": {"pack": "CA150 (previously Harvey 3)", "pack_origin": "Harvey", "most_recent_adj": "10/03/2026"}, "geometry": {"type": "Polygon", "coordinates": [[[-121.0281228367343, 40.44937273819452], [-120.99534863596341, 40.47358357765205], [-121.00538570237202, 40.505834272714196], [-121.04821559445591, 40.51386616410586], [-121.08098036486687, 40.489649688703466], [-121.07092469120576, 40.45740696200837], [-121.0281228367343, 40.44937273819452]]]}}, {"type": "Feature", "properties": {"pack": "CA107 (previously Harvey 1)", "pack_origin": "Harvey", "most_recent_adj": "10/03/2026"}, "geometry": {"type": "Polygon", "coordinates": [[[-121.0281228367343, 40.44937273819452], [-120.99534863596341, 40.47358357765205], [-121.00538570237202, 40.505834272714196], [-121.04821559445591, 40.51386616410586], [-121.08098036486687, 40.489649688703466], [-121.07092469120576, 40.45740696200837], [-121.0281228367343, 40.44937273819452]]]}}, {"type": "Feature", "properties": {"pack": "CA124 (previously Whaleback Disperser 2)", "pack_origin": "Whaleback", "most_recent_adj": "10/02/2026"}, "geometry": {"type": "Polygon", "coordinates": [[[-121.62510330708221, 40.6807799704055], [-121.59251205693091, 40.70508461800308], [-121.60273191553689, 40.737148525548236], [-121.64556125756421, 40.7448996467274], [-121.67814233403551, 40.72058950654726], [-121.66790426010166, 40.68853374177223], [-121.62510330708221, 40.6807799704055]]]}}, {"type": "Feature", "properties": {"pack": "CA077; pack origin: Whaleback", "pack_origin": "Whaleback", "most_recent_adj": "10/03/2026"}, "geometry": {"type": "Polygon", "coordinates": [[[-121.32411503809348, 41.25961594912318], [-121.29119874451507, 41.28377245260841], [-121.30139849656962, 41.31568930582326], [-121.34453323709009, 41.323441753719884], [-121.37743959155782, 41.299279749781135], [-121.36722116279581, 41.26737080255233], [-121.32411503809348, 41.25961594912318]]]}}, {"type": "Feature", "properties": {"pack": "CA127 (previously Whaleback 2)", "pack_origin": "Whaleback", "most_recent_adj": "10/02/2026"}, "geometry": {"type": "Polygon", "coordinates": [[[-122.07719145726749, 41.45238496507058], [-122.04454371834582, 41.476672358605775], [-122.05496442781796, 41.5083826519601], [-122.09805102599655, 41.51579742310694], [-122.1306878988995, 41.49150470527933], [-122.12024905812713, 41.45980254454673], [-122.07719145726749, 41.45238496507058]]]}}, {"type": "Feature", "properties": {"pack": "CA146", "pack_origin": "Whaleback", "most_recent_adj": "10/03/2026"}, "geometry": {"type": "Polygon", "coordinates": [[[-122.34492956377825, 41.64745081515372], [-122.31233686713678, 41.67176467839428], [-122.32284913734173, 41.703354848222176], [-122.36597210337246, 41.71062297822485], [-122.39855357770048, 41.686303866791725], [-122.38802332696862, 41.654721877438384], [-122.34492956377825, 41.64745081515372]]]}}, {"type": "Feature", "properties": {"pack": "CA121 (previously Whaleback Disperser 1)", "pack_origin": "Whaleback", "most_recent_adj": "10/03/2026"}, "geometry": {"type": "Polygon", "coordinates": [[[-122.22491530683877, 41.77622586951787], [-122.1922246717977, 41.80049517053584], [-122.20271937320035, 41.83206147569571], [-122.24592285778594, 41.83935037318505], [-122.27860238060188, 41.81507580665372], [-122.26808954976295, 41.78351761208531], [-122.22491530683877, 41.77622586951787]]]}}, {"type": "Feature", "properties": {"pack": "CA147 (previously Whaleback 4)", "pack_origin": "Whaleback", "most_recent_adj": "10/03/2026"}, "geometry": {"type": "Polygon", "coordinates": [[[-122.22491530683877, 41.77622586951787], [-122.1922246717977, 41.80049517053584], [-122.20271937320035, 41.83206147569571], [-122.24592285778594, 41.83935037318505], [-122.27860238060188, 41.81507580665372], [-122.26808954976295, 41.78351761208531], [-122.22491530683877, 41.77622586951787]]]}}]}