{"type": "FeatureCollection", "features": [{"type": "Feature", "properties": {"pack": "CA091 (previously Yowlumni Disperser)", "pack_origin": "Beyem Seyo", "most_recent_adj": "09/17/2026"}, "geometry": {"type": "Polygon", "coordinates": [[[-118.97929177784803, 35.653844445573306], [-118.94718093519063, 35.67815865496599], [-118.9562287687547, 35.712172013068084], [-118.9974058669305, 35.72186312199392], [-119.02951035567692, 35.69754221175339], [-119.02044411488657, 35.66353689763309], [-118.97929177784803, 35.653844445573306]]]}}, {"type": "Feature", "properties": {"pack": "CA195", "pack_origin": "Long Valley", "most_recent_adj": "09/16/2026"}, "geometry": {"type": "Polygon", "coordinates": [[[-120.22623649060219, 39.52952401597202], [-120.19342476184852, 39.55368733618575], [-120.20315499628641, 39.58638278534556], [-120.24571586234323, 39.59490707812652], [-120.27851926579541, 39.570737871915135], [-120.26877014541387, 39.538050263209506], [-120.22623649060219, 39.52952401597202]]]}}, {"type": "Feature", "properties": {"pack": "CA131", "pack_origin": "Grizzly", "most_recent_adj": "09/17/2026"}, "geometry": {"type": "Polygon", "coordinates": [[[-120.39596120739155, 39.96202946480565], [-120.36307926217903, 39.98617156476036], [-120.37289739294191, 40.018696383394555], [-120.41561640423909, 40.02707128524001], [-120.44848975162101, 40.00292337983288], [-120.43865270273437, 39.97040638232014], [-120.39596120739155, 39.96202946480565]]]}}, {"type": "Feature", "properties": {"pack": "CA107 (previously Harvey 1)", "pack_origin": "Harvey", "most_recent_adj": "09/17/2026"}, "geometry": {"type": "Polygon", "coordinates": [[[-121.0281228367343, 40.44937273819452], [-120.99534863596341, 40.47358357765205], [-121.00538570237202, 40.505834272714196], [-121.04821559445591, 40.51386616410586], [-121.08098036486687, 40.489649688703466], [-121.07092469120576, 40.45740696200837], [-121.0281228367343, 40.44937273819452]]]}}, {"type": "Feature", "properties": {"pack": "CA150 (previously Harvey 3)", "pack_origin": "Harvey", "most_recent_adj": "09/17/2026"}, "geometry": {"type": "Polygon", "coordinates": [[[-121.0281228367343, 40.44937273819452], [-120.99534863596341, 40.47358357765205], [-121.00538570237202, 40.505834272714196], [-121.04821559445591, 40.51386616410586], [-121.08098036486687, 40.489649688703466], [-121.07092469120576, 40.45740696200837], [-121.0281228367343, 40.44937273819452]]]}}, {"type": "Feature", "properties": {"pack": "CA124 (previously Whaleback Disperser 2)", "pack_origin": "Whaleback", "most_recent_adj": "09/16/2026"}, "geometry": {"type": "Polygon", "coordinates": [[[-121.45173434182335, 40.77013320634761], [-121.41903753996965, 40.794388727262245], [-121.42922059876959, 40.826453499448796], [-121.4721188659022, 40.834254695721285], [-121.50480567789815, 40.80999365542342], [-121.49460423056438, 40.77793694229943], [-121.45173434182335, 40.77013320634761]]]}}, {"type": "Feature", "properties": {"pack": "CA077; pack origin: Whaleback", "pack_origin": "Whaleback", "most_recent_adj": "09/17/2026"}, "geometry": {"type": "Polygon", "coordinates": [[[-121.3468025306635, 41.20351356769422], [-121.31391504954286, 41.227683370579356], [-121.32411503809348, 41.25961594912318], [-121.36722116279581, 41.26737080255233], [-121.4000986893688, 41.24319549899925], [-121.38988006394231, 41.21127084682544], [-121.3468025306635, 41.20351356769422]]]}}, {"type": "Feature", "properties": {"pack": "CA121 (previously Whaleback Disperser 1)", "pack_origin": "Whaleback", "most_recent_adj": "09/17/2026"}, "geometry": {"type": "Polygon", "coordinates": [[[-121.88096259905593, 41.597951783606405], [-121.8481778723033, 41.62217594399269], [-121.85856223234421, 41.65387059790252], [-121.9017496865632, 41.66133306370211], [-121.93452374478755, 41.637103547737105], [-121.92412103584168, 41.605416925574154], [-121.88096259905593, 41.597951783606405]]]}}, {"type": "Feature", "properties": {"pack": "CA127 (previously Whaleback 2)", "pack_origin": "Whaleback", "most_recent_adj": "09/16/2026"}, "geometry": {"type": "Polygon", "coordinates": [[[-122.08626352532484, 41.603433909993875], [-122.05356891087933, 41.6277004907641], [-122.06400827157204, 41.659355045520044], [-122.10716044564948, 41.666734921576875], [-122.13984414950045, 41.64246303081753], [-122.12938660844189, 41.610816577952896], [-122.08626352532484, 41.603433909993875]]]}}, {"type": "Feature", "properties": {"pack": "CA147 (previously Whaleback 4)", "pack_origin": "Whaleback", "most_recent_adj": "09/17/2026"}, "geometry": {"type": "Polygon", "coordinates": [[[-122.11761817675229, 41.69836543683882], [-122.0849055324091, 41.72262416171737], [-122.09536344213994, 41.754238695064316], [-122.13855220478646, 41.7615864160727], [-122.17125388032291, 41.73732239562056], [-122.16077778065524, 41.7057159536965], [-122.11761817675229, 41.69836543683882]]]}}]}