{"type": "FeatureCollection", "features": [{"type": "Feature", "properties": {"pack": "CA091 (previously Yowlumni Disperser)", "pack_origin": "Beyem Seyo", "most_recent_adj": "08/28/2026"}, "geometry": {"type": "Polygon", "coordinates": [[[-118.2414308707347, 35.63734962571794], [-118.20904647250661, 35.66151137597911], [-118.21789334707496, 35.69564371010045], [-118.25914353087994, 35.705606621676075], [-118.29152240860977, 35.681438085250434], [-118.28265663746551, 35.647313427827775], [-118.2414308707347, 35.63734962571794]]]}}, {"type": "Feature", "properties": {"pack": "CA131", "pack_origin": "Grizzly", "most_recent_adj": "08/27/2026"}, "geometry": {"type": "Polygon", "coordinates": [[[-120.47149784996357, 39.946245743476595], [-120.43865270273437, 39.97040638232014], [-120.44848975162101, 40.00292337983288], [-120.49119081888223, 40.01127188785052], [-120.52402728190555, 39.987105455055946], [-120.5141713790884, 39.95459631245814], [-120.47149784996357, 39.946245743476595]]]}}, {"type": "Feature", "properties": {"pack": "CA107 (previously Harvey 1)", "pack_origin": "Harvey", "most_recent_adj": "08/27/2026"}, "geometry": {"type": "Polygon", "coordinates": [[[-120.92248897068552, 40.36866356642822], [-120.88969611822723, 40.39286309092939], [-120.89969668762957, 40.425159877172504], [-120.94250878756571, 40.433249198332526], [-120.97529234900045, 40.40904400919023], [-120.96527311909996, 40.376755167705625], [-120.92248897068552, 40.36866356642822]]]}}, {"type": "Feature", "properties": {"pack": "CA150 (previously Harvey 3)", "pack_origin": "Harvey", "most_recent_adj": "08/24/2026"}, "geometry": {"type": "Polygon", "coordinates": [[[-120.74833573884617, 40.45725670802773], [-120.71543934684608, 40.48140620682687], [-120.72540186843494, 40.51370364069706], [-120.7682796306124, 40.52184372170153], [-120.80116692054918, 40.49768853481335], [-120.7911855679424, 40.465398959247594], [-120.74833573884617, 40.45725670802773]]]}}, {"type": "Feature", "properties": {"pack": "CA124 (previously Whaleback Disperser 2)", "pack_origin": "Whaleback", "most_recent_adj": "08/27/2026"}, "geometry": {"type": "Polygon", "coordinates": [[[-121.52726252047606, 40.753663134990056], [-121.49460423056438, 40.77793694229943], [-121.50480567789815, 40.80999365542342], [-121.54768375452767, 40.817768474654414], [-121.58033196970896, 40.79348916181908], [-121.57011220094752, 40.761440539317555], [-121.52726252047606, 40.753663134990056]]]}}, {"type": "Feature", "properties": {"pack": "CA077; pack origin: Whaleback", "pack_origin": "Whaleback", "most_recent_adj": "08/28/2026"}, "geometry": {"type": "Polygon", "coordinates": [[[-121.3468025306635, 41.20351356769422], [-121.31391504954286, 41.227683370579356], [-121.32411503809348, 41.25961594912318], [-121.36722116279581, 41.26737080255233], [-121.4000986893688, 41.24319549899925], [-121.38988006394231, 41.21127084682544], [-121.3468025306635, 41.20351356769422]]]}}, {"type": "Feature", "properties": {"pack": "CA127 (previously Whaleback 2)", "pack_origin": "Whaleback", "most_recent_adj": "08/27/2026"}, "geometry": {"type": "Polygon", "coordinates": [[[-122.07719145726749, 41.45238496507058], [-122.04454371834582, 41.476672358605775], [-122.05496442781796, 41.5083826519601], [-122.09805102599655, 41.51579742310694], [-122.1306878988995, 41.49150470527933], [-122.12024905812713, 41.45980254454673], [-122.07719145726749, 41.45238496507058]]]}}, {"type": "Feature", "properties": {"pack": "CA121 (previously Whaleback Disperser 1)", "pack_origin": "Whaleback", "most_recent_adj": "08/28/2026"}, "geometry": {"type": "Polygon", "coordinates": [[[-122.00146461330601, 41.46922831618862], [-121.9687772544148, 41.49349733396254], [-121.97917976343048, 41.52521572978674], [-122.02228785027, 41.53265700934091], [-122.05496442781796, 41.5083826519601], [-122.04454371834582, 41.476672358605775], [-122.00146461330601, 41.46922831618862]]]}}, {"type": "Feature", "properties": {"pack": "CA147 (previously Whaleback 4)", "pack_origin": "Whaleback", "most_recent_adj": "08/28/2026"}, "geometry": {"type": "Polygon", "coordinates": [[[-122.01042423997399, 41.620291274482405], [-121.97768987291462, 41.644539363369596], [-121.9881109837516, 41.67620199000655], [-122.03128473006872, 41.683608459862036], [-122.06400827157204, 41.659355045520044], [-122.05356891087933, 41.6277004907641], [-122.01042423997399, 41.620291274482405]]]}}]}