{"type": "FeatureCollection", "features": [{"type": "Feature", "properties": {"pack": "CA091 (previously Yowlumni Disperser)", "pack_origin": "Beyem Seyo", "most_recent_adj": "09/24/2026"}, "geometry": {"type": "Polygon", "coordinates": [[[-118.90601462691643, 35.668441941223186], [-118.87387143143349, 35.692739888041515], [-118.8829008030332, 35.726761251091666], [-118.92409184678688, 35.736476666597326], [-118.9562287687547, 35.712172013068084], [-118.94718093519063, 35.67815865496599], [-118.90601462691643, 35.668441941223186]]]}}, {"type": "Feature", "properties": {"pack": "CA195", "pack_origin": "Long Valley", "most_recent_adj": "09/24/2026"}, "geometry": {"type": "Polygon", "coordinates": [[[-120.22623649060219, 39.52952401597202], [-120.19342476184852, 39.55368733618575], [-120.20315499628641, 39.58638278534556], [-120.24571586234323, 39.59490707812652], [-120.27851926579541, 39.570737871915135], [-120.26877014541387, 39.538050263209506], [-120.22623649060219, 39.52952401597202]]]}}, {"type": "Feature", "properties": {"pack": "CA131", "pack_origin": "Grizzly", "most_recent_adj": "09/24/2026"}, "geometry": {"type": "Polygon", "coordinates": [[[-120.44848975162101, 40.00292337983288], [-120.41561640423909, 40.02707128524001], [-120.42545277375969, 40.05957348595996], [-120.4681814009048, 40.06791995164524], [-120.50104608140899, 40.04376625466644], [-120.49119081888223, 40.01127188785052], [-120.44848975162101, 40.00292337983288]]]}}, {"type": "Feature", "properties": {"pack": "CA150 (previously Harvey 3)", "pack_origin": "Harvey", "most_recent_adj": "09/24/2026"}, "geometry": {"type": "Polygon", "coordinates": [[[-120.98261975153409, 40.56226782677051], [-120.94978867733226, 40.58645295205806], [-120.95982493660608, 40.61867328450404], [-121.00271097353614, 40.62670056900648], [-121.035532649469, 40.60250981065009], [-121.02547770443947, 40.57029740504004], [-120.98261975153409, 40.56226782677051]]]}}, {"type": "Feature", "properties": {"pack": "CA107 (previously Harvey 1)", "pack_origin": "Harvey", "most_recent_adj": "09/24/2026"}, "geometry": {"type": "Polygon", "coordinates": [[[-120.98261975153409, 40.56226782677051], [-120.94978867733226, 40.58645295205806], [-120.95982493660608, 40.61867328450404], [-121.00271097353614, 40.62670056900648], [-121.035532649469, 40.60250981065009], [-121.02547770443947, 40.57029740504004], [-120.98261975153409, 40.56226782677051]]]}}, {"type": "Feature", "properties": {"pack": "CA124 (previously Whaleback Disperser 2)", "pack_origin": "Whaleback", "most_recent_adj": "09/24/2026"}, "geometry": {"type": "Polygon", "coordinates": [[[-121.60273191553689, 40.737148525548236], [-121.57011220094752, 40.761440539317555], [-121.58033196970896, 40.79348916181908], [-121.62318972529782, 40.80123765248339], [-121.65579928059647, 40.77694014714649], [-121.64556125756421, 40.7448996467274], [-121.60273191553689, 40.737148525548236]]]}}, {"type": "Feature", "properties": {"pack": "CA077; pack origin: Whaleback", "pack_origin": "Whaleback", "most_recent_adj": "09/24/2026"}, "geometry": {"type": "Polygon", "coordinates": [[[-121.4000986893688, 41.24319549899925], [-121.36722116279581, 41.26737080255233], [-121.37743959155782, 41.299279749781135], [-121.42055417382218, 41.30700546025817], [-121.453421674673, 41.282824670342876], [-121.44318463717396, 41.25092366044158], [-121.4000986893688, 41.24319549899925]]]}}, {"type": "Feature", "properties": {"pack": "CA127 (previously Whaleback 2)", "pack_origin": "Whaleback", "most_recent_adj": "09/23/2026"}, "geometry": {"type": "Polygon", "coordinates": [[[-122.05496442781796, 41.5083826519601], [-122.02228785027, 41.53265700934091], [-122.03270870500953, 41.5643514584977], [-122.075824326536, 41.571763441894745], [-122.10849005146366, 41.54748375992291], [-122.09805102599655, 41.51579742310694], [-122.05496442781796, 41.5083826519601]]]}}, {"type": "Feature", "properties": {"pack": "CA147 (previously Whaleback 4)", "pack_origin": "Whaleback", "most_recent_adj": "09/24/2026"}, "geometry": {"type": "Polygon", "coordinates": [[[-122.215618426651, 41.62552607838735], [-122.18297462096429, 41.64981636431552], [-122.19345050240781, 41.68143876798204], [-122.23658828882769, 41.6887627482537], [-122.26922102781093, 41.66446718304918], [-122.25872706569378, 41.63285292077555], [-122.215618426651, 41.62552607838735]]]}}, {"type": "Feature", "properties": {"pack": "CA121 (previously Whaleback Disperser 1)", "pack_origin": "Whaleback", "most_recent_adj": "09/24/2026"}, "geometry": {"type": "Polygon", "coordinates": [[[-122.13984414950045, 41.64246303081753], [-122.10716044564948, 41.666734921576875], [-122.11761817675229, 41.69836543683882], [-122.16077778065524, 41.7057159536965], [-122.19345050240781, 41.68143876798204], [-122.18297462096429, 41.64981636431552], [-122.13984414950045, 41.64246303081753]]]}}]}