{"type": "FeatureCollection", "features": [{"type": "Feature", "properties": {"pack": "CA091 (previously Yowlumni Disperser)", "pack_origin": "Beyem Seyo", "most_recent_adj": "09/09/2026"}, "geometry": {"type": "Polygon", "coordinates": [[[-118.66264060130055, 35.770284513152205], [-118.63037465836325, 35.79452340834378], [-118.63934683693023, 35.828557553107096], [-118.680603634407, 35.838344942252895], [-118.71286356609028, 35.81409933229584], [-118.70387272620569, 35.780073052264896], [-118.66264060130055, 35.770284513152205]]]}}, {"type": "Feature", "properties": {"pack": "CA195", "pack_origin": "Long Valley", "most_recent_adj": "09/08/2026"}, "geometry": {"type": "Polygon", "coordinates": [[[-120.22623649060219, 39.52952401597202], [-120.19342476184852, 39.55368733618575], [-120.20315499628641, 39.58638278534556], [-120.24571586234323, 39.59490707812652], [-120.27851926579541, 39.570737871915135], [-120.26877014541387, 39.538050263209506], [-120.22623649060219, 39.52952401597202]]]}}, {"type": "Feature", "properties": {"pack": "CA131", "pack_origin": "Grizzly", "most_recent_adj": "09/08/2026"}, "geometry": {"type": "Polygon", "coordinates": [[[-120.47149784996357, 39.946245743476595], [-120.43865270273437, 39.97040638232014], [-120.44848975162101, 40.00292337983288], [-120.49119081888223, 40.01127188785052], [-120.52402728190555, 39.987105455055946], [-120.5141713790884, 39.95459631245814], [-120.47149784996357, 39.946245743476595]]]}}, {"type": "Feature", "properties": {"pack": "CA150 (previously Harvey 3)", "pack_origin": "Harvey", "most_recent_adj": "09/07/2026"}, "geometry": {"type": "Polygon", "coordinates": [[[-120.98261975153409, 40.56226782677051], [-120.94978867733226, 40.58645295205806], [-120.95982493660608, 40.61867328450404], [-121.00271097353614, 40.62670056900648], [-121.035532649469, 40.60250981065009], [-121.02547770443947, 40.57029740504004], [-120.98261975153409, 40.56226782677051]]]}}, {"type": "Feature", "properties": {"pack": "CA107 (previously Harvey 1)", "pack_origin": "Harvey", "most_recent_adj": "09/07/2026"}, "geometry": {"type": "Polygon", "coordinates": [[[-120.98261975153409, 40.56226782677051], [-120.94978867733226, 40.58645295205806], [-120.95982493660608, 40.61867328450404], [-121.00271097353614, 40.62670056900648], [-121.035532649469, 40.60250981065009], [-121.02547770443947, 40.57029740504004], [-120.98261975153409, 40.56226782677051]]]}}, {"type": "Feature", "properties": {"pack": "CA124 (previously Whaleback Disperser 2)", "pack_origin": "Whaleback", "most_recent_adj": "09/09/2026"}, "geometry": {"type": "Polygon", "coordinates": [[[-121.60273191553689, 40.737148525548236], [-121.57011220094752, 40.761440539317555], [-121.58033196970896, 40.79348916181908], [-121.62318972529782, 40.80123765248339], [-121.65579928059647, 40.77694014714649], [-121.64556125756421, 40.7448996467274], [-121.60273191553689, 40.737148525548236]]]}}, {"type": "Feature", "properties": {"pack": "CA077; pack origin: Whaleback", "pack_origin": "Whaleback", "most_recent_adj": "09/08/2026"}, "geometry": {"type": "Polygon", "coordinates": [[[-121.47602333146048, 41.226729636728116], [-121.44318463717396, 41.25092366044158], [-121.453421674673, 41.282824670342876], [-121.49651596537494, 41.290523692065484], [-121.5293445476444, 41.26632419618484], [-121.51908896943317, 41.23443115485335], [-121.47602333146048, 41.226729636728116]]]}}, {"type": "Feature", "properties": {"pack": "CA121 (previously Whaleback Disperser 1)", "pack_origin": "Whaleback", "most_recent_adj": "09/09/2026"}, "geometry": {"type": "Polygon", "coordinates": [[[-122.07719145726749, 41.45238496507058], [-122.04454371834582, 41.476672358605775], [-122.05496442781796, 41.5083826519601], [-122.09805102599655, 41.51579742310694], [-122.1306878988995, 41.49150470527933], [-122.12024905812713, 41.45980254454673], [-122.07719145726749, 41.45238496507058]]]}}, {"type": "Feature", "properties": {"pack": "CA127 (previously Whaleback 2)", "pack_origin": "Whaleback", "most_recent_adj": "09/08/2026"}, "geometry": {"type": "Polygon", "coordinates": [[[-122.07719145726749, 41.45238496507058], [-122.04454371834582, 41.476672358605775], [-122.05496442781796, 41.5083826519601], [-122.09805102599655, 41.51579742310694], [-122.1306878988995, 41.49150470527933], [-122.12024905812713, 41.45980254454673], [-122.07719145726749, 41.45238496507058]]]}}, {"type": "Feature", "properties": {"pack": "CA147 (previously Whaleback 4)", "pack_origin": "Whaleback", "most_recent_adj": "09/09/2026"}, "geometry": {"type": "Polygon", "coordinates": [[[-122.05496442781796, 41.5083826519601], [-122.02228785027, 41.53265700934091], [-122.03270870500953, 41.5643514584977], [-122.075824326536, 41.571763441894745], [-122.10849005146366, 41.54748375992291], [-122.09805102599655, 41.51579742310694], [-122.05496442781796, 41.5083826519601]]]}}]}