{"type": "FeatureCollection", "features": [{"type": "Feature", "properties": {"pack": "CA091 (previously Yowlumni Disperser)", "pack_origin": "Beyem Seyo", "most_recent_adj": "08/02/2026"}, "geometry": {"type": "Polygon", "coordinates": [[[-118.499002409295, 36.17775074897549], [-118.46655284857549, 36.20191873656649], [-118.4755143092489, 36.23587415346354], [-118.51694425840499, 36.24565387965194], [-118.54938794878493, 36.22147923741268], [-118.54040757510435, 36.1875315280366], [-118.499002409295, 36.17775074897549]]]}}, {"type": "Feature", "properties": {"pack": "CA131", "pack_origin": "Grizzly", "most_recent_adj": "08/02/2026"}, "geometry": {"type": "Polygon", "coordinates": [[[-120.47149784996357, 39.946245743476595], [-120.43865270273437, 39.97040638232014], [-120.44848975162101, 40.00292337983288], [-120.49119081888223, 40.01127188785052], [-120.52402728190555, 39.987105455055946], [-120.5141713790884, 39.95459631245814], [-120.47149784996357, 39.946245743476595]]]}}, {"type": "Feature", "properties": {"pack": "CA150 (previously Harvey 3)", "pack_origin": "Harvey", "most_recent_adj": "07/27/2026"}, "geometry": {"type": "Polygon", "coordinates": [[[-121.17914208323528, 40.416938058362724], [-121.14644360824141, 40.44118560480211], [-121.15651782319367, 40.47342033067273], [-121.19930900608881, 40.48139948102765], [-121.23199787997183, 40.45714632459016], [-121.22190518974901, 40.42491963190156], [-121.17914208323528, 40.416938058362724]]]}}, {"type": "Feature", "properties": {"pack": "CA107 (previously Harvey 1)", "pack_origin": "Harvey", "most_recent_adj": "07/29/2026"}, "geometry": {"type": "Polygon", "coordinates": [[[-120.89969668762957, 40.425159877172504], [-120.86687544853139, 40.44934658158245], [-120.8768755665305, 40.481628265976006], [-120.91971564092971, 40.48971532620858], [-120.95252760526633, 40.4655229587855], [-120.94250878756571, 40.433249198332526], [-120.89969668762957, 40.425159877172504]]]}}, {"type": "Feature", "properties": {"pack": "CA077; pack origin: Whaleback", "pack_origin": "Whaleback", "most_recent_adj": "07/31/2026"}, "geometry": {"type": "Polygon", "coordinates": [[[-121.3468025306635, 41.20351356769422], [-121.31391504954286, 41.227683370579356], [-121.32411503809348, 41.25961594912318], [-121.36722116279581, 41.26737080255233], [-121.4000986893688, 41.24319549899925], [-121.38988006394231, 41.21127084682544], [-121.3468025306635, 41.20351356769422]]]}}, {"type": "Feature", "properties": {"pack": "CA124 (previously Whaleback Disperser 2)", "pack_origin": "Whaleback", "most_recent_adj": "08/02/2026"}, "geometry": {"type": "Polygon", "coordinates": [[[-121.60273191553689, 40.737148525548236], [-121.57011220094752, 40.761440539317555], [-121.58033196970896, 40.79348916181908], [-121.62318972529782, 40.80123765248339], [-121.65579928059647, 40.77694014714649], [-121.64556125756421, 40.7448996467274], [-121.60273191553689, 40.737148525548236]]]}}, {"type": "Feature", "properties": {"pack": "CA127 (previously Whaleback 2)", "pack_origin": "Whaleback", "most_recent_adj": "08/02/2026"}, "geometry": {"type": "Polygon", "coordinates": [[[-122.03270870500953, 41.5643514584977], [-122.00000325143122, 41.58861271428945], [-122.01042423997399, 41.620291274482405], [-122.05356891087933, 41.6277004907641], [-122.08626352532484, 41.603433909993875], [-122.075824326536, 41.571763441894745], [-122.03270870500953, 41.5643514584977]]]}}, {"type": "Feature", "properties": {"pack": "CA039 (previously Whaleback 1)", "pack_origin": "Whaleback", "most_recent_adj": "08/02/2026"}, "geometry": {"type": "Polygon", "coordinates": [[[-122.01042423997399, 41.620291274482405], [-121.97768987291462, 41.644539363369596], [-121.9881109837516, 41.67620199000655], [-122.03128473006872, 41.683608459862036], [-122.06400827157204, 41.659355045520044], [-122.05356891087933, 41.6277004907641], [-122.01042423997399, 41.620291274482405]]]}}, {"type": "Feature", "properties": {"pack": "CA147 (previously Whaleback 4)", "pack_origin": "Whaleback", "most_recent_adj": "08/02/2026"}, "geometry": {"type": "Polygon", "coordinates": [[[-122.01042423997399, 41.620291274482405], [-121.97768987291462, 41.644539363369596], [-121.9881109837516, 41.67620199000655], [-122.03128473006872, 41.683608459862036], [-122.06400827157204, 41.659355045520044], [-122.05356891087933, 41.6277004907641], [-122.01042423997399, 41.620291274482405]]]}}, {"type": "Feature", "properties": {"pack": "CA121 (previously Whaleback Disperser 1)", "pack_origin": "Whaleback", "most_recent_adj": "08/02/2026"}, "geometry": {"type": "Polygon", "coordinates": [[[-122.01042423997399, 41.620291274482405], [-121.97768987291462, 41.644539363369596], [-121.9881109837516, 41.67620199000655], [-122.03128473006872, 41.683608459862036], [-122.06400827157204, 41.659355045520044], [-122.05356891087933, 41.6277004907641], [-122.01042423997399, 41.620291274482405]]]}}]}