{"type": "FeatureCollection", "features": [{"type": "Feature", "properties": {"pack": "CA091 (previously Yowlumni Disperser)", "pack_origin": "Beyem Seyo", "most_recent_adj": "09/22/2026"}, "geometry": {"type": "Polygon", "coordinates": [[[-118.97929177784803, 35.653844445573306], [-118.94718093519063, 35.67815865496599], [-118.9562287687547, 35.712172013068084], [-118.9974058669305, 35.72186312199392], [-119.02951035567692, 35.69754221175339], [-119.02044411488657, 35.66353689763309], [-118.97929177784803, 35.653844445573306]]]}}, {"type": "Feature", "properties": {"pack": "CA195", "pack_origin": "Long Valley", "most_recent_adj": "09/22/2026"}, "geometry": {"type": "Polygon", "coordinates": [[[-120.232380395621, 39.68439560077859], [-120.19952093774789, 39.708539712640885], [-120.2092677390832, 39.74118383032516], [-120.25189295446238, 39.749676029161606], [-120.28474405424218, 39.72552605118053], [-120.27497831373769, 39.69288974478644], [-120.232380395621, 39.68439560077859]]]}}, {"type": "Feature", "properties": {"pack": "CA131", "pack_origin": "Grizzly", "most_recent_adj": "09/22/2026"}, "geometry": {"type": "Polygon", "coordinates": [[[-120.47149784996357, 39.946245743476595], [-120.43865270273437, 39.97040638232014], [-120.44848975162101, 40.00292337983288], [-120.49119081888223, 40.01127188785052], [-120.52402728190555, 39.987105455055946], [-120.5141713790884, 39.95459631245814], [-120.47149784996357, 39.946245743476595]]]}}, {"type": "Feature", "properties": {"pack": "CA107 (previously Harvey 1)", "pack_origin": "Harvey", "most_recent_adj": "09/21/2026"}, "geometry": {"type": "Polygon", "coordinates": [[[-120.98261975153409, 40.56226782677051], [-120.94978867733226, 40.58645295205806], [-120.95982493660608, 40.61867328450404], [-121.00271097353614, 40.62670056900648], [-121.035532649469, 40.60250981065009], [-121.02547770443947, 40.57029740504004], [-120.98261975153409, 40.56226782677051]]]}}, {"type": "Feature", "properties": {"pack": "CA150 (previously Harvey 3)", "pack_origin": "Harvey", "most_recent_adj": "09/22/2026"}, "geometry": {"type": "Polygon", "coordinates": [[[-120.98261975153409, 40.56226782677051], [-120.94978867733226, 40.58645295205806], [-120.95982493660608, 40.61867328450404], [-121.00271097353614, 40.62670056900648], [-121.035532649469, 40.60250981065009], [-121.02547770443947, 40.57029740504004], [-120.98261975153409, 40.56226782677051]]]}}, {"type": "Feature", "properties": {"pack": "CA124 (previously Whaleback Disperser 2)", "pack_origin": "Whaleback", "most_recent_adj": "09/22/2026"}, "geometry": {"type": "Polygon", "coordinates": [[[-121.60273191553689, 40.737148525548236], [-121.57011220094752, 40.761440539317555], [-121.58033196970896, 40.79348916181908], [-121.62318972529782, 40.80123765248339], [-121.65579928059647, 40.77694014714649], [-121.64556125756421, 40.7448996467274], [-121.60273191553689, 40.737148525548236]]]}}, {"type": "Feature", "properties": {"pack": "CA077; pack origin: Whaleback", "pack_origin": "Whaleback", "most_recent_adj": "09/22/2026"}, "geometry": {"type": "Polygon", "coordinates": [[[-121.32411503809348, 41.25961594912318], [-121.29119874451507, 41.28377245260841], [-121.30139849656962, 41.31568930582326], [-121.34453323709009, 41.323441753719884], [-121.37743959155782, 41.299279749781135], [-121.36722116279581, 41.26737080255233], [-121.32411503809348, 41.25961594912318]]]}}, {"type": "Feature", "properties": {"pack": "CA121 (previously Whaleback Disperser 1)", "pack_origin": "Whaleback", "most_recent_adj": "09/22/2026"}, "geometry": {"type": "Polygon", "coordinates": [[[-122.04594823829049, 41.35716703189416], [-122.01331849230341, 41.38146205678994], [-122.023720755348, 41.41321204665038], [-122.06677090448204, 41.420658872458844], [-122.09938984213494, 41.39635850832255], [-122.08896945741093, 41.36461666156705], [-122.04594823829049, 41.35716703189416]]]}}, {"type": "Feature", "properties": {"pack": "CA127 (previously Whaleback 2)", "pack_origin": "Whaleback", "most_recent_adj": "09/21/2026"}, "geometry": {"type": "Polygon", "coordinates": [[[-122.04594823829049, 41.35716703189416], [-122.01331849230341, 41.38146205678994], [-122.023720755348, 41.41321204665038], [-122.06677090448204, 41.420658872458844], [-122.09938984213494, 41.39635850832255], [-122.08896945741093, 41.36461666156705], [-122.04594823829049, 41.35716703189416]]]}}, {"type": "Feature", "properties": {"pack": "CA147 (previously Whaleback 4)", "pack_origin": "Whaleback", "most_recent_adj": "09/21/2026"}, "geometry": {"type": "Polygon", "coordinates": [[[-122.13984414950045, 41.64246303081753], [-122.10716044564948, 41.666734921576875], [-122.11761817675229, 41.69836543683882], [-122.16077778065524, 41.7057159536965], [-122.19345050240781, 41.68143876798204], [-122.18297462096429, 41.64981636431552], [-122.13984414950045, 41.64246303081753]]]}}]}