{"type": "FeatureCollection", "features": [{"type": "Feature", "properties": {"pack": "CA091 (previously Yowlumni Disperser)", "pack_origin": "Beyem Seyo", "most_recent_adj": "10/07/2026"}, "geometry": {"type": "Polygon", "coordinates": [[[-118.59267635419496, 35.94504060824659], [-118.56033189002511, 35.9692495701328], [-118.56929955281906, 36.003250346631155], [-118.61063046324843, 36.01303436831596], [-118.64296897601527, 35.98881871784515], [-118.63398254445408, 35.9548257386222], [-118.59267635419496, 35.94504060824659]]]}}, {"type": "Feature", "properties": {"pack": "CA195", "pack_origin": "Long Valley", "most_recent_adj": "10/07/2026"}, "geometry": {"type": "Polygon", "coordinates": [[[-120.33082987426111, 39.61190127027127], [-120.29803486434173, 39.63607634852333], [-120.30780135167763, 39.668727181994], [-120.35038170286225, 39.677195074764825], [-120.38316825095414, 39.65301413847316], [-120.37338292668703, 39.62037117171774], [-120.33082987426111, 39.61190127027127]]]}}, {"type": "Feature", "properties": {"pack": "CA131", "pack_origin": "Grizzly", "most_recent_adj": "10/08/2026"}, "geometry": {"type": "Polygon", "coordinates": [[[-120.47149784996357, 39.946245743476595], [-120.43865270273437, 39.97040638232014], [-120.44848975162101, 40.00292337983288], [-120.49119081888223, 40.01127188785052], [-120.52402728190555, 39.987105455055946], [-120.5141713790884, 39.95459631245814], [-120.47149784996357, 39.946245743476595]]]}}, {"type": "Feature", "properties": {"pack": "CA150 (previously Harvey 3)", "pack_origin": "Harvey", "most_recent_adj": "10/08/2026"}, "geometry": {"type": "Polygon", "coordinates": [[[-120.95982493660608, 40.61867328450404], [-120.92696537260161, 40.64284545138953], [-120.93700120988935, 40.67505053034441], [-120.97991535404108, 40.68307554048959], [-121.01276553596132, 40.65889774184438], [-121.00271097353614, 40.62670056900648], [-120.95982493660608, 40.61867328450404]]]}}, {"type": "Feature", "properties": {"pack": "CA107 (previously Harvey 1)", "pack_origin": "Harvey", "most_recent_adj": "10/08/2026"}, "geometry": {"type": "Polygon", "coordinates": [[[-120.95982493660608, 40.61867328450404], [-120.92696537260161, 40.64284545138953], [-120.93700120988935, 40.67505053034441], [-120.97991535404108, 40.68307554048959], [-121.01276553596132, 40.65889774184438], [-121.00271097353614, 40.62670056900648], [-120.95982493660608, 40.61867328450404]]]}}, {"type": "Feature", "properties": {"pack": "CA124 (previously Whaleback Disperser 2)", "pack_origin": "Whaleback", "most_recent_adj": "10/06/2026"}, "geometry": {"type": "Polygon", "coordinates": [[[-121.75349358412029, 40.70398620683839], [-121.72095120797877, 40.7283143932676], [-121.73120741807593, 40.76034674024436], [-121.77402414211375, 40.768042720055696], [-121.80655619078432, 40.74370907027595], [-121.79628186087555, 40.711684908001246], [-121.75349358412029, 40.70398620683839]]]}}, {"type": "Feature", "properties": {"pack": "CA077; pack origin: Whaleback", "pack_origin": "Whaleback", "most_recent_adj": "10/08/2026"}, "geometry": {"type": "Polygon", "coordinates": [[[-121.32411503809348, 41.25961594912318], [-121.29119874451507, 41.28377245260841], [-121.30139849656962, 41.31568930582326], [-121.34453323709009, 41.323441753719884], [-121.37743959155782, 41.299279749781135], [-121.36722116279581, 41.26737080255233], [-121.32411503809348, 41.25961594912318]]]}}, {"type": "Feature", "properties": {"pack": "CA147 (previously Whaleback 4)", "pack_origin": "Whaleback", "most_recent_adj": "10/08/2026"}, "geometry": {"type": "Polygon", "coordinates": [[[-121.93452374478755, 41.637103547737105], [-121.9017496865632, 41.66133306370211], [-121.91215247809633, 41.6930037321104], [-121.95534766571393, 41.700436846793366], [-121.9881109837516, 41.67620199000655], [-121.97768987291462, 41.644539363369596], [-121.93452374478755, 41.637103547737105]]]}}, {"type": "Feature", "properties": {"pack": "CA146", "pack_origin": "Whaleback", "most_recent_adj": "10/08/2026"}, "geometry": {"type": "Polygon", "coordinates": [[[-121.93452374478755, 41.637103547737105], [-121.9017496865632, 41.66133306370211], [-121.91215247809633, 41.6930037321104], [-121.95534766571393, 41.700436846793366], [-121.9881109837516, 41.67620199000655], [-121.97768987291462, 41.644539363369596], [-121.93452374478755, 41.637103547737105]]]}}, {"type": "Feature", "properties": {"pack": "CA121 (previously Whaleback Disperser 1)", "pack_origin": "Whaleback", "most_recent_adj": "10/08/2026"}, "geometry": {"type": "Polygon", "coordinates": [[[-122.04172424120254, 41.71524705682258], [-122.00897173505444, 41.73948723962929], [-122.01941138512164, 41.77110983451664], [-122.06262181962808, 41.77848418904405], [-122.09536344213994, 41.754238695064316], [-122.0849055324091, 41.72262416171737], [-122.04172424120254, 41.71524705682258]]]}}, {"type": "Feature", "properties": {"pack": "CA127 (previously Whaleback 2)", "pack_origin": "Whaleback", "most_recent_adj": "10/07/2026"}, "geometry": {"type": "Polygon", "coordinates": [[[-121.73753624830988, 41.782320403367365], [-121.70462491495749, 41.80648560779117], [-121.71499082994994, 41.83814014803265], [-121.75828663502739, 41.84562154691522], [-121.7911874287437, 41.82145096991436], [-121.78080297560876, 41.789804370692245], [-121.73753624830988, 41.782320403367365]]]}}]}