{"type": "FeatureCollection", "features": [{"type": "Feature", "properties": {"pack": "CA091 (previously Yowlumni Disperser)", "pack_origin": "Beyem Seyo", "most_recent_adj": "09/19/2026"}, "geometry": {"type": "Polygon", "coordinates": [[[-118.97929177784803, 35.653844445573306], [-118.94718093519063, 35.67815865496599], [-118.9562287687547, 35.712172013068084], [-118.9974058669305, 35.72186312199392], [-119.02951035567692, 35.69754221175339], [-119.02044411488657, 35.66353689763309], [-118.97929177784803, 35.653844445573306]]]}}, {"type": "Feature", "properties": {"pack": "CA195", "pack_origin": "Long Valley", "most_recent_adj": "09/18/2026"}, "geometry": {"type": "Polygon", "coordinates": [[[-120.22623649060219, 39.52952401597202], [-120.19342476184852, 39.55368733618575], [-120.20315499628641, 39.58638278534556], [-120.24571586234323, 39.59490707812652], [-120.27851926579541, 39.570737871915135], [-120.26877014541387, 39.538050263209506], [-120.22623649060219, 39.52952401597202]]]}}, {"type": "Feature", "properties": {"pack": "CA131", "pack_origin": "Grizzly", "most_recent_adj": "09/19/2026"}, "geometry": {"type": "Polygon", "coordinates": [[[-120.44848975162101, 40.00292337983288], [-120.41561640423909, 40.02707128524001], [-120.42545277375969, 40.05957348595996], [-120.4681814009048, 40.06791995164524], [-120.50104608140899, 40.04376625466644], [-120.49119081888223, 40.01127188785052], [-120.44848975162101, 40.00292337983288]]]}}, {"type": "Feature", "properties": {"pack": "CA150 (previously Harvey 3)", "pack_origin": "Harvey", "most_recent_adj": "09/19/2026"}, "geometry": {"type": "Polygon", "coordinates": [[[-120.82404441742113, 40.441230818327625], [-120.7911855679424, 40.465398959247594], [-120.80116692054918, 40.49768853481335], [-120.84402590561277, 40.50580208250065], [-120.8768755665305, 40.481628265976006], [-120.86687544853139, 40.44934658158245], [-120.82404441742113, 40.441230818327625]]]}}, {"type": "Feature", "properties": {"pack": "CA107 (previously Harvey 1)", "pack_origin": "Harvey", "most_recent_adj": "09/19/2026"}, "geometry": {"type": "Polygon", "coordinates": [[[-120.82404441742113, 40.441230818327625], [-120.7911855679424, 40.465398959247594], [-120.80116692054918, 40.49768853481335], [-120.84402590561277, 40.50580208250065], [-120.8768755665305, 40.481628265976006], [-120.86687544853139, 40.44934658158245], [-120.82404441742113, 40.441230818327625]]]}}, {"type": "Feature", "properties": {"pack": "CA124 (previously Whaleback Disperser 2)", "pack_origin": "Whaleback", "most_recent_adj": "09/19/2026"}, "geometry": {"type": "Polygon", "coordinates": [[[-121.60273191553689, 40.737148525548236], [-121.57011220094752, 40.761440539317555], [-121.58033196970896, 40.79348916181908], [-121.62318972529782, 40.80123765248339], [-121.65579928059647, 40.77694014714649], [-121.64556125756421, 40.7448996467274], [-121.60273191553689, 40.737148525548236]]]}}, {"type": "Feature", "properties": {"pack": "CA077; pack origin: Whaleback", "pack_origin": "Whaleback", "most_recent_adj": "09/19/2026"}, "geometry": {"type": "Polygon", "coordinates": [[[-121.32411503809348, 41.25961594912318], [-121.29119874451507, 41.28377245260841], [-121.30139849656962, 41.31568930582326], [-121.34453323709009, 41.323441753719884], [-121.37743959155782, 41.299279749781135], [-121.36722116279581, 41.26737080255233], [-121.32411503809348, 41.25961594912318]]]}}, {"type": "Feature", "properties": {"pack": "CA127 (previously Whaleback 2)", "pack_origin": "Whaleback", "most_recent_adj": "09/18/2026"}, "geometry": {"type": "Polygon", "coordinates": [[[-122.08626352532484, 41.603433909993875], [-122.05356891087933, 41.6277004907641], [-122.06400827157204, 41.659355045520044], [-122.10716044564948, 41.666734921576875], [-122.13984414950045, 41.64246303081753], [-122.12938660844189, 41.610816577952896], [-122.08626352532484, 41.603433909993875]]]}}, {"type": "Feature", "properties": {"pack": "CA121 (previously Whaleback Disperser 1)", "pack_origin": "Whaleback", "most_recent_adj": "09/19/2026"}, "geometry": {"type": "Polygon", "coordinates": [[[-122.13984414950045, 41.64246303081753], [-122.10716044564948, 41.666734921576875], [-122.11761817675229, 41.69836543683882], [-122.16077778065524, 41.7057159536965], [-122.19345050240781, 41.68143876798204], [-122.18297462096429, 41.64981636431552], [-122.13984414950045, 41.64246303081753]]]}}, {"type": "Feature", "properties": {"pack": "CA147 (previously Whaleback 4)", "pack_origin": "Whaleback", "most_recent_adj": "09/17/2026"}, "geometry": {"type": "Polygon", "coordinates": [[[-122.11761817675229, 41.69836543683882], [-122.0849055324091, 41.72262416171737], [-122.09536344213994, 41.754238695064316], [-122.13855220478646, 41.7615864160727], [-122.17125388032291, 41.73732239562056], [-122.16077778065524, 41.7057159536965], [-122.11761817675229, 41.69836543683882]]]}}]}