{"type": "FeatureCollection", "features": [{"type": "Feature", "properties": {"pack": "CA091 (previously Yowlumni Disperser)", "pack_origin": "Beyem Seyo", "most_recent_adj": "08/03/2026"}, "geometry": {"type": "Polygon", "coordinates": [[[-118.59980226921465, 36.26516270975549], [-118.56736451143612, 36.289343992812384], [-118.57636070880768, 36.32326099544267], [-118.61781355428224, 36.33298897813135], [-118.6502453171213, 36.30880106813073], [-118.64123024425773, 36.274891806769425], [-118.59980226921465, 36.26516270975549]]]}}, {"type": "Feature", "properties": {"pack": "CA131", "pack_origin": "Grizzly", "most_recent_adj": "08/03/2026"}, "geometry": {"type": "Polygon", "coordinates": [[[-120.47149784996357, 39.946245743476595], [-120.43865270273437, 39.97040638232014], [-120.44848975162101, 40.00292337983288], [-120.49119081888223, 40.01127188785052], [-120.52402728190555, 39.987105455055946], [-120.5141713790884, 39.95459631245814], [-120.47149784996357, 39.946245743476595]]]}}, {"type": "Feature", "properties": {"pack": "CA150 (previously Harvey 3)", "pack_origin": "Harvey", "most_recent_adj": "07/27/2026"}, "geometry": {"type": "Polygon", "coordinates": [[[-121.17914208323528, 40.416938058362724], [-121.14644360824141, 40.44118560480211], [-121.15651782319367, 40.47342033067273], [-121.19930900608881, 40.48139948102765], [-121.23199787997183, 40.45714632459016], [-121.22190518974901, 40.42491963190156], [-121.17914208323528, 40.416938058362724]]]}}, {"type": "Feature", "properties": {"pack": "CA107 (previously Harvey 1)", "pack_origin": "Harvey", "most_recent_adj": "08/02/2026"}, "geometry": {"type": "Polygon", "coordinates": [[[-120.82404441742113, 40.441230818327625], [-120.7911855679424, 40.465398959247594], [-120.80116692054918, 40.49768853481335], [-120.84402590561277, 40.50580208250065], [-120.8768755665305, 40.481628265976006], [-120.86687544853139, 40.44934658158245], [-120.82404441742113, 40.441230818327625]]]}}, {"type": "Feature", "properties": {"pack": "CA077; pack origin: Whaleback", "pack_origin": "Whaleback", "most_recent_adj": "07/31/2026"}, "geometry": {"type": "Polygon", "coordinates": [[[-121.3468025306635, 41.20351356769422], [-121.31391504954286, 41.227683370579356], [-121.32411503809348, 41.25961594912318], [-121.36722116279581, 41.26737080255233], [-121.4000986893688, 41.24319549899925], [-121.38988006394231, 41.21127084682544], [-121.3468025306635, 41.20351356769422]]]}}, {"type": "Feature", "properties": {"pack": "CA124 (previously Whaleback Disperser 2)", "pack_origin": "Whaleback", "most_recent_adj": "08/02/2026"}, "geometry": {"type": "Polygon", "coordinates": [[[-121.60273191553689, 40.737148525548236], [-121.57011220094752, 40.761440539317555], [-121.58033196970896, 40.79348916181908], [-121.62318972529782, 40.80123765248339], [-121.65579928059647, 40.77694014714649], [-121.64556125756421, 40.7448996467274], [-121.60273191553689, 40.737148525548236]]]}}, {"type": "Feature", "properties": {"pack": "CA127 (previously Whaleback 2)", "pack_origin": "Whaleback", "most_recent_adj": "08/02/2026"}, "geometry": {"type": "Polygon", "coordinates": [[[-122.03270870500953, 41.5643514584977], [-122.00000325143122, 41.58861271428945], [-122.01042423997399, 41.620291274482405], [-122.05356891087933, 41.6277004907641], [-122.08626352532484, 41.603433909993875], [-122.075824326536, 41.571763441894745], [-122.03270870500953, 41.5643514584977]]]}}, {"type": "Feature", "properties": {"pack": "CA147 (previously Whaleback 4)", "pack_origin": "Whaleback", "most_recent_adj": "08/03/2026"}, "geometry": {"type": "Polygon", "coordinates": [[[-122.09536344213994, 41.754238695064316], [-122.06262181962808, 41.77848418904405], [-122.07307989652587, 41.810082696338114], [-122.116297844223, 41.8174276423427], [-122.14902851130893, 41.793176852081814], [-122.13855220478646, 41.7615864160727], [-122.09536344213994, 41.754238695064316]]]}}, {"type": "Feature", "properties": {"pack": "CA121 (previously Whaleback Disperser 1)", "pack_origin": "Whaleback", "most_recent_adj": "08/03/2026"}, "geometry": {"type": "Polygon", "coordinates": [[[-122.09536344213994, 41.754238695064316], [-122.06262181962808, 41.77848418904405], [-122.07307989652587, 41.810082696338114], [-122.116297844223, 41.8174276423427], [-122.14902851130893, 41.793176852081814], [-122.13855220478646, 41.7615864160727], [-122.09536344213994, 41.754238695064316]]]}}, {"type": "Feature", "properties": {"pack": "CA039 (previously Whaleback 1)", "pack_origin": "Whaleback", "most_recent_adj": "08/03/2026"}, "geometry": {"type": "Polygon", "coordinates": [[[-122.09536344213994, 41.754238695064316], [-122.06262181962808, 41.77848418904405], [-122.07307989652587, 41.810082696338114], [-122.116297844223, 41.8174276423427], [-122.14902851130893, 41.793176852081814], [-122.13855220478646, 41.7615864160727], [-122.09536344213994, 41.754238695064316]]]}}]}