{"type": "FeatureCollection", "features": [{"type": "Feature", "properties": {"pack": "CA091 (previously Yowlumni Disperser)", "pack_origin": "Beyem Seyo", "most_recent_adj": "07/27/2026"}, "geometry": {"type": "Polygon", "coordinates": [[[-118.66629483478724, 35.93060002563914], [-118.63398254445408, 35.9548257386222], [-118.64296897601527, 35.98881871784515], [-118.68428642672541, 35.99857815180284], [-118.71659268385409, 35.97434575576055], [-118.70758753819852, 35.940360613144456], [-118.66629483478724, 35.93060002563914]]]}}, {"type": "Feature", "properties": {"pack": "CA150 (previously Harvey 3)", "pack_origin": "Harvey", "most_recent_adj": "07/27/2026"}, "geometry": {"type": "Polygon", "coordinates": [[[-121.17914208323528, 40.416938058362724], [-121.14644360824141, 40.44118560480211], [-121.15651782319367, 40.47342033067273], [-121.19930900608881, 40.48139948102765], [-121.23199787997183, 40.45714632459016], [-121.22190518974901, 40.42491963190156], [-121.17914208323528, 40.416938058362724]]]}}, {"type": "Feature", "properties": {"pack": "CA107 (previously Harvey 1)", "pack_origin": "Harvey", "most_recent_adj": "07/21/2026"}, "geometry": {"type": "Polygon", "coordinates": [[[-120.72540186843494, 40.51370364069706], [-120.69247701761871, 40.5378401193386], [-120.70243899664564, 40.5701223613035], [-120.74534471455488, 40.578260291335525], [-120.77826048011204, 40.55411812612437], [-120.7682796306124, 40.52184372170153], [-120.72540186843494, 40.51370364069706]]]}}, {"type": "Feature", "properties": {"pack": "CA077; pack origin: Whaleback", "pack_origin": "Whaleback", "most_recent_adj": "07/25/2026"}, "geometry": {"type": "Polygon", "coordinates": [[[-121.27865285742055, 41.37173352602799], [-121.24567882942549, 41.395863232799435], [-121.25587807188687, 41.42774849826679], [-121.2990701172129, 41.43549619582149], [-121.3320342372513, 41.41136098876328], [-121.3218162381502, 41.3794835886153], [-121.27865285742055, 41.37173352602799]]]}}, {"type": "Feature", "properties": {"pack": "CA124 (previously Whaleback Disperser 2)", "pack_origin": "Whaleback", "most_recent_adj": "07/19/2026"}, "geometry": {"type": "Polygon", "coordinates": [[[-121.60273191553689, 40.737148525548236], [-121.57011220094752, 40.761440539317555], [-121.58033196970896, 40.79348916181908], [-121.62318972529782, 40.80123765248339], [-121.65579928059647, 40.77694014714649], [-121.64556125756421, 40.7448996467274], [-121.60273191553689, 40.737148525548236]]]}}, {"type": "Feature", "properties": {"pack": "CA127 (previously Whaleback 2)", "pack_origin": "Whaleback", "most_recent_adj": "07/26/2026"}, "geometry": {"type": "Polygon", "coordinates": [[[-122.05496442781796, 41.5083826519601], [-122.02228785027, 41.53265700934091], [-122.03270870500953, 41.5643514584977], [-122.075824326536, 41.571763441894745], [-122.10849005146366, 41.54748375992291], [-122.09805102599655, 41.51579742310694], [-122.05496442781796, 41.5083826519601]]]}}, {"type": "Feature", "properties": {"pack": "CA039 (previously Whaleback 1)", "pack_origin": "Whaleback", "most_recent_adj": "07/27/2026"}, "geometry": {"type": "Polygon", "coordinates": [[[-122.05496442781796, 41.5083826519601], [-122.02228785027, 41.53265700934091], [-122.03270870500953, 41.5643514584977], [-122.075824326536, 41.571763441894745], [-122.10849005146366, 41.54748375992291], [-122.09805102599655, 41.51579742310694], [-122.05496442781796, 41.5083826519601]]]}}, {"type": "Feature", "properties": {"pack": "CA121 (previously Whaleback Disperser 1)", "pack_origin": "Whaleback", "most_recent_adj": "07/27/2026"}, "geometry": {"type": "Polygon", "coordinates": [[[-122.05496442781796, 41.5083826519601], [-122.02228785027, 41.53265700934091], [-122.03270870500953, 41.5643514584977], [-122.075824326536, 41.571763441894745], [-122.10849005146366, 41.54748375992291], [-122.09805102599655, 41.51579742310694], [-122.05496442781796, 41.5083826519601]]]}}, {"type": "Feature", "properties": {"pack": "CA147 (previously Whaleback 4)", "pack_origin": "Whaleback", "most_recent_adj": "07/27/2026"}, "geometry": {"type": "Polygon", "coordinates": [[[-122.05496442781796, 41.5083826519601], [-122.02228785027, 41.53265700934091], [-122.03270870500953, 41.5643514584977], [-122.075824326536, 41.571763441894745], [-122.10849005146366, 41.54748375992291], [-122.09805102599655, 41.51579742310694], [-122.05496442781796, 41.5083826519601]]]}}]}