{"type": "FeatureCollection", "features": [{"type": "Feature", "properties": {"pack": "CA091 (previously Yowlumni Disperser)", "pack_origin": "Beyem Seyo", "most_recent_adj": "09/29/2026"}, "geometry": {"type": "Polygon", "coordinates": [[[-118.90601462691643, 35.668441941223186], [-118.87387143143349, 35.692739888041515], [-118.8829008030332, 35.726761251091666], [-118.92409184678688, 35.736476666597326], [-118.9562287687547, 35.712172013068084], [-118.94718093519063, 35.67815865496599], [-118.90601462691643, 35.668441941223186]]]}}, {"type": "Feature", "properties": {"pack": "CA195", "pack_origin": "Long Valley", "most_recent_adj": "09/29/2026"}, "geometry": {"type": "Polygon", "coordinates": [[[-120.33082987426111, 39.61190127027127], [-120.29803486434173, 39.63607634852333], [-120.30780135167763, 39.668727181994], [-120.35038170286225, 39.677195074764825], [-120.38316825095414, 39.65301413847316], [-120.37338292668703, 39.62037117171774], [-120.33082987426111, 39.61190127027127]]]}}, {"type": "Feature", "properties": {"pack": "CA131", "pack_origin": "Grizzly", "most_recent_adj": "09/29/2026"}, "geometry": {"type": "Polygon", "coordinates": [[[-120.56990325949889, 39.873701646132744], [-120.53712312839824, 39.89789334433003], [-120.54697965898904, 39.930417212552484], [-120.5896350886423, 39.93874147714345], [-120.6224064324331, 39.914543994132195], [-120.6125311510899, 39.88202803557016], [-120.56990325949889, 39.873701646132744]]]}}, {"type": "Feature", "properties": {"pack": "CA150 (previously Harvey 3)", "pack_origin": "Harvey", "most_recent_adj": "09/30/2026"}, "geometry": {"type": "Polygon", "coordinates": [[[-121.0281228367343, 40.44937273819452], [-120.99534863596341, 40.47358357765205], [-121.00538570237202, 40.505834272714196], [-121.04821559445591, 40.51386616410586], [-121.08098036486687, 40.489649688703466], [-121.07092469120576, 40.45740696200837], [-121.0281228367343, 40.44937273819452]]]}}, {"type": "Feature", "properties": {"pack": "CA107 (previously Harvey 1)", "pack_origin": "Harvey", "most_recent_adj": "09/30/2026"}, "geometry": {"type": "Polygon", "coordinates": [[[-121.0281228367343, 40.44937273819452], [-120.99534863596341, 40.47358357765205], [-121.00538570237202, 40.505834272714196], [-121.04821559445591, 40.51386616410586], [-121.08098036486687, 40.489649688703466], [-121.07092469120576, 40.45740696200837], [-121.0281228367343, 40.44937273819452]]]}}, {"type": "Feature", "properties": {"pack": "CA124 (previously Whaleback Disperser 2)", "pack_origin": "Whaleback", "most_recent_adj": "09/30/2026"}, "geometry": {"type": "Polygon", "coordinates": [[[-121.70045689394574, 40.664211033882516], [-121.66790426010166, 40.68853374177223], [-121.67814233403551, 40.72058950654726], [-121.72095120797877, 40.7283143932676], [-121.75349358412029, 40.70398620683839], [-121.74323736197354, 40.671938616205665], [-121.70045689394574, 40.664211033882516]]]}}, {"type": "Feature", "properties": {"pack": "CA077; pack origin: Whaleback", "pack_origin": "Whaleback", "most_recent_adj": "09/30/2026"}, "geometry": {"type": "Polygon", "coordinates": [[[-121.3468025306635, 41.20351356769422], [-121.31391504954286, 41.227683370579356], [-121.32411503809348, 41.25961594912318], [-121.36722116279581, 41.26737080255233], [-121.4000986893688, 41.24319549899925], [-121.38988006394231, 41.21127084682544], [-121.3468025306635, 41.20351356769422]]]}}, {"type": "Feature", "properties": {"pack": "CA127 (previously Whaleback 2)", "pack_origin": "Whaleback", "most_recent_adj": "09/29/2026"}, "geometry": {"type": "Polygon", "coordinates": [[[-121.9568661568964, 41.58117417701506], [-121.92412103584168, 41.605416925574154], [-121.93452374478755, 41.637103547737105], [-121.97768987291462, 41.644539363369596], [-122.01042423997399, 41.620291274482405], [-122.00000325143122, 41.58861271428945], [-121.9568661568964, 41.58117417701506]]]}}, {"type": "Feature", "properties": {"pack": "CA121 (previously Whaleback Disperser 1)", "pack_origin": "Whaleback", "most_recent_adj": "09/30/2026"}, "geometry": {"type": "Polygon", "coordinates": [[[-122.19345050240781, 41.68143876798204], [-122.16077778065524, 41.7057159536965], [-122.17125388032291, 41.73732239562056], [-122.21442084055712, 41.74464353456258], [-122.24708250866595, 41.72036106897163], [-122.23658828882769, 41.6887627482537], [-122.19345050240781, 41.68143876798204]]]}}, {"type": "Feature", "properties": {"pack": "CA147 (previously Whaleback 4)", "pack_origin": "Whaleback", "most_recent_adj": "09/30/2026"}, "geometry": {"type": "Polygon", "coordinates": [[[-122.19345050240781, 41.68143876798204], [-122.16077778065524, 41.7057159536965], [-122.17125388032291, 41.73732239562056], [-122.21442084055712, 41.74464353456258], [-122.24708250866595, 41.72036106897163], [-122.23658828882769, 41.6887627482537], [-122.19345050240781, 41.68143876798204]]]}}]}