{"type": "FeatureCollection", "features": [{"type": "Feature", "properties": {"pack": "CA091 (previously Yowlumni Disperser)", "pack_origin": "Beyem Seyo", "most_recent_adj": "10/02/2026"}, "geometry": {"type": "Polygon", "coordinates": [[[-118.8095266549087, 35.74130981842447], [-118.77732507912998, 35.765581738836346], [-118.78633452581339, 35.79960011480015], [-118.8275641151631, 35.80933863130975], [-118.85975951743528, 35.78506000729928], [-118.85073151856407, 35.751049574637264], [-118.8095266549087, 35.74130981842447]]]}}, {"type": "Feature", "properties": {"pack": "CA195", "pack_origin": "Long Valley", "most_recent_adj": "10/02/2026"}, "geometry": {"type": "Polygon", "coordinates": [[[-120.35382966839803, 39.555048436675136], [-120.3210626527138, 39.579235960921885], [-120.33082987426111, 39.61190127027127], [-120.37338292668703, 39.62037117171774], [-120.40614146308873, 39.596177786420036], [-120.39635544332414, 39.56352036498105], [-120.35382966839803, 39.555048436675136]]]}}, {"type": "Feature", "properties": {"pack": "CA131", "pack_origin": "Grizzly", "most_recent_adj": "10/02/2026"}, "geometry": {"type": "Polygon", "coordinates": [[[-120.41899613330907, 39.905335047540675], [-120.38614237079459, 39.929489878477995], [-120.39596120739155, 39.96202946480565], [-120.43865270273437, 39.97040638232014], [-120.47149784996357, 39.946245743476595], [-120.46166013431178, 39.913713999299105], [-120.41899613330907, 39.905335047540675]]]}}, {"type": "Feature", "properties": {"pack": "CA107 (previously Harvey 1)", "pack_origin": "Harvey", "most_recent_adj": "10/01/2026"}, "geometry": {"type": "Polygon", "coordinates": [[[-121.02073554426077, 40.29600272188261], [-120.98800868296652, 40.320233350873124], [-120.99802831286678, 40.352537224668914], [-121.04079337742333, 40.36060247531385], [-121.07351084606888, 40.33636619264216], [-121.06347266037484, 40.304070317146156], [-121.02073554426077, 40.29600272188261]]]}}, {"type": "Feature", "properties": {"pack": "CA150 (previously Harvey 3)", "pack_origin": "Harvey", "most_recent_adj": "10/02/2026"}, "geometry": {"type": "Polygon", "coordinates": [[[-120.89969668762957, 40.425159877172504], [-120.86687544853139, 40.44934658158245], [-120.8768755665305, 40.481628265976006], [-120.91971564092971, 40.48971532620858], [-120.95252760526633, 40.4655229587855], [-120.94250878756571, 40.433249198332526], [-120.89969668762957, 40.425159877172504]]]}}, {"type": "Feature", "properties": {"pack": "CA124 (previously Whaleback Disperser 2)", "pack_origin": "Whaleback", "most_recent_adj": "10/02/2026"}, "geometry": {"type": "Polygon", "coordinates": [[[-121.62510330708221, 40.6807799704055], [-121.59251205693091, 40.70508461800308], [-121.60273191553689, 40.737148525548236], [-121.64556125756421, 40.7448996467274], [-121.67814233403551, 40.72058950654726], [-121.66790426010166, 40.68853374177223], [-121.62510330708221, 40.6807799704055]]]}}, {"type": "Feature", "properties": {"pack": "CA077; pack origin: Whaleback", "pack_origin": "Whaleback", "most_recent_adj": "10/02/2026"}, "geometry": {"type": "Polygon", "coordinates": [[[-121.27865285742055, 41.37173352602799], [-121.24567882942549, 41.395863232799435], [-121.25587807188687, 41.42774849826679], [-121.2990701172129, 41.43549619582149], [-121.3320342372513, 41.41136098876328], [-121.3218162381502, 41.3794835886153], [-121.27865285742055, 41.37173352602799]]]}}, {"type": "Feature", "properties": {"pack": "CA127 (previously Whaleback 2)", "pack_origin": "Whaleback", "most_recent_adj": "10/01/2026"}, "geometry": {"type": "Polygon", "coordinates": [[[-122.215618426651, 41.62552607838735], [-122.18297462096429, 41.64981636431552], [-122.19345050240781, 41.68143876798204], [-122.23658828882769, 41.6887627482537], [-122.26922102781093, 41.66446718304918], [-122.25872706569378, 41.63285292077555], [-122.215618426651, 41.62552607838735]]]}}, {"type": "Feature", "properties": {"pack": "CA121 (previously Whaleback Disperser 1)", "pack_origin": "Whaleback", "most_recent_adj": "10/01/2026"}, "geometry": {"type": "Polygon", "coordinates": [[[-122.13984414950045, 41.64246303081753], [-122.10716044564948, 41.666734921576875], [-122.11761817675229, 41.69836543683882], [-122.16077778065524, 41.7057159536965], [-122.19345050240781, 41.68143876798204], [-122.18297462096429, 41.64981636431552], [-122.13984414950045, 41.64246303081753]]]}}, {"type": "Feature", "properties": {"pack": "CA146", "pack_origin": "Whaleback", "most_recent_adj": "10/02/2026"}, "geometry": {"type": "Polygon", "coordinates": [[[-122.13984414950045, 41.64246303081753], [-122.10716044564948, 41.666734921576875], [-122.11761817675229, 41.69836543683882], [-122.16077778065524, 41.7057159536965], [-122.19345050240781, 41.68143876798204], [-122.18297462096429, 41.64981636431552], [-122.13984414950045, 41.64246303081753]]]}}, {"type": "Feature", "properties": {"pack": "CA147 (previously Whaleback 4)", "pack_origin": "Whaleback", "most_recent_adj": "10/02/2026"}, "geometry": {"type": "Polygon", "coordinates": [[[-122.09536344213994, 41.754238695064316], [-122.06262181962808, 41.77848418904405], [-122.07307989652587, 41.810082696338114], [-122.116297844223, 41.8174276423427], [-122.14902851130893, 41.793176852081814], [-122.13855220478646, 41.7615864160727], [-122.09536344213994, 41.754238695064316]]]}}]}