{"type": "FeatureCollection", "features": [{"type": "Feature", "properties": {"pack": "CA091 (previously Yowlumni Disperser)", "pack_origin": "Beyem Seyo", "most_recent_adj": "10/04/2026"}, "geometry": {"type": "Polygon", "coordinates": [[[-118.66264060130055, 35.770284513152205], [-118.63037465836325, 35.79452340834378], [-118.63934683693023, 35.828557553107096], [-118.680603634407, 35.838344942252895], [-118.71286356609028, 35.81409933229584], [-118.70387272620569, 35.780073052264896], [-118.66264060130055, 35.770284513152205]]]}}, {"type": "Feature", "properties": {"pack": "CA195", "pack_origin": "Long Valley", "most_recent_adj": "10/03/2026"}, "geometry": {"type": "Polygon", "coordinates": [[[-120.33082987426111, 39.61190127027127], [-120.29803486434173, 39.63607634852333], [-120.30780135167763, 39.668727181994], [-120.35038170286225, 39.677195074764825], [-120.38316825095414, 39.65301413847316], [-120.37338292668703, 39.62037117171774], [-120.33082987426111, 39.61190127027127]]]}}, {"type": "Feature", "properties": {"pack": "CA131", "pack_origin": "Grizzly", "most_recent_adj": "10/04/2026"}, "geometry": {"type": "Polygon", "coordinates": [[[-120.36652219811027, 39.86437343739569], [-120.33365988916886, 39.88852244651597], [-120.34346051492378, 39.92108457956072], [-120.38614237079459, 39.929489878477995], [-120.41899613330907, 39.905335047540675], [-120.40917660351782, 39.87278074378839], [-120.36652219811027, 39.86437343739569]]]}}, {"type": "Feature", "properties": {"pack": "CA150 (previously Harvey 3)", "pack_origin": "Harvey", "most_recent_adj": "10/04/2026"}, "geometry": {"type": "Polygon", "coordinates": [[[-120.98261975153409, 40.56226782677051], [-120.94978867733226, 40.58645295205806], [-120.95982493660608, 40.61867328450404], [-121.00271097353614, 40.62670056900648], [-121.035532649469, 40.60250981065009], [-121.02547770443947, 40.57029740504004], [-120.98261975153409, 40.56226782677051]]]}}, {"type": "Feature", "properties": {"pack": "CA107 (previously Harvey 1)", "pack_origin": "Harvey", "most_recent_adj": "10/04/2026"}, "geometry": {"type": "Polygon", "coordinates": [[[-120.98261975153409, 40.56226782677051], [-120.94978867733226, 40.58645295205806], [-120.95982493660608, 40.61867328450404], [-121.00271097353614, 40.62670056900648], [-121.035532649469, 40.60250981065009], [-121.02547770443947, 40.57029740504004], [-120.98261975153409, 40.56226782677051]]]}}, {"type": "Feature", "properties": {"pack": "CA124 (previously Whaleback Disperser 2)", "pack_origin": "Whaleback", "most_recent_adj": "10/04/2026"}, "geometry": {"type": "Polygon", "coordinates": [[[-121.60273191553689, 40.737148525548236], [-121.57011220094752, 40.761440539317555], [-121.58033196970896, 40.79348916181908], [-121.62318972529782, 40.80123765248339], [-121.65579928059647, 40.77694014714649], [-121.64556125756421, 40.7448996467274], [-121.60273191553689, 40.737148525548236]]]}}, {"type": "Feature", "properties": {"pack": "CA077; pack origin: Whaleback", "pack_origin": "Whaleback", "most_recent_adj": "10/04/2026"}, "geometry": {"type": "Polygon", "coordinates": [[[-121.3468025306635, 41.20351356769422], [-121.31391504954286, 41.227683370579356], [-121.32411503809348, 41.25961594912318], [-121.36722116279581, 41.26737080255233], [-121.4000986893688, 41.24319549899925], [-121.38988006394231, 41.21127084682544], [-121.3468025306635, 41.20351356769422]]]}}, {"type": "Feature", "properties": {"pack": "CA121 (previously Whaleback Disperser 1)", "pack_origin": "Whaleback", "most_recent_adj": "10/04/2026"}, "geometry": {"type": "Polygon", "coordinates": [[[-122.05496442781796, 41.5083826519601], [-122.02228785027, 41.53265700934091], [-122.03270870500953, 41.5643514584977], [-122.075824326536, 41.571763441894745], [-122.10849005146366, 41.54748375992291], [-122.09805102599655, 41.51579742310694], [-122.05496442781796, 41.5083826519601]]]}}, {"type": "Feature", "properties": {"pack": "CA146", "pack_origin": "Whaleback", "most_recent_adj": "10/04/2026"}, "geometry": {"type": "Polygon", "coordinates": [[[-122.05496442781796, 41.5083826519601], [-122.02228785027, 41.53265700934091], [-122.03270870500953, 41.5643514584977], [-122.075824326536, 41.571763441894745], [-122.10849005146366, 41.54748375992291], [-122.09805102599655, 41.51579742310694], [-122.05496442781796, 41.5083826519601]]]}}, {"type": "Feature", "properties": {"pack": "CA127 (previously Whaleback 2)", "pack_origin": "Whaleback", "most_recent_adj": "10/03/2026"}, "geometry": {"type": "Polygon", "coordinates": [[[-122.01042423997399, 41.620291274482405], [-121.97768987291462, 41.644539363369596], [-121.9881109837516, 41.67620199000655], [-122.03128473006872, 41.683608459862036], [-122.06400827157204, 41.659355045520044], [-122.05356891087933, 41.6277004907641], [-122.01042423997399, 41.620291274482405]]]}}, {"type": "Feature", "properties": {"pack": "CA147 (previously Whaleback 4)", "pack_origin": "Whaleback", "most_recent_adj": "10/03/2026"}, "geometry": {"type": "Polygon", "coordinates": [[[-122.22491530683877, 41.77622586951787], [-122.1922246717977, 41.80049517053584], [-122.20271937320035, 41.83206147569571], [-122.24592285778594, 41.83935037318505], [-122.27860238060188, 41.81507580665372], [-122.26808954976295, 41.78351761208531], [-122.22491530683877, 41.77622586951787]]]}}]}