{"type": "FeatureCollection", "features": [{"type": "Feature", "properties": {"pack": "CA091 (previously Yowlumni Disperser)", "pack_origin": "Beyem Seyo", "most_recent_adj": "09/23/2026"}, "geometry": {"type": "Polygon", "coordinates": [[[-118.97929177784803, 35.653844445573306], [-118.94718093519063, 35.67815865496599], [-118.9562287687547, 35.712172013068084], [-118.9974058669305, 35.72186312199392], [-119.02951035567692, 35.69754221175339], [-119.02044411488657, 35.66353689763309], [-118.97929177784803, 35.653844445573306]]]}}, {"type": "Feature", "properties": {"pack": "CA195", "pack_origin": "Long Valley", "most_recent_adj": "09/23/2026"}, "geometry": {"type": "Polygon", "coordinates": [[[-120.1800447102958, 39.643214578412206], [-120.14717696280823, 39.66735281034795], [-120.1569055862587, 39.700019274343894], [-120.19952093774789, 39.708539712640885], [-120.232380395621, 39.68439560077859], [-120.22263280858232, 39.651736934861326], [-120.1800447102958, 39.643214578412206]]]}}, {"type": "Feature", "properties": {"pack": "CA131", "pack_origin": "Grizzly", "most_recent_adj": "09/23/2026"}, "geometry": {"type": "Polygon", "coordinates": [[[-120.47149784996357, 39.946245743476595], [-120.43865270273437, 39.97040638232014], [-120.44848975162101, 40.00292337983288], [-120.49119081888223, 40.01127188785052], [-120.52402728190555, 39.987105455055946], [-120.5141713790884, 39.95459631245814], [-120.47149784996357, 39.946245743476595]]]}}, {"type": "Feature", "properties": {"pack": "CA107 (previously Harvey 1)", "pack_origin": "Harvey", "most_recent_adj": "09/22/2026"}, "geometry": {"type": "Polygon", "coordinates": [[[-120.88406021964632, 40.63479163571565], [-120.85116283481342, 40.658945132198625], [-120.86117988081062, 40.691158084750846], [-120.90411312063884, 40.69920967143967], [-120.93700120988935, 40.67505053034441], [-120.92696537260161, 40.64284545138953], [-120.88406021964632, 40.63479163571565]]]}}, {"type": "Feature", "properties": {"pack": "CA150 (previously Harvey 3)", "pack_origin": "Harvey", "most_recent_adj": "09/23/2026"}, "geometry": {"type": "Polygon", "coordinates": [[[-120.9899695216093, 40.71525743263157], [-120.95709079816504, 40.739422204263455], [-120.96714455857825, 40.77158876795824], [-121.01009579799577, 40.77958266704703], [-121.04296508535309, 40.75541227899912], [-121.03289258716305, 40.72325361247273], [-120.9899695216093, 40.71525743263157]]]}}, {"type": "Feature", "properties": {"pack": "CA124 (previously Whaleback Disperser 2)", "pack_origin": "Whaleback", "most_recent_adj": "09/23/2026"}, "geometry": {"type": "Polygon", "coordinates": [[[-121.67814233403551, 40.72058950654726], [-121.64556125756421, 40.7448996467274], [-121.65579928059647, 40.77694014714649], [-121.69863658514248, 40.784662357933335], [-121.73120741807593, 40.76034674024436], [-121.72095120797877, 40.7283143932676], [-121.67814233403551, 40.72058950654726]]]}}, {"type": "Feature", "properties": {"pack": "CA077; pack origin: Whaleback", "pack_origin": "Whaleback", "most_recent_adj": "09/23/2026"}, "geometry": {"type": "Polygon", "coordinates": [[[-121.27081745397129, 41.21989939644046], [-121.23789129254162, 41.24405038528495], [-121.24807257639205, 41.27599085874438], [-121.29119874451507, 41.28377245260841], [-121.32411503809348, 41.25961594912318], [-121.31391504954286, 41.227683370579356], [-121.27081745397129, 41.21989939644046]]]}}, {"type": "Feature", "properties": {"pack": "CA147 (previously Whaleback 4)", "pack_origin": "Whaleback", "most_recent_adj": "09/23/2026"}, "geometry": {"type": "Polygon", "coordinates": [[[-121.99253237935542, 41.31792248147956], [-121.95989189598615, 41.342212152021226], [-121.97027586764037, 41.3739860042862], [-122.01331849230341, 41.38146205678994], [-122.04594823829049, 41.35716703189416], [-122.0355461153847, 41.32540131280929], [-121.99253237935542, 41.31792248147956]]]}}, {"type": "Feature", "properties": {"pack": "CA121 (previously Whaleback Disperser 1)", "pack_origin": "Whaleback", "most_recent_adj": "09/23/2026"}, "geometry": {"type": "Polygon", "coordinates": [[[-121.99253237935542, 41.31792248147956], [-121.95989189598615, 41.342212152021226], [-121.97027586764037, 41.3739860042862], [-122.01331849230341, 41.38146205678994], [-122.04594823829049, 41.35716703189416], [-122.0355461153847, 41.32540131280929], [-121.99253237935542, 41.31792248147956]]]}}, {"type": "Feature", "properties": {"pack": "CA127 (previously Whaleback 2)", "pack_origin": "Whaleback", "most_recent_adj": "09/22/2026"}, "geometry": {"type": "Polygon", "coordinates": [[[-121.9168568683924, 41.334706892717335], [-121.8841769580562, 41.3589782230313], [-121.89454270967559, 41.390760178084264], [-121.93760661004522, 41.39826270402014], [-121.97027586764037, 41.3739860042862], [-121.95989189598615, 41.342212152021226], [-121.9168568683924, 41.334706892717335]]]}}]}