{"type": "FeatureCollection", "features": [{"type": "Feature", "properties": {"pack": "CA091 (previously Yowlumni Disperser)", "pack_origin": "Beyem Seyo", "most_recent_adj": "10/05/2026"}, "geometry": {"type": "Polygon", "coordinates": [[[-118.565784537848, 35.84297467090847], [-118.53346036631582, 35.86718697526658], [-118.54241230093689, 35.901217862398916], [-118.58370717327713, 35.911028646716424], [-118.61602543505325, 35.886809630975854], [-118.6070547488914, 35.852786546644], [-118.565784537848, 35.84297467090847]]]}}, {"type": "Feature", "properties": {"pack": "CA195", "pack_origin": "Long Valley", "most_recent_adj": "10/05/2026"}, "geometry": {"type": "Polygon", "coordinates": [[[-120.33082987426111, 39.61190127027127], [-120.29803486434173, 39.63607634852333], [-120.30780135167763, 39.668727181994], [-120.35038170286225, 39.677195074764825], [-120.38316825095414, 39.65301413847316], [-120.37338292668703, 39.62037117171774], [-120.33082987426111, 39.61190127027127]]]}}, {"type": "Feature", "properties": {"pack": "CA131", "pack_origin": "Grizzly", "most_recent_adj": "10/05/2026"}, "geometry": {"type": "Polygon", "coordinates": [[[-120.36652219811027, 39.86437343739569], [-120.33365988916886, 39.88852244651597], [-120.34346051492378, 39.92108457956072], [-120.38614237079459, 39.929489878477995], [-120.41899613330907, 39.905335047540675], [-120.40917660351782, 39.87278074378839], [-120.36652219811027, 39.86437343739569]]]}}, {"type": "Feature", "properties": {"pack": "CA107 (previously Harvey 1)", "pack_origin": "Harvey", "most_recent_adj": "10/05/2026"}, "geometry": {"type": "Polygon", "coordinates": [[[-120.67257085346255, 40.473237421998824], [-120.63963698737683, 40.49736820017484], [-120.64958061238909, 40.529673459382494], [-120.69247701761871, 40.5378401193386], [-120.72540186843494, 40.51370364069706], [-120.71543934684608, 40.48140620682687], [-120.67257085346255, 40.473237421998824]]]}}, {"type": "Feature", "properties": {"pack": "CA150 (previously Harvey 3)", "pack_origin": "Harvey", "most_recent_adj": "10/04/2026"}, "geometry": {"type": "Polygon", "coordinates": [[[-120.98261975153409, 40.56226782677051], [-120.94978867733226, 40.58645295205806], [-120.95982493660608, 40.61867328450404], [-121.00271097353614, 40.62670056900648], [-121.035532649469, 40.60250981065009], [-121.02547770443947, 40.57029740504004], [-120.98261975153409, 40.56226782677051]]]}}, {"type": "Feature", "properties": {"pack": "CA124 (previously Whaleback Disperser 2)", "pack_origin": "Whaleback", "most_recent_adj": "10/04/2026"}, "geometry": {"type": "Polygon", "coordinates": [[[-121.60273191553689, 40.737148525548236], [-121.57011220094752, 40.761440539317555], [-121.58033196970896, 40.79348916181908], [-121.62318972529782, 40.80123765248339], [-121.65579928059647, 40.77694014714649], [-121.64556125756421, 40.7448996467274], [-121.60273191553689, 40.737148525548236]]]}}, {"type": "Feature", "properties": {"pack": "CA077; pack origin: Whaleback", "pack_origin": "Whaleback", "most_recent_adj": "10/05/2026"}, "geometry": {"type": "Polygon", "coordinates": [[[-121.3468025306635, 41.20351356769422], [-121.31391504954286, 41.227683370579356], [-121.32411503809348, 41.25961594912318], [-121.36722116279581, 41.26737080255233], [-121.4000986893688, 41.24319549899925], [-121.38988006394231, 41.21127084682544], [-121.3468025306635, 41.20351356769422]]]}}, {"type": "Feature", "properties": {"pack": "CA146", "pack_origin": "Whaleback", "most_recent_adj": "10/05/2026"}, "geometry": {"type": "Polygon", "coordinates": [[[-122.15285711645144, 41.435496856327845], [-122.12024905812713, 41.45980254454673], [-122.1306878988995, 41.49150470527933], [-122.1737528785926, 41.49889301904422], [-122.20634998655228, 41.474582021944855], [-122.19589308367594, 41.442888023886205], [-122.15285711645144, 41.435496856327845]]]}}, {"type": "Feature", "properties": {"pack": "CA121 (previously Whaleback Disperser 1)", "pack_origin": "Whaleback", "most_recent_adj": "10/05/2026"}, "geometry": {"type": "Polygon", "coordinates": [[[-122.15285711645144, 41.435496856327845], [-122.12024905812713, 41.45980254454673], [-122.1306878988995, 41.49150470527933], [-122.1737528785926, 41.49889301904422], [-122.20634998655228, 41.474582021944855], [-122.19589308367594, 41.442888023886205], [-122.15285711645144, 41.435496856327845]]]}}, {"type": "Feature", "properties": {"pack": "CA147 (previously Whaleback 4)", "pack_origin": "Whaleback", "most_recent_adj": "10/05/2026"}, "geometry": {"type": "Polygon", "coordinates": [[[-122.07719145726749, 41.45238496507058], [-122.04454371834582, 41.476672358605775], [-122.05496442781796, 41.5083826519601], [-122.09805102599655, 41.51579742310694], [-122.1306878988995, 41.49150470527933], [-122.12024905812713, 41.45980254454673], [-122.07719145726749, 41.45238496507058]]]}}, {"type": "Feature", "properties": {"pack": "CA127 (previously Whaleback 2)", "pack_origin": "Whaleback", "most_recent_adj": "10/04/2026"}, "geometry": {"type": "Polygon", "coordinates": [[[-121.76867109559775, 41.87725203967815], [-121.73574119138992, 41.901409058609595], [-121.74612564752132, 41.93302340109088], [-121.78945857535385, 41.94047279755096], [-121.82237788215181, 41.916310419600954], [-121.81197487718042, 41.884704008294], [-121.76867109559775, 41.87725203967815]]]}}]}