{"type": "FeatureCollection", "features": [{"type": "Feature", "properties": {"pack": "CA091 (previously Yowlumni Disperser)", "pack_origin": "Beyem Seyo", "most_recent_adj": "09/28/2026"}, "geometry": {"type": "Polygon", "coordinates": [[[-118.90601462691643, 35.668441941223186], [-118.87387143143349, 35.692739888041515], [-118.8829008030332, 35.726761251091666], [-118.92409184678688, 35.736476666597326], [-118.9562287687547, 35.712172013068084], [-118.94718093519063, 35.67815865496599], [-118.90601462691643, 35.668441941223186]]]}}, {"type": "Feature", "properties": {"pack": "CA195", "pack_origin": "Long Valley", "most_recent_adj": "09/28/2026"}, "geometry": {"type": "Polygon", "coordinates": [[[-120.35382966839803, 39.555048436675136], [-120.3210626527138, 39.579235960921885], [-120.33082987426111, 39.61190127027127], [-120.37338292668703, 39.62037117171774], [-120.40614146308873, 39.596177786420036], [-120.39635544332414, 39.56352036498105], [-120.35382966839803, 39.555048436675136]]]}}, {"type": "Feature", "properties": {"pack": "CA131", "pack_origin": "Grizzly", "most_recent_adj": "09/28/2026"}, "geometry": {"type": "Polygon", "coordinates": [[[-120.56990325949889, 39.873701646132744], [-120.53712312839824, 39.89789334433003], [-120.54697965898904, 39.930417212552484], [-120.5896350886423, 39.93874147714345], [-120.6224064324331, 39.914543994132195], [-120.6125311510899, 39.88202803557016], [-120.56990325949889, 39.873701646132744]]]}}, {"type": "Feature", "properties": {"pack": "CA150 (previously Harvey 3)", "pack_origin": "Harvey", "most_recent_adj": "09/28/2026"}, "geometry": {"type": "Polygon", "coordinates": [[[-120.98261975153409, 40.56226782677051], [-120.94978867733226, 40.58645295205806], [-120.95982493660608, 40.61867328450404], [-121.00271097353614, 40.62670056900648], [-121.035532649469, 40.60250981065009], [-121.02547770443947, 40.57029740504004], [-120.98261975153409, 40.56226782677051]]]}}, {"type": "Feature", "properties": {"pack": "CA107 (previously Harvey 1)", "pack_origin": "Harvey", "most_recent_adj": "09/28/2026"}, "geometry": {"type": "Polygon", "coordinates": [[[-120.98261975153409, 40.56226782677051], [-120.94978867733226, 40.58645295205806], [-120.95982493660608, 40.61867328450404], [-121.00271097353614, 40.62670056900648], [-121.035532649469, 40.60250981065009], [-121.02547770443947, 40.57029740504004], [-120.98261975153409, 40.56226782677051]]]}}, {"type": "Feature", "properties": {"pack": "CA124 (previously Whaleback Disperser 2)", "pack_origin": "Whaleback", "most_recent_adj": "09/28/2026"}, "geometry": {"type": "Polygon", "coordinates": [[[-121.72274300804155, 40.6078048439485], [-121.69021878066773, 40.63214005229961], [-121.70045689394574, 40.664211033882516], [-121.74323736197354, 40.671938616205665], [-121.77575131756862, 40.6475979281971], [-121.76549509484194, 40.615535141487264], [-121.72274300804155, 40.6078048439485]]]}}, {"type": "Feature", "properties": {"pack": "CA077; pack origin: Whaleback", "pack_origin": "Whaleback", "most_recent_adj": "09/28/2026"}, "geometry": {"type": "Polygon", "coordinates": [[[-121.3468025306635, 41.20351356769422], [-121.31391504954286, 41.227683370579356], [-121.32411503809348, 41.25961594912318], [-121.36722116279581, 41.26737080255233], [-121.4000986893688, 41.24319549899925], [-121.38988006394231, 41.21127084682544], [-121.3468025306635, 41.20351356769422]]]}}, {"type": "Feature", "properties": {"pack": "CA127 (previously Whaleback 2)", "pack_origin": "Whaleback", "most_recent_adj": "09/27/2026"}, "geometry": {"type": "Polygon", "coordinates": [[[-121.87219981471908, 41.446784656909195], [-121.83946227207947, 41.471029848276316], [-121.84982813478558, 41.50278021830509], [-121.89294985757913, 41.510277338835735], [-121.9256767752105, 41.48602677779026], [-121.9152926134884, 41.45428446990237], [-121.87219981471908, 41.446784656909195]]]}}, {"type": "Feature", "properties": {"pack": "CA147 (previously Whaleback 4)", "pack_origin": "Whaleback", "most_recent_adj": "09/28/2026"}, "geometry": {"type": "Polygon", "coordinates": [[[-122.05496442781796, 41.5083826519601], [-122.02228785027, 41.53265700934091], [-122.03270870500953, 41.5643514584977], [-122.075824326536, 41.571763441894745], [-122.10849005146366, 41.54748375992291], [-122.09805102599655, 41.51579742310694], [-122.05496442781796, 41.5083826519601]]]}}, {"type": "Feature", "properties": {"pack": "CA121 (previously Whaleback Disperser 1)", "pack_origin": "Whaleback", "most_recent_adj": "09/28/2026"}, "geometry": {"type": "Polygon", "coordinates": [[[-121.84982813478558, 41.50278021830509], [-121.81706172024525, 41.5270122417673], [-121.82742762104712, 41.55874675167808], [-121.87057829349013, 41.56624120028104], [-121.90333409702362, 41.54200380687857], [-121.89294985757913, 41.510277338835735], [-121.84982813478558, 41.50278021830509]]]}}]}