{"type": "FeatureCollection", "features": [{"type": "Feature", "properties": {"pack": "CA091 (previously Yowlumni Disperser)", "pack_origin": "Beyem Seyo", "most_recent_adj": "10/09/2026"}, "geometry": {"type": "Polygon", "coordinates": [[[-118.59267635419496, 35.94504060824659], [-118.56033189002511, 35.9692495701328], [-118.56929955281906, 36.003250346631155], [-118.61063046324843, 36.01303436831596], [-118.64296897601527, 35.98881871784515], [-118.63398254445408, 35.9548257386222], [-118.59267635419496, 35.94504060824659]]]}}, {"type": "Feature", "properties": {"pack": "CA195", "pack_origin": "Long Valley", "most_recent_adj": "10/08/2026"}, "geometry": {"type": "Polygon", "coordinates": [[[-120.35382966839803, 39.555048436675136], [-120.3210626527138, 39.579235960921885], [-120.33082987426111, 39.61190127027127], [-120.37338292668703, 39.62037117171774], [-120.40614146308873, 39.596177786420036], [-120.39635544332414, 39.56352036498105], [-120.35382966839803, 39.555048436675136]]]}}, {"type": "Feature", "properties": {"pack": "CA131", "pack_origin": "Grizzly", "most_recent_adj": "10/09/2026"}, "geometry": {"type": "Polygon", "coordinates": [[[-120.47149784996357, 39.946245743476595], [-120.43865270273437, 39.97040638232014], [-120.44848975162101, 40.00292337983288], [-120.49119081888223, 40.01127188785052], [-120.52402728190555, 39.987105455055946], [-120.5141713790884, 39.95459631245814], [-120.47149784996357, 39.946245743476595]]]}}, {"type": "Feature", "properties": {"pack": "CA107 (previously Harvey 1)", "pack_origin": "Harvey", "most_recent_adj": "10/09/2026"}, "geometry": {"type": "Polygon", "coordinates": [[[-120.95982493660608, 40.61867328450404], [-120.92696537260161, 40.64284545138953], [-120.93700120988935, 40.67505053034441], [-120.97991535404108, 40.68307554048959], [-121.01276553596132, 40.65889774184438], [-121.00271097353614, 40.62670056900648], [-120.95982493660608, 40.61867328450404]]]}}, {"type": "Feature", "properties": {"pack": "CA150 (previously Harvey 3)", "pack_origin": "Harvey", "most_recent_adj": "10/09/2026"}, "geometry": {"type": "Polygon", "coordinates": [[[-120.95982493660608, 40.61867328450404], [-120.92696537260161, 40.64284545138953], [-120.93700120988935, 40.67505053034441], [-120.97991535404108, 40.68307554048959], [-121.01276553596132, 40.65889774184438], [-121.00271097353614, 40.62670056900648], [-120.95982493660608, 40.61867328450404]]]}}, {"type": "Feature", "properties": {"pack": "CA124 (previously Whaleback Disperser 2)", "pack_origin": "Whaleback", "most_recent_adj": "10/08/2026"}, "geometry": {"type": "Polygon", "coordinates": [[[-121.67814233403551, 40.72058950654726], [-121.64556125756421, 40.7448996467274], [-121.65579928059647, 40.77694014714649], [-121.69863658514248, 40.784662357933335], [-121.73120741807593, 40.76034674024436], [-121.72095120797877, 40.7283143932676], [-121.67814233403551, 40.72058950654726]]]}}, {"type": "Feature", "properties": {"pack": "CA077; pack origin: Whaleback", "pack_origin": "Whaleback", "most_recent_adj": "10/09/2026"}, "geometry": {"type": "Polygon", "coordinates": [[[-121.32411503809348, 41.25961594912318], [-121.29119874451507, 41.28377245260841], [-121.30139849656962, 41.31568930582326], [-121.34453323709009, 41.323441753719884], [-121.37743959155782, 41.299279749781135], [-121.36722116279581, 41.26737080255233], [-121.32411503809348, 41.25961594912318]]]}}, {"type": "Feature", "properties": {"pack": "CA146", "pack_origin": "Whaleback", "most_recent_adj": "10/09/2026"}, "geometry": {"type": "Polygon", "coordinates": [[[-122.04594823829049, 41.35716703189416], [-122.01331849230341, 41.38146205678994], [-122.023720755348, 41.41321204665038], [-122.06677090448204, 41.420658872458844], [-122.09938984213494, 41.39635850832255], [-122.08896945741093, 41.36461666156705], [-122.04594823829049, 41.35716703189416]]]}}, {"type": "Feature", "properties": {"pack": "CA147 (previously Whaleback 4)", "pack_origin": "Whaleback", "most_recent_adj": "10/08/2026"}, "geometry": {"type": "Polygon", "coordinates": [[[-121.93452374478755, 41.637103547737105], [-121.9017496865632, 41.66133306370211], [-121.91215247809633, 41.6930037321104], [-121.95534766571393, 41.700436846793366], [-121.9881109837516, 41.67620199000655], [-121.97768987291462, 41.644539363369596], [-121.93452374478755, 41.637103547737105]]]}}, {"type": "Feature", "properties": {"pack": "CA121 (previously Whaleback Disperser 1)", "pack_origin": "Whaleback", "most_recent_adj": "10/09/2026"}, "geometry": {"type": "Polygon", "coordinates": [[[-121.91215247809633, 41.6930037321104], [-121.87934944524885, 41.71721995031696], [-121.8897523077237, 41.7488746205873], [-121.93297658073121, 41.756305055067244], [-121.96576888729102, 41.73208349545645], [-121.95534766571393, 41.700436846793366], [-121.91215247809633, 41.6930037321104]]]}}, {"type": "Feature", "properties": {"pack": "CA127 (previously Whaleback 2)", "pack_origin": "Whaleback", "most_recent_adj": "10/08/2026"}, "geometry": {"type": "Polygon", "coordinates": [[[-121.7911874287437, 41.82145096991436], [-121.75828663502739, 41.84562154691522], [-121.76867109559775, 41.87725203967815], [-121.81197487718042, 41.884704008294], [-121.8448650590798, 41.860528073139804], [-121.83446208984014, 41.82890553159541], [-121.7911874287437, 41.82145096991436]]]}}]}