{"type": "FeatureCollection", "features": [{"type": "Feature", "properties": {"pack": "CA091 (previously Yowlumni Disperser)", "pack_origin": "Beyem Seyo", "most_recent_adj": "08/31/2026"}, "geometry": {"type": "Polygon", "coordinates": [[[-118.2414308707347, 35.63734962571794], [-118.20904647250661, 35.66151137597911], [-118.21789334707496, 35.69564371010045], [-118.25914353087994, 35.705606621676075], [-118.29152240860977, 35.681438085250434], [-118.28265663746551, 35.647313427827775], [-118.2414308707347, 35.63734962571794]]]}}, {"type": "Feature", "properties": {"pack": "CA131", "pack_origin": "Grizzly", "most_recent_adj": "08/31/2026"}, "geometry": {"type": "Polygon", "coordinates": [[[-120.47149784996357, 39.946245743476595], [-120.43865270273437, 39.97040638232014], [-120.44848975162101, 40.00292337983288], [-120.49119081888223, 40.01127188785052], [-120.52402728190555, 39.987105455055946], [-120.5141713790884, 39.95459631245814], [-120.47149784996357, 39.946245743476595]]]}}, {"type": "Feature", "properties": {"pack": "CA107 (previously Harvey 1)", "pack_origin": "Harvey", "most_recent_adj": "08/27/2026"}, "geometry": {"type": "Polygon", "coordinates": [[[-120.92248897068552, 40.36866356642822], [-120.88969611822723, 40.39286309092939], [-120.89969668762957, 40.425159877172504], [-120.94250878756571, 40.433249198332526], [-120.97529234900045, 40.40904400919023], [-120.96527311909996, 40.376755167705625], [-120.92248897068552, 40.36866356642822]]]}}, {"type": "Feature", "properties": {"pack": "CA150 (previously Harvey 3)", "pack_origin": "Harvey", "most_recent_adj": "08/31/2026"}, "geometry": {"type": "Polygon", "coordinates": [[[-120.89969668762957, 40.425159877172504], [-120.86687544853139, 40.44934658158245], [-120.8768755665305, 40.481628265976006], [-120.91971564092971, 40.48971532620858], [-120.95252760526633, 40.4655229587855], [-120.94250878756571, 40.433249198332526], [-120.89969668762957, 40.425159877172504]]]}}, {"type": "Feature", "properties": {"pack": "CA124 (previously Whaleback Disperser 2)", "pack_origin": "Whaleback", "most_recent_adj": "08/29/2026"}, "geometry": {"type": "Polygon", "coordinates": [[[-121.85098638784791, 40.63094078253265], [-121.81851117186129, 40.65529937037699], [-121.82878547505923, 40.68733875559545], [-121.87155302605971, 40.69501132031236], [-121.90401781724073, 40.67064728231145], [-121.89372550019846, 40.63861613367881], [-121.85098638784791, 40.63094078253265]]]}}, {"type": "Feature", "properties": {"pack": "CA077; pack origin: Whaleback", "pack_origin": "Whaleback", "most_recent_adj": "08/31/2026"}, "geometry": {"type": "Polygon", "coordinates": [[[-121.3468025306635, 41.20351356769422], [-121.31391504954286, 41.227683370579356], [-121.32411503809348, 41.25961594912318], [-121.36722116279581, 41.26737080255233], [-121.4000986893688, 41.24319549899925], [-121.38988006394231, 41.21127084682544], [-121.3468025306635, 41.20351356769422]]]}}, {"type": "Feature", "properties": {"pack": "CA121 (previously Whaleback Disperser 1)", "pack_origin": "Whaleback", "most_recent_adj": "08/30/2026"}, "geometry": {"type": "Polygon", "coordinates": [[[-122.03270870500953, 41.5643514584977], [-122.00000325143122, 41.58861271428945], [-122.01042423997399, 41.620291274482405], [-122.05356891087933, 41.6277004907641], [-122.08626352532484, 41.603433909993875], [-122.075824326536, 41.571763441894745], [-122.03270870500953, 41.5643514584977]]]}}, {"type": "Feature", "properties": {"pack": "CA127 (previously Whaleback 2)", "pack_origin": "Whaleback", "most_recent_adj": "08/30/2026"}, "geometry": {"type": "Polygon", "coordinates": [[[-122.01042423997399, 41.620291274482405], [-121.97768987291462, 41.644539363369596], [-121.9881109837516, 41.67620199000655], [-122.03128473006872, 41.683608459862036], [-122.06400827157204, 41.659355045520044], [-122.05356891087933, 41.6277004907641], [-122.01042423997399, 41.620291274482405]]]}}, {"type": "Feature", "properties": {"pack": "CA147 (previously Whaleback 4)", "pack_origin": "Whaleback", "most_recent_adj": "08/31/2026"}, "geometry": {"type": "Polygon", "coordinates": [[[-122.01042423997399, 41.620291274482405], [-121.97768987291462, 41.644539363369596], [-121.9881109837516, 41.67620199000655], [-122.03128473006872, 41.683608459862036], [-122.06400827157204, 41.659355045520044], [-122.05356891087933, 41.6277004907641], [-122.01042423997399, 41.620291274482405]]]}}]}