{"type": "FeatureCollection", "features": [{"type": "Feature", "properties": {"pack": "CA091 (previously Yowlumni Disperser)", "pack_origin": "Beyem Seyo", "most_recent_adj": "08/21/2026"}, "geometry": {"type": "Polygon", "coordinates": [[[-118.565784537848, 35.84297467090847], [-118.53346036631582, 35.86718697526658], [-118.54241230093689, 35.901217862398916], [-118.58370717327713, 35.911028646716424], [-118.61602543505325, 35.886809630975854], [-118.6070547488914, 35.852786546644], [-118.565784537848, 35.84297467090847]]]}}, {"type": "Feature", "properties": {"pack": "CA131", "pack_origin": "Grizzly", "most_recent_adj": "08/21/2026"}, "geometry": {"type": "Polygon", "coordinates": [[[-120.44848975162101, 40.00292337983288], [-120.41561640423909, 40.02707128524001], [-120.42545277375969, 40.05957348595996], [-120.4681814009048, 40.06791995164524], [-120.50104608140899, 40.04376625466644], [-120.49119081888223, 40.01127188785052], [-120.44848975162101, 40.00292337983288]]]}}, {"type": "Feature", "properties": {"pack": "CA107 (previously Harvey 1)", "pack_origin": "Harvey", "most_recent_adj": "08/19/2026"}, "geometry": {"type": "Polygon", "coordinates": [[[-120.82404441742113, 40.441230818327625], [-120.7911855679424, 40.465398959247594], [-120.80116692054918, 40.49768853481335], [-120.84402590561277, 40.50580208250065], [-120.8768755665305, 40.481628265976006], [-120.86687544853139, 40.44934658158245], [-120.82404441742113, 40.441230818327625]]]}}, {"type": "Feature", "properties": {"pack": "CA150 (previously Harvey 3)", "pack_origin": "Harvey", "most_recent_adj": "08/18/2026"}, "geometry": {"type": "Polygon", "coordinates": [[[-121.05827090988238, 40.54609375439224], [-121.02547770443947, 40.57029740504004], [-121.035532649469, 40.60250981065009], [-121.07839943727866, 40.610510610499375], [-121.11118315847762, 40.58630133972915], [-121.10110959382338, 40.55409689338784], [-121.05827090988238, 40.54609375439224]]]}}, {"type": "Feature", "properties": {"pack": "CA124 (previously Whaleback Disperser 2)", "pack_origin": "Whaleback", "most_recent_adj": "08/17/2026"}, "geometry": {"type": "Polygon", "coordinates": [[[-121.60273191553689, 40.737148525548236], [-121.57011220094752, 40.761440539317555], [-121.58033196970896, 40.79348916181908], [-121.62318972529782, 40.80123765248339], [-121.65579928059647, 40.77694014714649], [-121.64556125756421, 40.7448996467274], [-121.60273191553689, 40.737148525548236]]]}}, {"type": "Feature", "properties": {"pack": "CA077; pack origin: Whaleback", "pack_origin": "Whaleback", "most_recent_adj": "08/16/2026"}, "geometry": {"type": "Polygon", "coordinates": [[[-121.3468025306635, 41.20351356769422], [-121.31391504954286, 41.227683370579356], [-121.32411503809348, 41.25961594912318], [-121.36722116279581, 41.26737080255233], [-121.4000986893688, 41.24319549899925], [-121.38988006394231, 41.21127084682544], [-121.3468025306635, 41.20351356769422]]]}}, {"type": "Feature", "properties": {"pack": "CA127 (previously Whaleback 2)", "pack_origin": "Whaleback", "most_recent_adj": "08/20/2026"}, "geometry": {"type": "Polygon", "coordinates": [[[-122.03270870500953, 41.5643514584977], [-122.00000325143122, 41.58861271428945], [-122.01042423997399, 41.620291274482405], [-122.05356891087933, 41.6277004907641], [-122.08626352532484, 41.603433909993875], [-122.075824326536, 41.571763441894745], [-122.03270870500953, 41.5643514584977]]]}}, {"type": "Feature", "properties": {"pack": "CA121 (previously Whaleback Disperser 1)", "pack_origin": "Whaleback", "most_recent_adj": "08/21/2026"}, "geometry": {"type": "Polygon", "coordinates": [[[-121.9568661568964, 41.58117417701506], [-121.92412103584168, 41.605416925574154], [-121.93452374478755, 41.637103547737105], [-121.97768987291462, 41.644539363369596], [-122.01042423997399, 41.620291274482405], [-122.00000325143122, 41.58861271428945], [-121.9568661568964, 41.58117417701506]]]}}, {"type": "Feature", "properties": {"pack": "CA147 (previously Whaleback 4)", "pack_origin": "Whaleback", "most_recent_adj": "08/21/2026"}, "geometry": {"type": "Polygon", "coordinates": [[[-122.01042423997399, 41.620291274482405], [-121.97768987291462, 41.644539363369596], [-121.9881109837516, 41.67620199000655], [-122.03128473006872, 41.683608459862036], [-122.06400827157204, 41.659355045520044], [-122.05356891087933, 41.6277004907641], [-122.01042423997399, 41.620291274482405]]]}}]}