{"type": "FeatureCollection", "features": [{"type": "Feature", "properties": {"pack": "CA091 (previously Yowlumni Disperser)", "pack_origin": "Beyem Seyo", "most_recent_adj": "08/07/2026"}, "geometry": {"type": "Polygon", "coordinates": [[[-118.52246262205995, 36.11960555471735], [-118.49003937856484, 36.14378389954145], [-118.499002409295, 36.17775074897549], [-118.54040757510435, 36.1875315280366], [-118.57282492785788, 36.16334652018483], [-118.56384302028518, 36.12938740068914], [-118.52246262205995, 36.11960555471735]]]}}, {"type": "Feature", "properties": {"pack": "CA131", "pack_origin": "Grizzly", "most_recent_adj": "08/07/2026"}, "geometry": {"type": "Polygon", "coordinates": [[[-120.47149784996357, 39.946245743476595], [-120.43865270273437, 39.97040638232014], [-120.44848975162101, 40.00292337983288], [-120.49119081888223, 40.01127188785052], [-120.52402728190555, 39.987105455055946], [-120.5141713790884, 39.95459631245814], [-120.47149784996357, 39.946245743476595]]]}}, {"type": "Feature", "properties": {"pack": "CA150 (previously Harvey 3)", "pack_origin": "Harvey", "most_recent_adj": "07/27/2026"}, "geometry": {"type": "Polygon", "coordinates": [[[-121.17914208323528, 40.416938058362724], [-121.14644360824141, 40.44118560480211], [-121.15651782319367, 40.47342033067273], [-121.19930900608881, 40.48139948102765], [-121.23199787997183, 40.45714632459016], [-121.22190518974901, 40.42491963190156], [-121.17914208323528, 40.416938058362724]]]}}, {"type": "Feature", "properties": {"pack": "CA107 (previously Harvey 1)", "pack_origin": "Harvey", "most_recent_adj": "08/07/2026"}, "geometry": {"type": "Polygon", "coordinates": [[[-120.8768755665305, 40.481628265976006], [-120.84402590561277, 40.50580208250065], [-120.85402555987724, 40.53806861652614], [-120.89689363167403, 40.54615343507611], [-120.92973403418522, 40.52197395708072], [-120.91971564092971, 40.48971532620858], [-120.8768755665305, 40.481628265976006]]]}}, {"type": "Feature", "properties": {"pack": "CA077; pack origin: Whaleback", "pack_origin": "Whaleback", "most_recent_adj": "07/31/2026"}, "geometry": {"type": "Polygon", "coordinates": [[[-121.3468025306635, 41.20351356769422], [-121.31391504954286, 41.227683370579356], [-121.32411503809348, 41.25961594912318], [-121.36722116279581, 41.26737080255233], [-121.4000986893688, 41.24319549899925], [-121.38988006394231, 41.21127084682544], [-121.3468025306635, 41.20351356769422]]]}}, {"type": "Feature", "properties": {"pack": "CA124 (previously Whaleback Disperser 2)", "pack_origin": "Whaleback", "most_recent_adj": "08/06/2026"}, "geometry": {"type": "Polygon", "coordinates": [[[-121.60273191553689, 40.737148525548236], [-121.57011220094752, 40.761440539317555], [-121.58033196970896, 40.79348916181908], [-121.62318972529782, 40.80123765248339], [-121.65579928059647, 40.77694014714649], [-121.64556125756421, 40.7448996467274], [-121.60273191553689, 40.737148525548236]]]}}, {"type": "Feature", "properties": {"pack": "CA127 (previously Whaleback 2)", "pack_origin": "Whaleback", "most_recent_adj": "08/06/2026"}, "geometry": {"type": "Polygon", "coordinates": [[[-122.04594823829049, 41.35716703189416], [-122.01331849230341, 41.38146205678994], [-122.023720755348, 41.41321204665038], [-122.06677090448204, 41.420658872458844], [-122.09938984213494, 41.39635850832255], [-122.08896945741093, 41.36461666156705], [-122.04594823829049, 41.35716703189416]]]}}, {"type": "Feature", "properties": {"pack": "CA147 (previously Whaleback 4)", "pack_origin": "Whaleback", "most_recent_adj": "08/07/2026"}, "geometry": {"type": "Polygon", "coordinates": [[[-122.03270870500953, 41.5643514584977], [-122.00000325143122, 41.58861271428945], [-122.01042423997399, 41.620291274482405], [-122.05356891087933, 41.6277004907641], [-122.08626352532484, 41.603433909993875], [-122.075824326536, 41.571763441894745], [-122.03270870500953, 41.5643514584977]]]}}, {"type": "Feature", "properties": {"pack": "CA121 (previously Whaleback Disperser 1)", "pack_origin": "Whaleback", "most_recent_adj": "08/06/2026"}, "geometry": {"type": "Polygon", "coordinates": [[[-122.03270870500953, 41.5643514584977], [-122.00000325143122, 41.58861271428945], [-122.01042423997399, 41.620291274482405], [-122.05356891087933, 41.6277004907641], [-122.08626352532484, 41.603433909993875], [-122.075824326536, 41.571763441894745], [-122.03270870500953, 41.5643514584977]]]}}, {"type": "Feature", "properties": {"pack": "CA039 (previously Whaleback 1)", "pack_origin": "Whaleback", "most_recent_adj": "08/07/2026"}, "geometry": {"type": "Polygon", "coordinates": [[[-122.03270870500953, 41.5643514584977], [-122.00000325143122, 41.58861271428945], [-122.01042423997399, 41.620291274482405], [-122.05356891087933, 41.6277004907641], [-122.08626352532484, 41.603433909993875], [-122.075824326536, 41.571763441894745], [-122.03270870500953, 41.5643514584977]]]}}]}