{"type": "FeatureCollection", "features": [{"type": "Feature", "properties": {"pack": "CA091 (previously Yowlumni Disperser)", "pack_origin": "Beyem Seyo", "most_recent_adj": "08/20/2026"}, "geometry": {"type": "Polygon", "coordinates": [[[-118.51557219613179, 35.799095245027225], [-118.48324217645548, 35.82330082390621], [-118.49217686920673, 35.85735057973118], [-118.53346036631582, 35.86718697526658], [-118.565784537848, 35.84297467090847], [-118.55683107502381, 35.80893270084731], [-118.51557219613179, 35.799095245027225]]]}}, {"type": "Feature", "properties": {"pack": "CA131", "pack_origin": "Grizzly", "most_recent_adj": "08/20/2026"}, "geometry": {"type": "Polygon", "coordinates": [[[-120.47149784996357, 39.946245743476595], [-120.43865270273437, 39.97040638232014], [-120.44848975162101, 40.00292337983288], [-120.49119081888223, 40.01127188785052], [-120.52402728190555, 39.987105455055946], [-120.5141713790884, 39.95459631245814], [-120.47149784996357, 39.946245743476595]]]}}, {"type": "Feature", "properties": {"pack": "CA107 (previously Harvey 1)", "pack_origin": "Harvey", "most_recent_adj": "08/19/2026"}, "geometry": {"type": "Polygon", "coordinates": [[[-120.84689301827, 40.384745092917534], [-120.81406257412493, 40.40892612010659], [-120.82404441742113, 40.441230818327625], [-120.86687544853139, 40.44934658158245], [-120.89969668762957, 40.425159877172504], [-120.88969611822723, 40.39286309092939], [-120.84689301827, 40.384745092917534]]]}}, {"type": "Feature", "properties": {"pack": "CA150 (previously Harvey 3)", "pack_origin": "Harvey", "most_recent_adj": "08/18/2026"}, "geometry": {"type": "Polygon", "coordinates": [[[-121.05827090988238, 40.54609375439224], [-121.02547770443947, 40.57029740504004], [-121.035532649469, 40.60250981065009], [-121.07839943727866, 40.610510610499375], [-121.11118315847762, 40.58630133972915], [-121.10110959382338, 40.55409689338784], [-121.05827090988238, 40.54609375439224]]]}}, {"type": "Feature", "properties": {"pack": "CA124 (previously Whaleback Disperser 2)", "pack_origin": "Whaleback", "most_recent_adj": "08/17/2026"}, "geometry": {"type": "Polygon", "coordinates": [[[-121.60273191553689, 40.737148525548236], [-121.57011220094752, 40.761440539317555], [-121.58033196970896, 40.79348916181908], [-121.62318972529782, 40.80123765248339], [-121.65579928059647, 40.77694014714649], [-121.64556125756421, 40.7448996467274], [-121.60273191553689, 40.737148525548236]]]}}, {"type": "Feature", "properties": {"pack": "CA077; pack origin: Whaleback", "pack_origin": "Whaleback", "most_recent_adj": "08/16/2026"}, "geometry": {"type": "Polygon", "coordinates": [[[-121.3468025306635, 41.20351356769422], [-121.31391504954286, 41.227683370579356], [-121.32411503809348, 41.25961594912318], [-121.36722116279581, 41.26737080255233], [-121.4000986893688, 41.24319549899925], [-121.38988006394231, 41.21127084682544], [-121.3468025306635, 41.20351356769422]]]}}, {"type": "Feature", "properties": {"pack": "CA127 (previously Whaleback 2)", "pack_origin": "Whaleback", "most_recent_adj": "08/19/2026"}, "geometry": {"type": "Polygon", "coordinates": [[[-122.03270870500953, 41.5643514584977], [-122.00000325143122, 41.58861271428945], [-122.01042423997399, 41.620291274482405], [-122.05356891087933, 41.6277004907641], [-122.08626352532484, 41.603433909993875], [-122.075824326536, 41.571763441894745], [-122.03270870500953, 41.5643514584977]]]}}, {"type": "Feature", "properties": {"pack": "CA121 (previously Whaleback Disperser 1)", "pack_origin": "Whaleback", "most_recent_adj": "08/18/2026"}, "geometry": {"type": "Polygon", "coordinates": [[[-122.10849005146366, 41.54748375992291], [-122.075824326536, 41.571763441894745], [-122.08626352532484, 41.603433909993875], [-122.12938660844189, 41.610816577952896], [-122.16204140942973, 41.58653158645045], [-122.15158406978675, 41.554869240469614], [-122.10849005146366, 41.54748375992291]]]}}, {"type": "Feature", "properties": {"pack": "CA147 (previously Whaleback 4)", "pack_origin": "Whaleback", "most_recent_adj": "08/19/2026"}, "geometry": {"type": "Polygon", "coordinates": [[[-121.90333409702362, 41.54200380687857], [-121.87057829349013, 41.56624120028104], [-121.88096259905593, 41.597951783606405], [-121.92412103584168, 41.605416925574154], [-121.9568661568964, 41.58117417701506], [-121.94646354213808, 41.549471645655345], [-121.90333409702362, 41.54200380687857]]]}}]}