{"type": "FeatureCollection", "features": [{"type": "Feature", "properties": {"pack": "CA091 (previously Yowlumni Disperser)", "pack_origin": "Beyem Seyo", "most_recent_adj": "09/27/2026"}, "geometry": {"type": "Polygon", "coordinates": [[[-118.90601462691643, 35.668441941223186], [-118.87387143143349, 35.692739888041515], [-118.8829008030332, 35.726761251091666], [-118.92409184678688, 35.736476666597326], [-118.9562287687547, 35.712172013068084], [-118.94718093519063, 35.67815865496599], [-118.90601462691643, 35.668441941223186]]]}}, {"type": "Feature", "properties": {"pack": "CA195", "pack_origin": "Long Valley", "most_recent_adj": "09/27/2026"}, "geometry": {"type": "Polygon", "coordinates": [[[-120.35382966839803, 39.555048436675136], [-120.3210626527138, 39.579235960921885], [-120.33082987426111, 39.61190127027127], [-120.37338292668703, 39.62037117171774], [-120.40614146308873, 39.596177786420036], [-120.39635544332414, 39.56352036498105], [-120.35382966839803, 39.555048436675136]]]}}, {"type": "Feature", "properties": {"pack": "CA131", "pack_origin": "Grizzly", "most_recent_adj": "09/27/2026"}, "geometry": {"type": "Polygon", "coordinates": [[[-120.56990325949889, 39.873701646132744], [-120.53712312839824, 39.89789334433003], [-120.54697965898904, 39.930417212552484], [-120.5896350886423, 39.93874147714345], [-120.6224064324331, 39.914543994132195], [-120.6125311510899, 39.88202803557016], [-120.56990325949889, 39.873701646132744]]]}}, {"type": "Feature", "properties": {"pack": "CA107 (previously Harvey 1)", "pack_origin": "Harvey", "most_recent_adj": "09/27/2026"}, "geometry": {"type": "Polygon", "coordinates": [[[-120.74833573884617, 40.45725670802773], [-120.71543934684608, 40.48140620682687], [-120.72540186843494, 40.51370364069706], [-120.7682796306124, 40.52184372170153], [-120.80116692054918, 40.49768853481335], [-120.7911855679424, 40.465398959247594], [-120.74833573884617, 40.45725670802773]]]}}, {"type": "Feature", "properties": {"pack": "CA150 (previously Harvey 3)", "pack_origin": "Harvey", "most_recent_adj": "09/27/2026"}, "geometry": {"type": "Polygon", "coordinates": [[[-120.74833573884617, 40.45725670802773], [-120.71543934684608, 40.48140620682687], [-120.72540186843494, 40.51370364069706], [-120.7682796306124, 40.52184372170153], [-120.80116692054918, 40.49768853481335], [-120.7911855679424, 40.465398959247594], [-120.74833573884617, 40.45725670802773]]]}}, {"type": "Feature", "properties": {"pack": "CA124 (previously Whaleback Disperser 2)", "pack_origin": "Whaleback", "most_recent_adj": "09/27/2026"}, "geometry": {"type": "Polygon", "coordinates": [[[-121.70045689394574, 40.664211033882516], [-121.66790426010166, 40.68853374177223], [-121.67814233403551, 40.72058950654726], [-121.72095120797877, 40.7283143932676], [-121.75349358412029, 40.70398620683839], [-121.74323736197354, 40.671938616205665], [-121.70045689394574, 40.664211033882516]]]}}, {"type": "Feature", "properties": {"pack": "CA077; pack origin: Whaleback", "pack_origin": "Whaleback", "most_recent_adj": "09/27/2026"}, "geometry": {"type": "Polygon", "coordinates": [[[-121.3468025306635, 41.20351356769422], [-121.31391504954286, 41.227683370579356], [-121.32411503809348, 41.25961594912318], [-121.36722116279581, 41.26737080255233], [-121.4000986893688, 41.24319549899925], [-121.38988006394231, 41.21127084682544], [-121.3468025306635, 41.20351356769422]]]}}, {"type": "Feature", "properties": {"pack": "CA121 (previously Whaleback Disperser 1)", "pack_origin": "Whaleback", "most_recent_adj": "09/27/2026"}, "geometry": {"type": "Polygon", "coordinates": [[[-121.90333409702362, 41.54200380687857], [-121.87057829349013, 41.56624120028104], [-121.88096259905593, 41.597951783606405], [-121.92412103584168, 41.605416925574154], [-121.9568661568964, 41.58117417701506], [-121.94646354213808, 41.549471645655345], [-121.90333409702362, 41.54200380687857]]]}}, {"type": "Feature", "properties": {"pack": "CA127 (previously Whaleback 2)", "pack_origin": "Whaleback", "most_recent_adj": "09/26/2026"}, "geometry": {"type": "Polygon", "coordinates": [[[-122.13984414950045, 41.64246303081753], [-122.10716044564948, 41.666734921576875], [-122.11761817675229, 41.69836543683882], [-122.16077778065524, 41.7057159536965], [-122.19345050240781, 41.68143876798204], [-122.18297462096429, 41.64981636431552], [-122.13984414950045, 41.64246303081753]]]}}, {"type": "Feature", "properties": {"pack": "CA147 (previously Whaleback 4)", "pack_origin": "Whaleback", "most_recent_adj": "09/27/2026"}, "geometry": {"type": "Polygon", "coordinates": [[[-122.13984414950045, 41.64246303081753], [-122.10716044564948, 41.666734921576875], [-122.11761817675229, 41.69836543683882], [-122.16077778065524, 41.7057159536965], [-122.19345050240781, 41.68143876798204], [-122.18297462096429, 41.64981636431552], [-122.13984414950045, 41.64246303081753]]]}}]}